PSAL,Site_name,Smithsonian,Local_ID,Owner,Country,State,County,Processed,Notes,Lat,Lon
24,Witt,,1,Nyers,USA,CA,Kings,Processed,"Nyers Clovis-like from Tulare Lake Basin.   Alan Garfinkel Gold from California State University, Bakersfield",36.07852,-119.80337
25,Witt,,2,Nyers,USA,CA,Kings,Processed,"Nyers Clovis-like from Tulare Lake Basin.   Alan Garfinkel Gold from California State University, Bakersfield",36.07852,-119.80337
26,Witt,,3,Nyers,USA,CA,Kings,Processed,"Nyers Clovis-like from Tulare Lake Basin.   Alan Garfinkel Gold from California State University, Bakersfield",36.07852,-119.80337
27,Witt,,4,Nyers,USA,CA,Kings,Processed,"Nyers Clovis-like from Tulare Lake Basin.   Alan Garfinkel Gold from California State University, Bakersfield",36.07852,-119.80337
28,Witt,,5,Nyers,USA,CA,Kings,Processed,"Nyers Clovis-like from Tulare Lake Basin.   Alan Garfinkel Gold from California State University, Bakersfield",36.07852,-119.80337
29,Witt,,6,Nyers,USA,CA,Kings,Processed,"Nyers Clovis-like from Tulare Lake Basin.   Alan Garfinkel Gold from California State University, Bakersfield",36.07852,-119.80337
30,Witt,,82-A801-7,Nyers,USA,CA,Kings,Processed,"Nyers Clovis-like from Tulare Lake Basin.   Alan Garfinkel Gold from California State University, Bakersfield",36.07852,-119.80337
31,Witt,,9412.60,Nyers,USA,CA,Kings,Processed,"Nyers Clovis-like from Tulare Lake Basin.   Alan Garfinkel Gold from California State University, Bakersfield",36.07852,-119.80337
32,Witt,,D2154,Nyers,USA,CA,Kings,Processed,"Nyers Clovis-like from Tulare Lake Basin.   Alan Garfinkel Gold from California State University, Bakersfield",36.07852,-119.80337
33,Witt,,D4103,Nyers,USA,CA,Kings,Processed,"Nyers Clovis-like from Tulare Lake Basin.   Alan Garfinkel Gold from California State University, Bakersfield",36.07852,-119.80337
34,Witt,,D4109,Nyers,USA,CA,Kings,Processed,"Nyers Clovis-like from Tulare Lake Basin.   Alan Garfinkel Gold from California State University, Bakersfield",36.07852,-119.80337
35,Witt,,D41013,Nyers,USA,CA,Kings,Processed,"Nyers Clovis-like from Tulare Lake Basin.   Alan Garfinkel Gold from California State University, Bakersfield",36.07852,-119.80337
36,Witt,,D41041,Nyers,USA,CA,Kings,Processed,"Nyers Clovis-like from Tulare Lake Basin.   Alan Garfinkel Gold from California State University, Bakersfield",36.07852,-119.80337
194,,,,Nyers,,,,Free to use,,,
274,Cooper's Ferry PFP1,10IH73,73-24940,Nyers,USA,ID,Idaho,Processed,Cooper's Ferry Pit Feature P1,45.83513,-115.46639
275,Cooper's Ferry PFP1,10IH73,73-24941,Nyers,USA,ID,Idaho,Processed,Cooper's Ferry Pit Feature P1,45.83513,-115.46639
276,Cooper's Ferry PFP1,10IH73,73-24942,Nyers,USA,ID,Idaho,Processed,Cooper's Ferry Pit Feature P1,45.83513,-115.46639
277,Cooper's Ferry PFP1,10IH73,73-24943,Nyers,USA,ID,Idaho,Processed,Cooper's Ferry Pit Feature P1,45.83513,-115.46639
278,Cooper's Ferry,10IH73,73-30048,Nyers,USA,ID,Idaho,Processed,"Unit V level 1 F61 (PFP2). Rn 25201, rescanned LGD 2022  (orig still avail as 1000278)",45.83513,-115.46639
279,Cooper's Ferry,10IH73,73-24946,Nyers,USA,ID,Idaho,Processed,Cleanup level 1. From wall of Unit O.,45.83513,-115.46639
280,Cooper's Ferry PFP1,10IH73,73-24948,Nyers,USA,ID,Idaho,Processed,Cooper's Ferry Pit Feature P1,45.83513,-115.46639
281,Cooper's Ferry PFP1,10IH73,73-24949,Nyers,USA,ID,Idaho,Processed,Cooper's Ferry Pit Feature P1 (auger),45.83513,-115.46639
282,Cooper's Ferry PFP1,10IH73,73-24951,Nyers,USA,ID,Idaho,Processed,Cooper's Ferry Pit Feature P1,45.83513,-115.46639
283,Cooper's Ferry PFP1,10IH73,73-24952,Nyers,USA,ID,Idaho,Processed,Cooper's Ferry Pit Feature P1,45.83513,-115.46639
284,Cooper's Ferry PFP1,10IH73,73-34054,Nyers,USA,ID,Idaho,Processed,Cooper's Ferry Pit Feature P1        (changed from 73-24956),45.83513,-115.46639
285,Cooper's Ferry PFP1,10IH73,73-24957,Nyers,USA,ID,Idaho,Processed,Cooper's Ferry Pit Feature P1,45.83513,-115.46639
286,Cooper's Ferry PFP1,10IH73,73-24959,Nyers,USA,ID,Idaho,Processed,Cooper's Ferry Pit Feature P1,45.83513,-115.46639
295,Pilcher Creek,35UN147,G-429,Curteman,USA,OR,Union,Processed,Pilcher Creek G-429,45.29975,-118.00667
296,Pilcher Creek,35UN147,K-6,Curteman,USA,OR,Union,Processed,Pilcher Creek K-6,45.29975,-118.00667
297,Pilcher Creek,35UN147,L-32,Curteman,USA,OR,Union,Processed,Pilcher Creek L-32,45.29975,-118.00667
298,Pilcher Creek,35UN147,J-62,Curteman,USA,OR,Union,Processed,Pilcher Creek J-62,45.29975,-118.00667
299,Pilcher Creek,35UN147,H-21,Curteman,USA,OR,Union,Processed,Pilcher Creek H-21,45.29975,-118.00667
300,Pilcher Creek,35UN147,J-98,Curteman,USA,OR,Union,Processed,Pilcher Creek J-98,45.29975,-118.00667
301,Pilcher Creek,35UN147,G-235,Curteman,USA,OR,Union,Processed,Pilcher Creek G-235,45.29975,-118.00667
302,Pilcher Creek,35UN147,H-27,Curteman,USA,OR,Union,Processed,Pilcher Creek H-27,45.29975,-118.00667
303,Pilcher Creek,35UN147,G-3,Curteman,USA,OR,Union,Processed,Pilcher Creek G-3;    potential scan edit for detail with flake,45.29975,-118.00667
304,Pilcher Creek,35UN147,G-180,Curteman,USA,OR,Union,Processed,Pilcher Creek G-180,45.29975,-118.00667
305,Pilcher Creek,35UN147,K-35,Curteman,USA,OR,Union,Processed,(no Procrustes) Pilcher Creek K-35,45.29975,-118.00667
306,Pilcher Creek,35UN147,G-432,Curteman,USA,OR,Union,Processed,Pilcher Creek G-432,45.29975,-118.00667
307,Pilcher Creek,35UN147,F-101,Curteman,USA,OR,Union,Processed,Pilcher Creek F-101,45.29975,-118.00667
309,Pilcher Creek,35UN147,J-77,Curteman,USA,OR,Union,Processed,Pilcher Creek J-77,45.29975,-118.00667
310,Pilcher Creek,35UN147,K-92,Curteman,USA,OR,Union,Processed,(no Procrustes) Pilcher Creek K-92,45.29975,-118.00667
311,Pilcher Creek,35UN147,K-16,Curteman,USA,OR,Union,Processed,Pilcher Creek K-16,45.29975,-118.00667
312,Pilcher Creek,35UN147,L-21,Curteman,USA,OR,Union,Processed,Pilcher Creek L-21  changed weight to 14.5 from 24.5,45.29975,-118.00667
313,Pilcher Creek,35UN147,103,Curteman,USA,OR,Union,Processed,Pilcher Creek 103,45.29975,-118.00667
314,Pilcher Creek,35UN147,K-2,Curteman,USA,OR,Union,Processed,Pilcher Creek K-2,45.29975,-118.00667
315,Pilcher Creek,35UN147,87,Curteman,USA,OR,Union,Processed,Pilcher Creek  87,45.29975,-118.00667
316,Pilcher Creek,35UN147,G-69,Curteman,USA,OR,Union,Processed,Pilcher Creek G-69,45.29975,-118.00667
317,Pilcher Creek,35UN147,G-346,Curteman,USA,OR,Union,Processed,Pilcher Creek G-346,45.29975,-118.00667
318,Pilcher Creek,35UN147,G-266,Curteman,USA,OR,Union,Processed,(no Procrustes) Pilcher Creek G-266,45.29975,-118.00667
319,Pilcher Creek,35UN147,122,Curteman,USA,OR,Union,Processed,Pilcher Creek -122,45.29975,-118.00667
320,Pilcher Creek,35UN147,F-81,Curteman,USA,OR,Union,Processed,Pilcher Creek F-81,45.29975,-118.00667
321,Cooper's Ferry,10IH73,73-59020,Nyers,USA,ID,Idaho,Processed,Unit B NW Level 9. RN 162,45.83513,-115.46639
322,Cooper's Ferry,10IH73,73-59262,Nyers,USA,ID,Idaho,Processed,Unit D SW Lv 9,45.83513,-115.46639
323,Cooper's Ferry,10IH73,73-29701,Skinner,USA,ID,Idaho,Processed,Unit F NW Level 15. RN 25084,45.83513,-115.46639
324,Cooper's Ferry,10IH73,73-30095,Nyers,USA,ID,Idaho,Processed,Unit E SE Level 16. RN 17610,45.83513,-115.46639
325,Cooper's Ferry,10IH73,73-23998,Nyers,USA,ID,Idaho,Processed,Unit J NE Level 17. RN 14004,45.83513,-115.46639
326,Cooper's Ferry PFP1,10IH73,73-27087,Nyers,USA,ID,Idaho,Processed,Cooper's Ferry Pit Feature P1,45.83513,-115.46639
327,Cooper's Ferry PFP1,10IH73,73-24958,Nyers,USA,ID,Idaho,Processed,Cooper's Ferry Pit Feature P1,45.83513,-115.46639
328,Cooper's Ferry PFA2,10IH73,73-627,Nyers,USA,ID,Idaho,Processed,Unit A SE Level 28,45.83513,-115.46639
329,Cooper's Ferry PFA2,10IH73,73-626,Nyers,USA,ID,Idaho,Processed,Unit A SE Level 28,45.83513,-115.46639
330,Cooper's Ferry PFA2,10IH73,73-628,Nyers,USA,ID,Idaho,Processed,Unit A SE Level 28,45.83513,-115.46639
331,Cooper's Ferry PFA2,10IH73,73-629,Nyers,USA,ID,Idaho,Processed,Mostly complete stemmed point. Unit A SE Level 28,45.83513,-115.46639
333,,,,Nyers,,,,Free to use,,,
334,,,,Nyers,,,,Free to use,,,
339,,,,Nyers,,,,Free to use,,,
401,Rush Valley,,IO-23,Carroll,USA,UT,Tooele,Processed,Isolated Clovis on private land via Jesse Adams with Logan-Simpson,40.45027,-113.12504
404,,,,Nyers,,,,Free to use,,,
406,,,,Nyers,,,,Free to use,,,
409,,,,Nyers,,,,Free to use,,,
413,,,,Nyers,,,,Free to use,,,
418,,,,Nyers,,,,Free to use,,,
419,,,,Nyers,,,,Free to use,,,
476,,,,Nyers,,,,Free to use,,,
484,,,,Nyers,,,,Free to use,,,
485,,,,Nyers,,,,Free to use,,,
486,,,,Nyers,,,,Free to use,,,
1261,Harper Collection (Comanche),,CR-1,Carroll,USA,TX,Comanche,Processed,Clovis CL-1 (briefly CL-08) repaired (edited by Nyers),31.95138,-98.55951
1262,Hoyt,35HA2422,CR-2,Carroll,USA,OR,Harney,Processed,,43.05989,-118.96301
1263,Fenn cache,,CR-3,Carroll,USA,Multiple,Multiple,Processed,,41.10000,-110.90000
1264,Dugaway Nowickie,,CR-4,Carroll,USA,UT,Tooele,Processed,,40.45026,-113.12504
1265,Bill German Collection (Tyler),,CR-5,Carroll,USA,TX,Tyler,Processed,,30.77044,-94.37593
1266,Harper Collection (S. Texas),,CR-6,Carroll,USA,TX,Multiple,Processed,,29.00000,-98.00000
1267,Cascade Reservoir,,CR-7,Carroll,USA,ID,Valley,Processed,,44.75774,-115.56207
1268,Fenn cache,,CR-8,Carroll,USA,Multiple,Multiple,Processed,,41.10000,-110.90000
1269,Bill German Collection (Montgomery),,CR-9,Carroll,USA,TX,Montgomery,Processed,,30.30417,-95.50302
1270,Lange-Ferguson,39SH33,CR-10,Carroll,USA,SD,Shannon,Processed,,43.33191,-102.55576
1271,Lange-Ferguson,39SH33,CR-11,Carroll,USA,SD,Shannon,Failed,Missing face 1 error,43.33191,-102.55576
1272,Greg Nunn (Private Collection),,CR-12,Carroll,USA,UT,Unknown,Processed,,40.00000,-112.00000
1273,Gault,41BL323,CR-13,Carroll,USA,TX,Bell,Processed,,31.04559,-97.48227
1274,Roosevelt (NM),,CR-14,Carroll,USA,NM,Roosevelt,Processed,,34.01996,-103.46558
1275,Richey/Roberts,45DO432,CR-15,Carroll,USA,WA,Douglas,Failed,Missing face 1 error,47.73661,-119.68566
1276,Rutz Collection,,CR-16,Carroll,USA,WA,Douglas,Processed,Has been inverted from original.    Complexly contructed face 2 flute,47.73661,-119.68566
1277,Estergreen Collection,,CR-17,Carroll,USA,OR,Lake,Processed,,43.13500,-119.96400
1278,Harper Collection (Sabine),,CR-18,Carroll,USA,TX,Sabine,Processed,,31.34789,-93.85124
1279,Woodbury-isolated,,CR-19,Carroll,USA,IA,Woodbury,Processed,,42.39109,-96.05100
1280,Domebo,34CD50,CR-20,Carroll,USA,OK,Caddo,Processed,,35.17688,-98.37100
1281,Hoyt,35HA2422,CR-21,Carroll,USA,OR,Harney,Processed,,43.05989,-118.96301
1282,Scott Collection,,CR-22,Carroll,USA,IA,Linn,Failed,Missing face 1 error,42.07503,-91.60245
1283,Kimmswick,23JE02,CR-23,Carroll,USA,MO,Jefferson,Processed,Has been inverted from original,38.26247,-90.53832
1284,"Butler, MO",,CR-24,Carroll,USA,MO,Butler,Processed,,36.71341,-90.41143
1285,Colby,48WA322,CR-25,Carroll,USA,WY,Washakie,Processed,,43.90339,-107.68654
1286,Colby,48WA322,CR-26,Carroll,USA,WY,Washakie,Processed,,43.90339,-107.68654
1287,Colby,48WA322,CR-27,Carroll,USA,WY,Washakie,Processed,,43.90339,-107.68654
1288,Lilljedahl Collection,,CR-28,Carroll,USA,TX,Llano,Processed,,30.70986,-98.68109
1289,Harper Collection (TX-LA),,CR-29,Carroll,USA,TX,Multiple,Processed,,31.60000,-93.80000
1290,Fenn cache,,CR-30,Carroll,USA,Multiple,Multiple,Processed,,41.10000,-110.90000
1291,Bill German Collection (Lampassas),,CR-31,Carroll,USA,TX,Lampassas,Processed,Has been inverted from original,31.20017,-98.24391
1292,Rogers Collection,,CR-32,Carroll,USA,TX,McLennan,Processed,,31.55809,-97.20130
1293,Kimmswick,23JE02,CR-33,Carroll,USA,MO,Jefferson,Processed,,38.26247,-90.53832
1294,Fenn cache,,CR-34,Carroll,USA,Multiple,Multiple,Processed,,41.10000,-110.90000
1417,Cooper's Ferry PFP1,10IH73,73-24950,Nyers,USA,ID,Idaho,Processed,Coopers Ferry Pit Feature P1,45.83513,-115.46639
1418,Pilcher Creek,35UN147,J-2,Curteman,USA,OR,Union,Processed,Pilcher Creek J-2,45.29975,-118.00667
1419,Pilcher Creek,35UN147,K-98,Curteman,USA,OR,Union,Processed,Pilcher Creek K-98,45.29975,-118.00667
1420,Pilcher Creek,35UN147,K-100,Curteman,USA,OR,Union,Processed,Pilcher Creek K-100,45.29975,-118.00667
1421,Pilcher Creek,35UN147,G-148,Curteman,USA,OR,Union,Processed,Pilcher Creek G-148,45.29975,-118.00667
1422,Pilcher Creek,35UN147,F-37,Curteman,USA,OR,Union,Processed,Pilcher Creek F-37,45.29975,-118.00667
1423,Pilcher Creek,35UN147,F-40,Curteman,USA,OR,Union,Processed,Pilcher Creek F-40 (check 2D array Fail),45.29975,-118.00667
1424,Pilcher Creek,35UN147,F-123,Curteman,USA,OR,Union,Processed,Pilcher Creek F-123,45.29975,-118.00667
1425,Pilcher Creek,35UN147,G-11,Curteman,USA,OR,Union,Processed,Pilcher Creek G-11,45.29975,-118.00667
1426,Pilcher Creek,35UN147,G-223,Curteman,USA,OR,Union,Processed,Pilcher Creek G-223  (hemispherical rock),45.29975,-118.00667
1427,Pilcher Creek,35UN147,G-269,Curteman,USA,OR,Union,Processed,Pilcher Creek G-269 Polished: no reentrants (gives GLiMR fits),45.29975,-118.00667
1428,Pilcher Creek,35UN147,G-323,Curteman,USA,OR,Union,Processed,Pilcher Creek G-323,45.29975,-118.00667
1429,Pilcher Creek,35UN147,G-338,Curteman,USA,OR,Union,Processed,Pilcher Creek G-338,45.29975,-118.00667
1430,Pilcher Creek,35UN147,G-347,Curteman,USA,OR,Union,Processed,Pilcher Creek G-347,45.29975,-118.00667
1431,Pilcher Creek,35UN147,G-440,Curteman,USA,OR,Union,Processed,Pilcher Creek G-440,45.29975,-118.00667
1432,Pilcher Creek,35UN147,I-12,Curteman,USA,OR,Union,Processed,Pilcher Creek I-12,45.29975,-118.00667
1433,Pilcher Creek,35UN147,K-101,Curteman,USA,OR,Union,Processed,Pilcher Creek  K-101,45.29975,-118.00667
1434,Pilcher Creek,35UN147,G-64,Curteman,USA,OR,Union,Processed,Pilcher Creek G-64,45.29975,-118.00667
1435,Pilcher Creek,35UN147,G-75,Curteman,USA,OR,Union,Processed,Pilcher Creek G-75,45.29975,-118.00667
1437,Cape Blanco,,Unknown,Nyers,USA,OR,Curry,Processed,Found by LGD in cut near Cape Blanco Lighthouse parking lot,42.90250,-124.56194
1486,Dietz Site,35LK1529,1.ply,Nyers,USA,OR,Lake,Processed,Has been inverted from original    ,43.13500,-119.96400
1487,Dietz Site,35LK1529,29.ply,Nyers,USA,OR,Lake,Processed,Obsidian source: Glass Buttes 2       http://obsidianlab.com/,43.13500,-119.96400
1488,Dietz Site,35LK1529,50.ply,Nyers,USA,OR,Lake,Processed,Obsidian source: Beatys Butte       http://obsidianlab.com/,43.13500,-119.96400
1489,Dietz Site,35LK1529,68.ply,Nyers,USA,OR,Lake,Processed,Has been inverted from original    Obsidian source: Silver Lake/Sycan Marsh       http://obsidianlab.com/,43.13500,-119.96400
1490,Dietz Site,35LK1529,72.ply,Nyers,USA,OR,Lake,Processed,Has been inverted from original    Obsidian source: Horse Mountain       http://obsidianlab.com/,43.13500,-119.96400
1491,Dietz Site,35LK1529,116.ply,Nyers,USA,OR,Lake,Processed,Has been inverted from original    Obsidian source: Glass Buttes 6       http://obsidianlab.com/,43.13500,-119.96400
1492,Dietz Site,35LK1529,153.ply,Nyers,USA,OR,Lake,Processed,Obsidian source: Glass Buttes 1       http://obsidianlab.com/,43.13500,-119.96400
1493,Dietz Site,35LK1529,173.ply,Nyers,USA,OR,Lake,Processed,Has been inverted from original    Obsidian source: Yreka Butte       http://obsidianlab.com/,43.13500,-119.96400
1494,Dietz Site,35LK1529,187.ply,Nyers,USA,OR,Lake,Processed,Obsidian source: Horse Mountain       http://obsidianlab.com/  Recontructed from broken?,43.13500,-119.96400
1495,Dietz Site,35LK1529,258.ply,Nyers,USA,OR,Lake,Processed,Has been inverted from original    Obsidian source: Unknown B       http://obsidianlab.com/,43.13500,-119.96400
1496,Dietz Site,35LK1529,260.ply,Nyers,USA,OR,Lake,Processed,Obsidian source: Glass Buttes 6       http://obsidianlab.com/,43.13500,-119.96400
1497,Dietz Site,35LK1529,300.ply,Nyers,USA,OR,Lake,Processed,Has been inverted from original    Obsidian source: Silver Lake/Sycan Marsh       http://obsidianlab.com/,43.13500,-119.96400
1498,Dietz Site,35LK1529,415.ply,Nyers,USA,OR,Lake,Processed,Has been inverted from original    Obsidian source: McKay Butte       http://obsidianlab.com/,43.13500,-119.96400
1499,Dietz Site,35LK1529,417.ply,Nyers,USA,OR,Lake,Processed,Has been inverted from original    Obsidian source: Cougar Mountain       http://obsidianlab.com/,43.13500,-119.96400
1500,Dietz Site,35LK1529,435.ply,Nyers,USA,OR,Lake,Processed,Obsidian source: Hager Mountain       http://obsidianlab.com/,43.13500,-119.96400
1503,Elko,,Unknown,Nyers,USA,NV,Elko,Processed,Has been inverted from original    Elko Clovis waiting on site data from LGD,41.41200,-115.34800
1504,Hatwai,10NP143,20068,Davis,USA,ID,Nez Perce,Processed,Hatwai  10NP143  ,46.31557,-116.75267
1505,Hatwai,10NP143,20626,Davis,USA,ID,Nez Perce,Processed,Hatwai  10NP143  ,46.31557,-116.75267
1506,Hatwai,10NP143,21008,Davis,USA,ID,Nez Perce,Processed,Hatwai  10NP143  ,46.31557,-116.75267
1507,Hatwai,10NP143,20001,Davis,USA,ID,Nez Perce,Processed,Hatwai  10NP143  ,46.31557,-116.75267
1508,Hatwai,10NP143,20827,Davis,USA,ID,Nez Perce,Processed,Hatwai  10NP143  ,46.31557,-116.75267
1509,Hatwai,10NP143,20872,Davis,USA,ID,Nez Perce,Processed,Hatwai  10NP143  ,46.31557,-116.75267
1510,Hatwai,10NP143,21114,Davis,USA,ID,Nez Perce,Processed,Hatwai  10NP143  ,46.31557,-116.75267
1511,Hatwai,10NP143,21312,Davis,USA,ID,Nez Perce,Processed,Hatwai  10NP143  ,46.31557,-116.75267
1512,Hatwai,10NP143,6696,Davis,USA,ID,Nez Perce,Processed,Hatwai  10NP143  ,46.31557,-116.75267
1513,Hatwai,10NP143,5788,Davis,USA,ID,Nez Perce,Processed,Hatwai  10NP143  ,46.31557,-116.75267
1514,Marmes Rockshelter,45FR50,3002,Davis,USA,WA,Franklin,Processed,Marmes  45FR50  ,46.53297,-118.89810
1515,Marmes Rockshelter,45FR50,3013,Davis,USA,WA,Franklin,Processed,Marmes  45FR50  ,46.53297,-118.89810
1516,Marmes Rockshelter,45FR50,3019,Davis,USA,WA,Franklin,Processed,Marmes  45FR50  ,46.53297,-118.89810
1517,Marmes Rockshelter,45FR50,3024,Davis,USA,WA,Franklin,Processed,Marmes  45FR50  ,46.53297,-118.89810
1518,Marmes Rockshelter,45FR50,3037,Davis,USA,WA,Franklin,Processed,Marmes  45FR50  ,46.53297,-118.89810
1519,Marmes Rockshelter,45FR50,3063,Davis,USA,WA,Franklin,Processed,Marmes  45FR50  ,46.53297,-118.89810
1520,Marmes Rockshelter,45FR50,3129,Davis,USA,WA,Franklin,Processed,Marmes  45FR50  ,46.53297,-118.89810
1521,Marmes Rockshelter,45FR50,3130,Davis,USA,WA,Franklin,Processed,Marmes  45FR50  ,46.53297,-118.89810
1522,Marmes Rockshelter,45FR50,3147,Davis,USA,WA,Franklin,Processed,Marmes  45FR50  ,46.53297,-118.89810
1523,Marmes Rockshelter,45FR50,3159,Davis,USA,WA,Franklin,Processed,Marmes  45FR50  ,46.53297,-118.89810
1524,Marmes Rockshelter,45FR50,3162,Davis,USA,WA,Franklin,Processed,Marmes  45FR50  ,46.53297,-118.89810
1525,Marmes Rockshelter,45FR50,3166,Davis,USA,WA,Franklin,Processed,Marmes  45FR50  ,46.53297,-118.89810
1526,Marmes Rockshelter,45FR50,3169,Davis,USA,WA,Franklin,Processed,Marmes  45FR50  ,46.53297,-118.89810
1527,Marmes Rockshelter,45FR50,3173a,Davis,USA,WA,Franklin,Processed,Marmes  45FR50  ,46.53297,-118.89810
1528,Marmes Rockshelter,45FR50,3175,Davis,USA,WA,Franklin,Processed,Marmes  45FR50  ,46.53297,-118.89810
1529,Lind Coulee,45GR97,89a,Davis,USA,WA,Grant,Processed,Lind Coulee  45GR97  ,47.20431,-119.45172
1530,Lind Coulee,45GR97,93a,Davis,USA,WA,Grant,Processed,Lind Coulee  45GR97  ,47.20431,-119.45172
1531,Lind Coulee,45GR97,123,Davis,USA,WA,Grant,Processed,Lind Coulee  45GR97  ,47.20431,-119.45172
1532,Lind Coulee,45GR97,127,Davis,USA,WA,Grant,Processed,Lind Coulee  45GR97  ,47.20431,-119.45172
1533,Lind Coulee,45GR97,128a,Davis,USA,WA,Grant,Processed,Lind Coulee  45GR97  ,47.20431,-119.45172
1534,Lind Coulee,45GR97,131,Davis,USA,WA,Grant,Processed,Lind Coulee  45GR97  ,47.20431,-119.45172
1535,Lind Coulee,45GR97,6703a,Davis,USA,WA,Grant,Processed,Lind Coulee  45GR97  ,47.20431,-119.45172
1536,Buhl Burial,10TF1019,Unknown,Davis,USA,ID,Twin Falls,Processed,need  local_ID,42.35128,-114.65458
1537,Marmes Rockshelter,45FR50,3179,Davis,USA,WA,Franklin,Processed,Marmes  45FR50    Same as 385 (2D),46.53297,-118.89810
1538,Marmes Rockshelter,45FR50,3183,Davis,USA,WA,Franklin,Processed,Marmes  45FR50  ,46.53297,-118.89810
1539,Marmes Rockshelter,45FR50,3477,Davis,USA,WA,Franklin,Processed,Marmes  45FR50  ,46.53297,-118.89810
1540,Marmes Rockshelter,45FR50,3773,Davis,USA,WA,Franklin,Processed,Marmes  45FR50  ,46.53297,-118.89810
1541,Marmes Rockshelter,45FR50,5779,Davis,USA,WA,Franklin,Processed,Marmes  45FR50  ,46.53297,-118.89810
1542,Lind Coulee,45GR97,4912a,Davis,USA,WA,Grant,Processed,Lind Coulee  45GR97,47.20431,-119.45172
1543,Lind Coulee,45GR97,100,Davis,USA,WA,Grant,Processed,Lind Coulee  45GR97  ,47.20431,-119.45172
1545,Lind Coulee,45GR97,130,Davis,USA,WA,Grant,Processed,Lind Coulee  45GR97  ,47.20431,-119.45172
1546,Lind Coulee,45GR97,4913a,Davis,USA,WA,Grant,Processed,Lind Coulee  45GR97  ,47.20431,-119.45172
1547,Lind Coulee,45GR97,5845,Davis,USA,WA,Grant,Processed,Lind Coulee  45GR97  ,47.20431,-119.45172
1548,Lind Coulee,45GR97,90a,Davis,USA,WA,Grant,Processed,Lind Coulee  45GR97  ,47.20431,-119.45172
1549,Lind Coulee,45GR97,95,Davis,USA,WA,Grant,Processed,Lind Coulee  45GR97  ,47.20431,-119.45172
1550,35MA375 Biface Cache,35MA375,35MA375_1,Carroll,USA,OR,Marion,Processed,35MA375 Biface Cache  (This cache's extreme thickness warps stats. Set to not biface.),44.89929,-122.58971
1551,35MA375 Biface Cache,35MA375,35MA375_2,Carroll,USA,OR,Marion,Processed,35MA375 Biface Cache  (This cache's extreme thickness warps stats. Set to not biface.),44.89929,-122.58971
1553,35MA375 Biface Cache,35MA375,35MA375_4,Carroll,USA,OR,Marion,Processed,35MA375 Biface Cache  (This cache's extreme thickness warps stats. Set to not biface.),44.89929,-122.58971
1554,35MA375 Biface Cache,35MA375,35MA375_5,Carroll,USA,OR,Marion,Processed,35MA375 Biface Cache  (This cache's extreme thickness warps stats. Set to not biface.),44.89929,-122.58971
1555,35MA375 Biface Cache,35MA375,35MA375_6,Carroll,USA,OR,Marion,Processed,35MA375 Biface Cache  (This cache's extreme thickness warps stats. Set to not biface.),44.89929,-122.58971
1556,35MA375 Biface Cache,35MA375,35MA375_7,Carroll,USA,OR,Marion,Processed,35MA375 Biface Cache  (This cache's extreme thickness warps stats. Set to not biface.),44.89929,-122.58971
1557,35MA375 Biface Cache,35MA375,35MA375_8,Carroll,USA,OR,Marion,Processed,35MA375 Biface Cache  (This cache's extreme thickness warps stats. Set to not biface.),44.89929,-122.58971
1558,35MA375 Biface Cache,35MA375,35MA375_9,Carroll,USA,OR,Marion,Processed,35MA375 Biface Cache  (This cache's extreme thickness warps stats. Set to not biface.),44.89929,-122.58971
1559,35MA375 Biface Cache,35MA375,35MA375_10,Carroll,USA,OR,Marion,Processed,35MA375 Biface Cache  (This cache's extreme thickness warps stats. Set to not biface.),44.89929,-122.58971
1560,35MA375 Biface Cache,35MA375,35MA375_11,Carroll,USA,OR,Marion,Processed,35MA375 Biface Cache  (This cache's extreme thickness warps stats. Set to not biface.),44.89929,-122.58971
1561,35MA375 Biface Cache,35MA375,35MA375_12,Carroll,USA,OR,Marion,Processed,35MA375 Biface Cache  (This cache's extreme thickness warps stats. Set to not biface.),44.89929,-122.58971
1562,35MA375 Biface Cache,35MA375,35MA375_13,Carroll,USA,OR,Marion,Processed,35MA375 Biface Cache  (This cache's extreme thickness warps stats. Set to not biface.),44.89929,-122.58971
1563,35MA375 Biface Cache,35MA375,35MA375_14,Carroll,USA,OR,Marion,Processed,35MA375 Biface Cache  (This cache's extreme thickness warps stats. Set to not biface.),44.89929,-122.58971
1564,35MA375 Biface Cache,35MA375,35MA375_15,Carroll,USA,OR,Marion,Processed,35MA375 Biface Cache  (This cache's extreme thickness warps stats. Set to not biface.),44.89929,-122.58971
10001,Skinner experimental,,DS01a,Skinner,USA,OR,Benton,Processed,This is the first scan before pressure flaking,44.56408,-123.27733
10002,Skinner experimental,,DS02a,Skinner,USA,OR,Benton,Processed,This is the first scan before pressure flaking,44.56408,-123.27733
10003,Skinner experimental,,DS03a,Skinner,USA,OR,Benton,Processed,This is the first scan before pressure flaking,44.56408,-123.27733
10004,Skinner experimental,,DS04a,Skinner,USA,OR,Benton,Processed,This is the first scan before pressure flaking,44.56408,-123.27733
10005,Skinner experimental,,DS05a,Skinner,USA,OR,Benton,Processed,This is the first scan before pressure flaking,44.56408,-123.27733
10006,Skinner experimental,,DS06a,Skinner,USA,OR,Benton,Processed,This is the first scan before pressure flaking,44.56408,-123.27733
10007,Skinner experimental,,DS07a,Skinner,USA,OR,Benton,Processed,This is the first scan before pressure flaking,44.56408,-123.27733
10008,Skinner experimental,,DS08a,Skinner,USA,OR,Benton,Processed,This is the first scan before pressure flaking,44.56408,-123.27733
10009,Skinner experimental,,DS09a,Skinner,USA,OR,Benton,Processed,This is the first scan before pressure flaking,44.56408,-123.27733
10010,Skinner experimental,,DS10a,Skinner,USA,OR,Benton,Processed,This is the first scan before pressure flaking,44.56408,-123.27733
10011,Skinner experimental,,DS11a,Skinner,USA,OR,Benton,Processed,This is the first scan before pressure flaking,44.56408,-123.27733
10012,Skinner experimental,,DS12a,Skinner,USA,OR,Benton,Processed,This is the first scan before pressure flaking,44.56408,-123.27733
10013,Skinner experimental,,DS13a,Skinner,USA,OR,Benton,Processed,This is the first scan before pressure flaking,44.56408,-123.27733
10014,Skinner experimental,,DS14a,Skinner,USA,OR,Benton,Processed,This is the first scan before pressure flaking,44.56408,-123.27733
10015,Skinner experimental,,DS15a,Skinner,USA,OR,Benton,Processed,This is the first scan before pressure flaking,44.56408,-123.27733
10016,Skinner experimental,,DS16a,Skinner,USA,OR,Benton,Processed,This is the first scan before pressure flaking,44.56408,-123.27733
10017,Skinner experimental,,DS17a,Skinner,USA,OR,Benton,Processed,This is the first scan before pressure flaking,44.56408,-123.27733
10018,Skinner experimental,,DS18a,Skinner,USA,OR,Benton,Processed,This is the first scan before pressure flaking,44.56408,-123.27733
10019,Skinner experimental,,DS19a,Skinner,USA,OR,Benton,Processed,This is the first scan before pressure flaking,44.56408,-123.27733
10020,Skinner experimental,,DS20a,Skinner,USA,OR,Benton,Processed,This is the first scan before pressure flaking,44.56408,-123.27733
10021,Skinner experimental,,DS21a,Skinner,USA,OR,Benton,Processed,This is the first scan before pressure flaking,44.56408,-123.27733
10022,Skinner experimental,,DS22a,Skinner,USA,OR,Benton,Processed,This is the first scan before pressure flaking,44.56408,-123.27733
10023,Skinner experimental,,DS23a,Skinner,USA,OR,Benton,Processed,This is the first scan before pressure flaking,44.56408,-123.27733
10024,Skinner experimental,,DS24a,Skinner,USA,OR,Benton,Processed,This is the first scan before pressure flaking,44.56408,-123.27733
10025,Skinner experimental,,DS25a,Skinner,USA,OR,Benton,Processed,This is the first scan before pressure flaking,44.56408,-123.27733
10026,Skinner experimental,,DS26a,Skinner,USA,OR,Benton,Processed,This is the first scan before pressure flaking,44.56408,-123.27733
10027,Skinner experimental,,DS27a,Skinner,USA,OR,Benton,Processed,This is the first scan before pressure flaking,44.56408,-123.27733
10028,Skinner experimental,,DS28a,Skinner,USA,OR,Benton,Processed,This is the first scan before pressure flaking,44.56408,-123.27733
10029,Skinner experimental,,DS29a,Skinner,USA,OR,Benton,Processed,This is the first scan before pressure flaking,44.56408,-123.27733
10030,Skinner experimental,,DS30a,Skinner,USA,OR,Benton,Processed,This is the first scan before pressure flaking,44.56408,-123.27733
10031,Skinner experimental,,DS01b,Skinner,USA,OR,Benton,Processed,This is the first resharpening episode,44.56408,-123.27733
10032,Skinner experimental,,DS02b,Skinner,USA,OR,Benton,Processed,This is the first resharpening episode,44.56408,-123.27733
10033,Skinner experimental,,DS03b,Skinner,USA,OR,Benton,Processed,This is the first resharpening episode,44.56408,-123.27733
10034,Skinner experimental,,DS04b,Skinner,USA,OR,Benton,Processed,This is the first resharpening episode,44.56408,-123.27733
10035,Skinner experimental,,DS05b,Skinner,USA,OR,Benton,Processed,This is the first resharpening episode,44.56408,-123.27733
10036,Skinner experimental,,DS06b,Skinner,USA,OR,Benton,Processed,This is the first resharpening episode,44.56408,-123.27733
10037,Skinner experimental,,DS07b,Skinner,USA,OR,Benton,Processed,This is the first resharpening episode,44.56408,-123.27733
10038,Skinner experimental,,DS08b,Skinner,USA,OR,Benton,Processed,This is the first resharpening episode,44.56408,-123.27733
10039,Skinner experimental,,DS09b,Skinner,USA,OR,Benton,Processed,This is the first resharpening episode,44.56408,-123.27733
10040,Skinner experimental,,DS10b,Skinner,USA,OR,Benton,Processed,This is the first resharpening episode,44.56408,-123.27733
10041,Skinner experimental,,DS11b,Skinner,USA,OR,Benton,Processed,This is the first resharpening episode,44.56408,-123.27733
10042,Skinner experimental,,DS12b,Skinner,USA,OR,Benton,Processed,This is the first resharpening episode,44.56408,-123.27733
10043,Skinner experimental,,DS13b,Skinner,USA,OR,Benton,Processed,This is the first resharpening episode,44.56408,-123.27733
10044,Skinner experimental,,DS14b,Skinner,USA,OR,Benton,Processed,This is the first resharpening episode,44.56408,-123.27733
10045,Skinner experimental,,DS15b,Skinner,USA,OR,Benton,Processed,This is the first resharpening episode,44.56408,-123.27733
10046,Skinner experimental,,DS16b,Skinner,USA,OR,Benton,Processed,This is the first resharpening episode,44.56408,-123.27733
10047,Skinner experimental,,DS17b,Skinner,USA,OR,Benton,Processed,This is the first resharpening episode,44.56408,-123.27733
10048,Skinner experimental,,DS18b,Skinner,USA,OR,Benton,Processed,This is the first resharpening episode,44.56408,-123.27733
10049,Skinner experimental,,DS19b,Skinner,USA,OR,Benton,Processed,This is the first resharpening episode,44.56408,-123.27733
10050,Skinner experimental,,DS20b,Skinner,USA,OR,Benton,Processed,This is the first resharpening episode,44.56408,-123.27733
10051,Skinner experimental,,DS21b,Skinner,USA,OR,Benton,Processed,This is the first resharpening episode,44.56408,-123.27733
10052,Skinner experimental,,DS22b,Skinner,USA,OR,Benton,Processed,This is the first resharpening episode,44.56408,-123.27733
10053,Skinner experimental,,DS23b,Skinner,USA,OR,Benton,Processed,This is the first resharpening episode,44.56408,-123.27733
10054,Skinner experimental,,DS24b,Skinner,USA,OR,Benton,Processed,This is the first resharpening episode,44.56408,-123.27733
10055,Skinner experimental,,DS25b,Skinner,USA,OR,Benton,Processed,This is the first resharpening episode,44.56408,-123.27733
10056,Skinner experimental,,DS26b,Skinner,USA,OR,Benton,Processed,This is the first resharpening episode,44.56408,-123.27733
10057,Skinner experimental,,DS27b,Skinner,USA,OR,Benton,Processed,This is the first resharpening episode,44.56408,-123.27733
10058,Skinner experimental,,DS28b,Skinner,USA,OR,Benton,Processed,This is the first resharpening episode,44.56408,-123.27733
10059,Skinner experimental,,DS29b,Skinner,USA,OR,Benton,Processed,This is the first resharpening episode,44.56408,-123.27733
10060,Skinner experimental,,DS30b,Skinner,USA,OR,Benton,Processed,This is the first resharpening episode,44.56408,-123.27733
10061,Skinner experimental,,DS01c,Skinner,USA,OR,Benton,Processed,This is the second resharpening episode,44.56408,-123.27733
10062,Skinner experimental,,DS02c,Skinner,USA,OR,Benton,Processed,This is the second resharpening episode,44.56408,-123.27733
10063,Skinner experimental,,DS03c,Skinner,USA,OR,Benton,Processed,This is the second resharpening episode,44.56408,-123.27733
10064,Skinner experimental,,DS04c,Skinner,USA,OR,Benton,Processed,This is the second resharpening episode,44.56408,-123.27733
10065,Skinner experimental,,DS05c,Skinner,USA,OR,Benton,Processed,This is the second resharpening episode,44.56408,-123.27733
10066,Skinner experimental,,DS06c,Skinner,USA,OR,Benton,Processed,This is the second resharpening episode,44.56408,-123.27733
10067,Skinner experimental,,DS07c,Skinner,USA,OR,Benton,Processed,This is the second resharpening episode,44.56408,-123.27733
10068,Skinner experimental,,DS08c,Skinner,USA,OR,Benton,Processed,This is the second resharpening episode,44.56408,-123.27733
10069,Skinner experimental,,DS09c,Skinner,USA,OR,Benton,Processed,This is the second resharpening episode,44.56408,-123.27733
10070,Skinner experimental,,DS10c,Skinner,USA,OR,Benton,Processed,This is the second resharpening episode,44.56408,-123.27733
10071,Skinner experimental,,DS11c,Skinner,USA,OR,Benton,Processed,This is the second resharpening episode,44.56408,-123.27733
10072,Skinner experimental,,DS12c,Skinner,USA,OR,Benton,Processed,This is the second resharpening episode,44.56408,-123.27733
10073,Skinner experimental,,DS13c,Skinner,USA,OR,Benton,Processed,This is the second resharpening episode,44.56408,-123.27733
10074,Skinner experimental,,DS14c,Skinner,USA,OR,Benton,Processed,This is the second resharpening episode,44.56408,-123.27733
10075,Skinner experimental,,DS15c,Skinner,USA,OR,Benton,Processed,This is the second resharpening episode,44.56408,-123.27733
10076,Skinner experimental,,DS16c,Skinner,USA,OR,Benton,Processed,This is the second resharpening episode,44.56408,-123.27733
10077,Skinner experimental,,DS17c,Skinner,USA,OR,Benton,Processed,This is the second resharpening episode,44.56408,-123.27733
10078,Skinner experimental,,DS18c,Skinner,USA,OR,Benton,Processed,This is the second resharpening episode,44.56408,-123.27733
10079,Skinner experimental,,DS19c,Skinner,USA,OR,Benton,Processed,This is the second resharpening episode,44.56408,-123.27733
10080,Skinner experimental,,DS20c,Skinner,USA,OR,Benton,Processed,This is the second resharpening episode,44.56408,-123.27733
10081,Skinner experimental,,DS21c,Skinner,USA,OR,Benton,Processed,This is the second resharpening episode. The base was broken off during resharpening.,44.56408,-123.27733
10082,Skinner experimental,,DS22c,Skinner,USA,OR,Benton,Processed,This is the second resharpening episode,44.56408,-123.27733
10083,Skinner experimental,,DS23c,Skinner,USA,OR,Benton,Processed,This is the second resharpening episode,44.56408,-123.27733
10084,Skinner experimental,,DS24c,Skinner,USA,OR,Benton,Processed,This is the second resharpening episode,44.56408,-123.27733
10085,Skinner experimental,,DS25c,Skinner,USA,OR,Benton,Processed,This is the second resharpening episode,44.56408,-123.27733
10086,Skinner experimental,,DS26c,Skinner,USA,OR,Benton,Processed,This is the second resharpening episode,44.56408,-123.27733
10087,Skinner experimental,,DS27c,Skinner,USA,OR,Benton,Processed,This is the second resharpening episode,44.56408,-123.27733
10088,Skinner experimental,,DS28c,Skinner,USA,OR,Benton,Processed,This is the second resharpening episode,44.56408,-123.27733
10089,Skinner experimental,,DS29c,Skinner,USA,OR,Benton,Processed,This is the second resharpening episode,44.56408,-123.27733
10090,Skinner experimental,,DS30c,Skinner,USA,OR,Benton,Processed,This is the second resharpening episode,44.56408,-123.27733
1565,Cooper's Ferry,10IH73,73-47163,Davis,USA,ID,Idaho,Processed,Possbile crescent - broken in half. RN 44327 from F99,45.83513,-115.46639
1566,Cooper's Ferry,10IH73,73-54105,Davis,USA,ID,Idaho,Processed,RN 48558 from F99,45.83513,-115.46639
1567,Cooper's Ferry,10IH73,73-54164,Davis,USA,ID,Idaho,Processed,The tip and base are broken. RN 48600 from F99,45.83513,-115.46639
1568,Cooper's Ferry,10IH73,73-54411,Davis,USA,ID,Idaho,Processed,. RN 48649 from F99,45.83513,-115.46639
1569,Cooper's Ferry,10IH73,73-54688,Davis,USA,ID,Idaho,Processed,. RN 48771 from F99,45.83513,-115.46639
1570,Cooper's Ferry,10IH73,73-56603,Davis,USA,ID,Idaho,Processed,RN 44032 from Unit 26 Lv4,45.83513,-115.46639
1571,Cooper's Ferry,10IH73,73-53630,Davis,USA,ID,Idaho,Processed,Notched base fragment. RN 54551 from F113,45.83513,-115.46639
1572,Cooper's Ferry,10IH73,73-53827,Davis,USA,ID,Idaho,Processed,Possbible slight base fracture. RN 48413 from F110,45.83513,-115.46639
1573,Cooper's Ferry,10IH73,73-55850,Davis,USA,ID,Idaho,Processed,Tip is slightly broken. RN 49434 from F119,45.83513,-115.46639
10091,Skinner experimental,,DS01d,Skinner,USA,OR,Benton,Processed,This is the third resharpening episode,44.56408,-123.27733
10092,Skinner experimental,,DS02d,Skinner,USA,OR,Benton,Processed,This is the third resharpening episode,44.56408,-123.27733
10093,Skinner experimental,,DS03d,Skinner,USA,OR,Benton,Processed,This is the third resharpening episode,44.56408,-123.27733
10094,Skinner experimental,,DS04d,Skinner,USA,OR,Benton,Processed,This is the third resharpening episode,44.56408,-123.27733
10095,Skinner experimental,,DS05d,Skinner,USA,OR,Benton,Processed,This is the third resharpening episode,44.56408,-123.27733
10096,Skinner experimental,,DS06d,Skinner,USA,OR,Benton,Processed,This is the third resharpening episode,44.56408,-123.27733
10097,Skinner experimental,,DS07d,Skinner,USA,OR,Benton,Processed,This is the third resharpening episode,44.56408,-123.27733
10098,Skinner experimental,,DS08d,Skinner,USA,OR,Benton,Processed,This is the third resharpening episode,44.56408,-123.27733
10099,Skinner experimental,,DS09d,Skinner,USA,OR,Benton,Processed,This is the third resharpening episode,44.56408,-123.27733
10100,Skinner experimental,,DS10d,Skinner,USA,OR,Benton,Processed,This is the third resharpening episode,44.56408,-123.27733
10101,Skinner experimental,,DS11d,Skinner,USA,OR,Benton,Processed,This is the third resharpening episode,44.56408,-123.27733
10102,Skinner experimental,,DS12d,Skinner,USA,OR,Benton,Processed,This is the third resharpening episode,44.56408,-123.27733
10103,Skinner experimental,,DS13d,Skinner,USA,OR,Benton,Processed,This is the third resharpening episode,44.56408,-123.27733
10104,Skinner experimental,,DS14d,Skinner,USA,OR,Benton,Processed,This is the third resharpening episode,44.56408,-123.27733
10105,Skinner experimental,,DS15d,Skinner,USA,OR,Benton,Processed,This is the third resharpening episode,44.56408,-123.27733
10106,Skinner experimental,,DS16d,Skinner,USA,OR,Benton,Processed,This is the third resharpening episode,44.56408,-123.27733
10107,Skinner experimental,,DS17d,Skinner,USA,OR,Benton,Processed,This is the third resharpening episode,44.56408,-123.27733
10108,Skinner experimental,,DS18d,Skinner,USA,OR,Benton,Processed,This is the third resharpening episode,44.56408,-123.27733
10109,Skinner experimental,,DS19d,Skinner,USA,OR,Benton,Processed,This is the third resharpening episode,44.56408,-123.27733
10110,Skinner experimental,,DS20d,Skinner,USA,OR,Benton,Processed,This is the third resharpening episode,44.56408,-123.27733
10111,Skinner experimental,,DS21d,Skinner,USA,OR,Benton,Processed,This is the third resharpening episode,44.56408,-123.27733
10112,Skinner experimental,,DS22d,Skinner,USA,OR,Benton,Processed,This is the third resharpening episode,44.56408,-123.27733
10113,Skinner experimental,,DS23d,Skinner,USA,OR,Benton,Processed,This is the third resharpening episode,44.56408,-123.27733
10114,Skinner experimental,,DS24d,Skinner,USA,OR,Benton,Processed,This is the third resharpening episode,44.56408,-123.27733
10115,Skinner experimental,,DS25d,Skinner,USA,OR,Benton,Processed,This is the third resharpening episode,44.56408,-123.27733
10116,Skinner experimental,,DS26d,Skinner,USA,OR,Benton,Processed,This is the third resharpening episode,44.56408,-123.27733
10117,Skinner experimental,,DS27d,Skinner,USA,OR,Benton,Processed,This is the third resharpening episode,44.56408,-123.27733
10118,Skinner experimental,,DS28d,Skinner,USA,OR,Benton,Processed,This is the third resharpening episode,44.56408,-123.27733
10119,Skinner experimental,,DS29d,Skinner,USA,OR,Benton,Processed,This is the third resharpening episode,44.56408,-123.27733
10120,Skinner experimental,,DS30d,Skinner,USA,OR,Benton,Processed,This is the third resharpening episode,44.56408,-123.27733
12000,Dry Creek (AK),AKHEA005,UA 76-155-1830,Davis,USA,AK,Denali,not yet scanned,"Dry Creek fragment (PSAL 12000-12035 acquired at UAF Feb 6-8, 2018)",63.85640,-149.13940
12001,Dry Creek (AK),AKHEA005,UA 75-155-4364,Davis,USA,AK,Denali,not yet scanned,Dry Creek fragment,63.85640,-149.13940
12002,Moose Creek,AKFAI206,UA 96-060 -0078,Davis,USA,AK,Fairbanks-Northstar,not yet scanned,Chindadn point from Moose Cr,67.73195,-147.46948
12003,Chugwater (AK),AKFAI035,UA 83-287-8987,Davis,USA,AK,Fairbanks-Northstar,not yet scanned,Chindadn point from Fairbanks Quad,67.73195,-147.46948
12004,Healy Lake (AK),AKXBD020,UA 64-049-07264,Davis,USA,AK,Southeast Fairbanks,not yet scanned,Healy Lake Village,64.24519,-145.21694
12005,Walker Road,AKHEA130,UA 89-051-0077,Davis,USA,AK,Denali,not yet scanned,Walker Road point,63.85640,-149.13940
12006,Healy Lake (AK),AKXBD020,UA 69-049-04236,Davis,USA,AK,Southeast Fairbanks,not yet scanned,Healy Lake point,64.24519,-145.21694
12007,Walker Road,AKHEA130,UA 89-057-0033,Davis,USA,AK,Denali,not yet scanned,Walker Road point preform,63.85640,-149.13940
12008,Chugwater (AK),AKFAI035,UA 84-054-0086,Davis,USA,AK,Fairbanks-Northstar,not yet scanned,Chugwater,67.73195,-147.46948
12009,Healy Lake (AK),AKXBD020,UA 69-049-4678,Davis,USA,AK,Southeast Fairbanks,not yet scanned,Healy Lake Village (UA 69-049-4679),64.24519,-145.21694
12010,Healy Lake (AK),AKXBD020,UA 69-049-02199,Davis,USA,AK,Southeast Fairbanks,not yet scanned,Healy Lake Village,64.24519,-145.21694
12011,Healy Lake (AK),AKXBD020,UA 69-049-04236,Davis,USA,AK,Southeast Fairbanks,not yet scanned,Healy Lake Village (scanned twice in error),64.24519,-145.21694
12012,Dry Creek (AK),AKHEA005,UA 2007-073-0001,Davis,USA,AK,Denali,not yet scanned,Dry Creek point base,63.85640,-149.13940
12013,Healy Lake (AK),AKXBD020,UA 69-049-06295,Davis,USA,AK,Southeast Fairbanks,not yet scanned,Healey Lake Village point,64.24519,-145.21694
12014,Walker Road,AKHEA130,UA 88-058-0424,Davis,USA,AK,Denali,not yet scanned,Walker Road (and UA 88-058-0030),63.85640,-149.13940
12015,Walker Road,AKHEA130,UA 86-062-1077,Davis,USA,AK,Denali,not yet scanned,Walker Road,63.85640,-149.13940
12016,Healy Lake (AK),AKXBD020,UA 69-049-11106,Davis,USA,AK,Southeast Fairbanks,not yet scanned,Healy Lake Village,64.24519,-145.21694
12017,TES012,AKTES012,UA 78-222-0002,Davis,USA,AK,North Slope,not yet scanned,TES012,70.49694,-154.28066
12018,Walker Road,AKHEA130,UA 86-062-0296,Davis,USA,AK,Denali,not yet scanned,Walker Road Chindadn point tip,63.85640,-149.13940
12019,Walker Road,AKHEA130,UA 86-062-0217,Davis,USA,AK,Denali,not yet scanned,Walker Road Chindadn point tip part of UA 86-062-0296,63.85640,-149.13940
12020,Coleen River,AKCOL000,UA 2004-158-0002,Davis,USA,AK,Yukon-Koyukuk,not yet scanned,Chindadn point Coleen,67.53954,-141.91005
12021,Chugwater (AK),AKFAI035,UA 84-054-0264,Davis,USA,AK,Fairbanks-Northstar,not yet scanned,Chugwater,67.73195,-147.46948
12022,Healy Lake (AK),AKXBD020,UA 69-049-07279,Davis,USA,AK,Southeast Fairbanks,not yet scanned,Healey Lake Village,64.24519,-145.21694
12023,Healy Lake (AK),AKXBD020,UA 69-049-04000,Davis,USA,AK,Southeast Fairbanks,not yet scanned,Healey Lake Village,64.24519,-145.21694
12024,MIS215,49MIS215,UA 78-181-0007,Davis,USA,AK,North Slope,not yet scanned,MIS215,68.67603,-160.66921
12025,Healy Lake (AK),AKXBD020,UA 69-049-01882,Davis,USA,AK,Southeast Fairbanks,not yet scanned,Healy Lake Village,64.24519,-145.21694
12026,Erodeaway,49HEA239,UA 85-145-00010,Davis,USA,AK,Denali,not yet scanned,See 12027.  HEA.239-UA 87:97-79  tip half SH 2005,63.85640,-149.13940
12027,Erodeaway,49HEA239,UA 87-097-00079,Davis,USA,AK,Denali,not yet scanned,See 12026.  HEA.239-UA 87:97-79  base half area 1 feature 1 NW expansion,63.85640,-149.13940
12028,Prospect Creek,AKBET041,UA 74-027-6485,Davis,USA,AK,Yukon-Koyukuk,not yet scanned,Prospect Cr fluted,66.49519,-151.10012
12029,Erodeaway,49HEA239,UA 85-145-00001,Davis,USA,AK,Denali,not yet scanned,HEA239   UA 85-145:1,63.85640,-149.13940
12030,Erodeaway,49HEA239,UA 85-145:00005,Davis,USA,AK,Denali,not yet scanned,HEA 239  UA 85-145:5,63.85640,-149.13940
12031,Erodeaway,49HEA239,UA 85-145:00002,Davis,USA,AK,Denali,not yet scanned,HEA 239 UA 85-145:2  base,63.85640,-149.13940
12032,Erodeaway,49HEA239,UA 87-097-00061,Davis,USA,AK,Denali,not yet scanned,HEA 239  UA 87:97-61 part 2 of 12031 (tip),63.85640,-149.13940
12033,Erodeaway,49HEA239,UA 87-097-00039,Davis,USA,AK,Denali,not yet scanned,tip HEA 239 UA 87:97-39,63.85640,-149.13940
12034,Erodeaway,49HEA239,UA 87-097-00025,Davis,USA,AK,Denali,not yet scanned,base  HEA 239 UA 87:97-25,63.85640,-149.13940
12035,Walker Road,AKHEA130,UA 88-058-0440,Davis,USA,AK,Denali,not yet scanned,Walker Road,63.85640,-149.13940
12038,Gault,41BL323,1040-106,Davis,USA,TX,Bell,not yet scanned,biface preform,31.04559,-97.48227
12039,Gault,41BL323,2624-1,Davis,USA,TX,Bell,not yet scanned,Clovis fluted point,31.04559,-97.48227
12040,Gault,41BL323,1040-113-1,Davis,USA,TX,Bell,not yet scanned,fluted point (1040-113-1),31.04559,-97.48227
12041,Gault,41BL323,2621-1,Davis,USA,TX,Bell,not yet scanned,fluted point (potenial image problems),31.04559,-97.48227
12042,Gault,41BL323,1040-103,Davis,USA,TX,Bell,not yet scanned,biface preform,31.04559,-97.48227
12043,Gault,41BL323,AM284-20,Davis,USA,TX,Bell,not yet scanned,biface preform; refits with 244-112,31.04559,-97.48227
12044,Gault,41BL323,AM244-112b,Davis,USA,TX,Bell,not yet scanned,biface preform; refits with 284-20,31.04559,-97.48227
12046,Gault,41BL323,AM228-79a,Davis,USA,TX,Bell,not yet scanned,biface preform (AM228-79a); refits with AM397-1,31.04559,-97.48227
12047,Gault,41BL323,AM397-1a,Davis,USA,TX,Bell,not yet scanned,fluted biface preform; refits with AM228-79,31.04559,-97.48227
12048,Gault,41BL323,2665-9,Davis,USA,TX,Bell,not yet scanned,biface preform; refits with 2000-2,31.04559,-97.48227
12049,Gault,41BL323,2000-2,Davis,USA,TX,Bell,not yet scanned,biface preform; refits with 2665-9,31.04559,-97.48227
12050,Gault,41BL323,4548-14,Davis,USA,TX,Bell,not yet scanned,biface preform; refits with 4256-13,31.04559,-97.48227
12051,Gault,41BL323,4256-13,Davis,USA,TX,Bell,not yet scanned,biface preform; refits with 4548-14,31.04559,-97.48227
12052,Gault,41BL323,NH1325-4,Davis,USA,TX,Bell,not yet scanned,prismatic blade,31.04559,-97.48227
12053,Gault,41BL323,1048-406,Davis,USA,TX,Bell,not yet scanned,crested blade,31.04559,-97.48227
12054,Gault,41BL323,1058-12,Davis,USA,TX,Bell,not yet scanned,prismatic blade,31.04559,-97.48227
12061,Gault,41BL323,5956-33,Davis,USA,TX,Bell,not yet scanned,endscraper,31.04559,-97.48227
12062,Gault,41BL323,5777-77,Davis,USA,TX,Bell,Processed,biface,31.04559,-97.48227
12063,Gault,41BL323,5859-14,Davis,USA,TX,Bell,Processed,biface   QCOK Haft fragment only;  Haft Collar gone,31.04559,-97.48227
12065,Gault,41BL323,5979-2,Davis,USA,TX,Bell,not yet scanned,blade,31.04559,-97.48227
12066,Gault,41BL323,5873-14,Davis,USA,TX,Bell,Processed,PPT base fragment  QCOK C1P9 dbl,31.04559,-97.48227
12068,Gault,41BL323,6297-18,Davis,USA,TX,Bell,Processed,blade   C1P15 and C2P14 dbl  Mask prob C2P4 dbl,31.04559,-97.48227
12069,Gault,41BL323,5932-18,Davis,USA,TX,Bell,not yet scanned,quartzite PPT fragment  C2 P8 and P14 dbl,31.04559,-97.48227
12070,Gault,41BL323,5956-55,Davis,USA,TX,Bell,not yet scanned,blade,31.04559,-97.48227
12071,Gault,41BL323,6026-24,Davis,USA,TX,Bell,Processed,PPT base fragment  check base clip,31.04559,-97.48227
12072,Gault,41BL323,6218-8,Davis,USA,TX,Bell,not yet scanned,late stage biface,31.04559,-97.48227
12073,Gault,41BL323,6325-1,Davis,USA,TX,Bell,not yet scanned,burin,31.04559,-97.48227
12074,Gault,41BL323,6411-3,Davis,USA,TX,Bell,not yet scanned,blade fragment,31.04559,-97.48227
12075,Gault,41BL323,6310-17,Davis,USA,TX,Bell,not yet scanned,drill fragment,31.04559,-97.48227
12076,Gault,41BL323,5853-10,Davis,USA,TX,Bell,not yet scanned,blade fragment,31.04559,-97.48227
12077,Gault,41BL323,6159-18,Davis,USA,TX,Bell,not yet scanned,uniface tool,31.04559,-97.48227
12078,Gault,41BL323,6218-69,Davis,USA,TX,Bell,not yet scanned,blade,31.04559,-97.48227
12079,Gault,41BL323,5859-53,Davis,USA,TX,Bell,not yet scanned,blade fragment,31.04559,-97.48227
12080,Gault,41BL323,6145-13,Davis,USA,TX,Bell,not yet scanned,biface tip,31.04559,-97.48227
12081,Gault,41BL323,5755-38,Davis,USA,TX,Bell,not yet scanned,biface,31.04559,-97.48227
12082,Gault,41BL323,5860-8,Davis,USA,TX,Bell,not yet scanned,PPT tip,31.04559,-97.48227
12084,Gault,41BL323,5956-11,Davis,USA,TX,Bell,not yet scanned,biface,31.04559,-97.48227
12085,Gault,41BL323,4790-1,Davis,USA,TX,Bell,not yet scanned,Folsom fluted preform,31.04559,-97.48227
12086,Gault,41BL323,1040-115,Davis,USA,TX,Bell,not yet scanned,Folsom fluted preform,31.04559,-97.48227
12087,Gault,41BL323,AM224,Davis,USA,TX,Bell,not yet scanned,Folsom fluted point,31.04559,-97.48227
12088,Gault,41BL323,3211-21,Davis,USA,TX,Bell,not yet scanned,Folsom fluted preform,31.04559,-97.48227
12089,Gault,41BL323,F18-10,Davis,USA,TX,Bell,not yet scanned,Folsom fluted point,31.04559,-97.48227
12092,Richardson Island,BC_Richardson,1127T13R24fla-1,Davis,Canada,BC,Haida Gwaii,not yet scanned,,52.73720,-131.76700
12094,Richardson Island,BC_Richardson,1127T12T19-1,Davis,Canada,BC,Haida Gwaii,Processed,Biface,52.73720,-131.76700
12095,Richardson Island,BC_Richardson,1127T13Q8-18,Davis,Canada,BC,Haida Gwaii,Processed,Biface frag,52.73720,-131.76700
12096,Richardson Island,BC_Richardson,1127T13M10-7,Davis,Canada,BC,Haida Gwaii,Processed,Biface,52.73720,-131.76700
12097,Richardson Island,BC_Richardson,1127T12P15-41,Davis,Canada,BC,Haida Gwaii,Processed,Biface,52.73720,-131.76700
12098,Richardson Island,BC_Richardson,1127T10X41-1,Davis,Canada,BC,Haida Gwaii,Processed,Biface,52.73720,-131.76700
12099,Kilggi Gwaay,1325T,1325T1A1-1033,Davis,Canada,BC,Haida Gwaii,not yet scanned,,52.15250,-131.10170
12101,Kilggi Gwaay,1325T,1325T4E3-6,Davis,Canada,BC,Haida Gwaii,not yet scanned,mixed up with 1325T4E2-6,52.15250,-131.10170
12102,Kilggi Gwaay,1325T,1325T8B4-7,Davis,Canada,BC,Haida Gwaii,not yet scanned,stemmed ppt (gap in orbits),52.15250,-131.10170
12104,Gaadu Din 1,1693T,1693T8C2-1,Davis,Canada,BC,Haida Gwaii,Processed,point base,52.44350,-131.36030
12105,Gaadu Din 1,1693T,1693T7B5-1,Davis,Canada,BC,Haida Gwaii,Processed,complete point (has extra scans in PSAL 12148) knife?,52.44350,-131.36030
12107,Gaadu Din 2,1906T,1906T2A1-1,Davis,Canada,BC,Haida Gwaii,Processed,"pristine point shape, but lots of mineralization (rough surface)",52.44350,-131.36030
12108,K1 Cave,FgUc-6,FGUC6-1,Davis,Canada,BC,Haida Gwaii,Processed,point base using bogus ID,52.44350,-131.36030
12123,Richardson Island,BC_Richardson,1127T13B12-1,Davis,Canada,BC,Haida Gwaii,Processed,biface,52.73720,-131.76700
12125,Kilggi Gwaay,1325T,1325T8B3-1,Davis,Canada,BC,Haida Gwaii,Processed,not 1325T8B1-3 which is separate point,52.15250,-131.10170
12132,Collison Bay,1720T,1720T11A7-1,Davis,Canada,BC,Haida Gwaii,not yet scanned,,52.28280,-131.14550
12134,Gault,41BL323,1001-3,Davis,USA,TX,Bell,not yet scanned,missing metadata,31.04559,-97.48227
12135,Gault,41BL323,5869-54,Davis,USA,TX,Bell,not yet scanned,"missing metadata  O1C1P5, O1C1P11 dbl ++",31.04559,-97.48227
12136,Gault,41BL323,6021-1,Davis,USA,TX,Bell,not yet scanned,missing metadata  O1C1P5 O1C2P8 O1C2P15 O2C1P12 O2C2P9,31.04559,-97.48227
12137,Gault,41BL323,6409-1,Davis,USA,TX,Bell,not yet scanned,missing metadata  O2C2 orbit clip at base?,31.04559,-97.48227
12138,Kilggi Gwaay,1325T,1325T8B3-16,Davis,Canada,BC,Haida Gwaii,Processed,missing metadata  need weight,52.15250,-131.10170
12139,,,HG_CORE1,Davis,,,,not yet scanned,missing metadata,,
12520,China Lake NAWS,CA-INY-1799,18_64_4,Nyers,USA,CA,Inyo,Processed,was 12140 China Lake ppt from CA grad student via Nyers.  'Lake Mohave' style  Has Nyers XRF.   LGD has data release,63.30920,-117.54960
12532,Canton site,15TR1,270-1,Hanvey,USA,KY,Trigg,Processed,was 12141 Vanessa Henvey. University of Kentucky PhD student St. Genevieve chert. Caliper: 47.6 mm x 31.6 mm x 6.4 mm,36.84740,-87.77630
12521,China Lake NAWS,CA-INY-1799,18_64_3,Nyers,USA,CA,Inyo,Processed,was 12142 China Lake ppt from CA grad student via Nyers.  'Lake Mohave' style  Has Nyers XRF.   LGD has data release,63.30920,-117.54960
12522,China Lake NAWS,CA-INY-1799,18-64_6,Nyers,USA,CA,Inyo,Processed,was 12143 China Lake ppt from CA grad student via Nyers.  'WST' style  Has Nyers XRF.   LGD has data release,63.30920,-117.54960
12523,China Lake NAWS,CA-INY-1799,18_64_13,Nyers,USA,CA,Inyo,Processed,was 12144 China Lake ppt from CA grad student via Nyers.  'Silver Lake' style  Has Nyers XRF.   LGD has data release,63.30920,-117.54960
12524,China Lake NAWS,CA-INY-1799,18_64_15,Nyers,USA,CA,Inyo,Processed,was 12145 China Lake ppt from CA grad student via Nyers.  'Silver Lake' style  Has Nyers XRF.   LGD has data release,63.30920,-117.54960
12525,China Lake NAWS,CA-INY-1799,18_64_22,Nyers,USA,CA,Inyo,Processed,was 12146 China Lake ppt from CA grad student via Nyers.  ovate style  Has Nyers XRF.   LGD has data release,63.30920,-117.54960
12140,Kilggi Gwaay,1325T,1325T8B1-3,Davis,Canada,BC,Haida Gwaii,Processed,was 12153 missing metadata need weight,52.15250,-131.10170
12141,Gaadu Din 1,1693T,1693T7X789-1,Davis,Canada,BC,Haida Gwaii,not yet scanned,was 12154 extra scans of 12105  ***photoscan images may need renumber**,52.44350,-131.36030
1574,Cooper's Ferry,10IH73,73-20204,Davis,USA,ID,Idaho,Processed,Tip slightly broken. Unit D NE Lv 15. Rn 21651,45.83513,-115.46639
1575,Cooper's Ferry,10IH73,73-22641,Davis,USA,ID,Idaho,Processed,Distal(?) end fragment. Unit E NW Lv 14. Rn 22355,45.83513,-115.46639
1576,Cooper's Ferry,10IH73,73-27119,Davis,USA,ID,Idaho,Processed,Proximal end fragment. Unit F SE Lv 15. Rn 15584,45.83513,-115.46639
1577,Cooper's Ferry,10IH73,73-30122,Davis,USA,ID,Idaho,Processed,Base slightly broken. F59 Unit S Lv 14,45.83513,-115.46639
1578,Cooper's Ferry,10IH73,73-32991,Davis,USA,ID,Idaho,Processed,Proximal end fragment. Unit E NE Lv 17. Rn 31057,45.83513,-115.46639
1579,Cooper's Ferry,10IH73,73-34408,Davis,USA,ID,Idaho,Processed,"Found within 1/8"" screen. Unit 6 Lv1",45.83513,-115.46639
1580,Cooper's Ferry,10IH73,73-34525,Davis,USA,ID,Idaho,Processed,"Found within 1/8"" screen. Unit 7 Lv2. Two broken halves pieced together.",45.83513,-115.46639
1581,Cooper's Ferry,10IH73,73-34553,Davis,USA,ID,Idaho,Processed,"Base slightly broken. Found within 1/8"" screen. Unit 9 Lv 2",45.83513,-115.46639
1582,Cooper's Ferry,10IH73,73-34634,Davis,USA,ID,Idaho,Processed,"Base slightly broken. Found within 1/8"" screen. Unit 9 Lv 4",45.83513,-115.46639
1583,Cooper's Ferry,10IH73,73-34694,Davis,USA,ID,Idaho,Processed,"Midsection fragment. Found within 1/8"" screen. Unit 9 Lv 5",45.83513,-115.46639
1584,Cooper's Ferry,10IH73,73-34722,Davis,USA,ID,Idaho,Processed,"Found within 1/8"" screen. Unit 2 Lv2",45.83513,-115.46639
1585,Cooper's Ferry,10IH73,73-34831,Davis,USA,ID,Idaho,Processed,"Found within 1/8"" screen. Unit 7 Lv6",45.83513,-115.46639
1586,Cooper's Ferry,10IH73,73-36387,Davis,USA,ID,Idaho,Processed,Tip fragment. Unit D SW Lv 18. RN 28298,45.83513,-115.46639
1587,Cooper's Ferry,10IH73,73-39064,Davis,USA,ID,Idaho,Processed,Unit F SW Lv 16. K1205,45.83513,-115.46639
1588,Cooper's Ferry,10IH73,73-55571,Davis,USA,ID,Idaho,Processed,RN 49294 from F112. Side 2 needs rescan due to extensive editing of bumps present from calcium carbonate on PPT.,45.83513,-115.46639
1589,Cooper's Ferry,10IH73,73-56216,Davis,USA,ID,Idaho,Processed,"Found within 1/8"" screen. Unit 10 Lv 1",45.83513,-115.46639
1590,Cooper's Ferry,10IH73,73-56217,Davis,USA,ID,Idaho,Processed,"Found within 1/8"" screen. Unit 10 Lv 1",45.83513,-115.46639
1591,Cooper's Ferry,10IH73,73-56218,Davis,USA,ID,Idaho,Processed,"Found within 1/8"" screen. Unit 10 Lv 1",45.83513,-115.46639
1592,Cooper's Ferry,10IH73,73-56219,Davis,USA,ID,Idaho,Processed,"Found within 1/8"" screen. Unit 10 Lv 1     Bizarre: Added side notches to stemmed point",45.83513,-115.46639
1593,Cooper's Ferry,10IH73,73-56220,Davis,USA,ID,Idaho,Processed,"Found within 1/8"" screen. Unit 10 Lv 1",45.83513,-115.46639
1594,Cooper's Ferry,10IH73,73-57855,Davis,USA,ID,Idaho,Processed,Basal-notched base fragment. Unit E SE Lv 14. Rn 9194,45.83513,-115.46639
1595,Cooper's Ferry,10IH73,73-6214,Davis,USA,ID,Idaho,Processed,Distal fragment. Unit C SE Lv 3. Rn 10,45.83513,-115.46639
1596,Cooper's Ferry,10IH73,73-17433,Davis,USA,ID,Idaho,Processed,Distal end fragment. Unit G SW Lv 14. RN 10670,45.83513,-115.46639
1597,Cooper's Ferry,10IH73,73-21759,Davis,USA,ID,Idaho,Processed,Base fragment. Unit K Lv 5,45.83513,-115.46639
1598,Cooper's Ferry,10IH73,73-25311,Davis,USA,ID,Idaho,Processed,Mostly complete side-notched point. Unit N SE Lv 2,45.83513,-115.46639
1599,Cooper's Ferry,10IH73,73-29305,Davis,USA,ID,Idaho,Processed,Proximal end fragment. Unit I SW Lv 18. RN 17119,45.83513,-115.46639
1600,Cooper's Ferry,10IH73,73-33488,Davis,USA,ID,Idaho,Processed,Base or tip fragment. Unit K NW Lv 8. RN 26971,45.83513,-115.46639
1601,Cooper's Ferry,10IH73,73-39151,Davis,USA,ID,Idaho,Processed,Unit G SE Lv 19. Rn 29432,45.83513,-115.46639
1602,Cooper's Ferry,10IH73,73-48345,Davis,USA,ID,Idaho,Processed,Base fragment. Unit N NE Lv 10. RN 52782,45.83513,-115.46639
1603,Cooper's Ferry,10IH73,73-51643,Davis,USA,ID,Idaho,Processed,Mostly complete. Unit N NE Lv 12. RN 54264,45.83513,-115.46639
1604,Cooper's Ferry,10IH73,73-24063,Davis,USA,ID,Idaho,Processed,Proximal end fragment. Unit F SW Lv 14. Rn 13930,45.83513,-115.46639
1605,Cooper's Ferry,10IH73,73-57219,Davis,USA,ID,Idaho,Processed,Unit F SW Lv 11. Rn 1701,45.83513,-115.46639
1606,Cooper's Ferry,10IH73,73-34221,Davis,USA,ID,Idaho,Processed,Unit W Lv 2. RN 27008,45.83513,-115.46639
1607,Cooper's Ferry,10IH73,73-34387,Davis,USA,ID,Idaho,Processed,Proximal end fragment. Unit Q Lv 4,45.83513,-115.46639
1608,Cooper's Ferry,10IH73,73-24605,Davis,USA,ID,Idaho,Processed,Proximal end fragment. Unit Q SW Lv 1. RN 14533,45.83513,-115.46639
1609,Cooper's Ferry,10IH73,73-24535,Davis,USA,ID,Idaho,Processed,Distal end fragment. Unit Q SW Lv 1. RN 14427,45.83513,-115.46639
1610,Cooper's Ferry,10IH73,73-34517,Davis,USA,ID,Idaho,Processed,Proximal end fragment. Unit Z Lv 2,45.83513,-115.46639
1611,Cooper's Ferry,10IH73,73-34270,Davis,USA,ID,Idaho,Processed,Proximal end fragment. Unit Y Lv 2,45.83513,-115.46639
1612,Cooper's Ferry,10IH73,73-34494,Davis,USA,ID,Idaho,Processed,Base fragment. Unit 4 Lv 1,45.83513,-115.46639
1613,Cooper's Ferry,10IH73,73-59014,Davis,USA,ID,Idaho,Processed,Mostly complete stemmed point. Unit B NW Lv 17. Rn 5596,45.83513,-115.46639
1614,Cooper's Ferry,10IH73,73-340,Davis,USA,ID,Idaho,Processed,Mostly compelte foliate point. Unit A quad/level currently unknown.,45.83513,-115.46639
1615,Cooper's Ferry,10IH73,73-203,Davis,USA,ID,Idaho,Processed,Unit A SE Lv 4,45.83513,-115.46639
1616,Cooper's Ferry,10IH73,73-10930,Davis,USA,ID,Idaho,Processed,Mostly complete foliate point. Unit G SE Lv 14,45.83513,-115.46639
1617,Cooper's Ferry,10IH73,73-59013,Davis,USA,ID,Idaho,Processed,Unit H SW Lv 16. Rn 7264,45.83513,-115.46639
1618,Cooper's Ferry,10IH73,73-18052,Davis,USA,ID,Idaho,Processed,Mostly complete PPT. Unit B NW Lv 19. Rn 20389,45.83513,-115.46639
1619,Cooper's Ferry,10IH73,73-5695,Davis,USA,ID,Idaho,Processed,Base fragment. Unit H NE Lv 3,45.83513,-115.46639
1620,Cooper's Ferry,10IH73,73-259,Davis,USA,ID,Idaho,Processed,Unit A - other information currently not available,45.83513,-115.46639
1621,Cooper's Ferry,10IH73,73-5709,Davis,USA,ID,Idaho,Processed,Partially complete. Unit J SW Lv 1,45.83513,-115.46639
1622,Cooper's Ferry,10IH73,73-13197,Davis,USA,ID,Idaho,Processed,Unit B SE Lv 17. RN 2404,45.83513,-115.46639
1623,Cooper's Ferry,10IH73,73-9687,Davis,USA,ID,Idaho,Processed,Unit B SW Lv 12,45.83513,-115.46639
1624,Cooper's Ferry,10IH73,73-5812,Davis,USA,ID,Idaho,Processed,Base fragment. Unit G NW Lv 2,45.83513,-115.46639
1625,Cooper's Ferry,10IH73,73-220,Davis,USA,ID,Idaho,Processed,Unit A SW Lv 5,45.83513,-115.46639
1626,Cooper's Ferry,10IH73,73-9379,Davis,USA,ID,Idaho,Processed,Unit C NE Lv 16. RN 735,45.83513,-115.46639
1627,Cooper's Ferry,10IH73,73-253,Davis,USA,ID,Idaho,Processed,Unit A NW Lv 6,45.83513,-115.46639
1628,Cooper's Ferry,10IH73,73-28260,Davis,USA,ID,Idaho,Processed,Biface proximal end fragment. Unit E SW Lv 15. RN 16395,45.83513,-115.46639
1629,Cooper's Ferry,10IH73,73-6516,Davis,USA,ID,Idaho,Processed,Proximal end fragment. Unit H NE Lv 4. RN 61,45.83513,-115.46639
1630,Cooper's Ferry,10IH73,73-22036,Davis,USA,ID,Idaho,Processed,Side-notched point. Unit K SE Lv 1,45.83513,-115.46639
1631,Cooper's Ferry,10IH73,73-256,Davis,USA,ID,Idaho,Processed,Partially complete Proximal fragment. Unit A level information currently unknown,45.83513,-115.46639
1632,Cooper's Ferry,10IH73,73-5989,Davis,USA,ID,Idaho,Processed,Side-notched. Unit B SE Lv 3,45.83513,-115.46639
1633,Cooper's Ferry,10IH73,73-7451,Davis,USA,ID,Idaho,Processed,Base fragment. Unit C SE Lv 7. RN 128,45.83513,-115.46639
1634,Cooper's Ferry,10IH73,73-7206,Davis,USA,ID,Idaho,Processed,Mostly complete. Unit C SW Lv 5. RN 88,45.83513,-115.46639
1635,Cooper's Ferry,10IH73,73-57180,Davis,USA,ID,Idaho,Processed,Unit F SE Lv 9. RN 902,45.83513,-115.46639
1636,Cooper's Ferry,10IH73,73-59026,Davis,USA,ID,Idaho,Processed,Partially complete distal fragment. Unit B SW Lv 18. RN 7811,45.83513,-115.46639
1637,Cooper's Ferry,10IH73,73-8497,Davis,USA,ID,Idaho,Processed,Base fragment. Unit I NW Lv 16. RN 195,45.83513,-115.46639
1638,Cooper's Ferry,10IH73,73-8850,Davis,USA,ID,Idaho,Processed,Unit and level currently unknown. RN 4910,45.83513,-115.46639
1639,Cooper's Ferry,10IH73,73-644,Davis,USA,ID,Idaho,Processed,Unit A SW Level 14,45.83513,-115.46639
1640,Cooper's Ferry,10IH73,73-59019,Davis,USA,ID,Idaho,Processed,Unit J SE Level 18,45.83513,-115.46639
1641,Cooper's Ferry,10IH73,73-139,Davis,USA,ID,Idaho,Processed,Unit A NW Level 3,45.83513,-115.46639
1642,Cooper's Ferry,10IH73,73-636,Davis,USA,ID,Idaho,Processed,Partially complete stemmed point. Unit A SW Level 14,45.83513,-115.46639
1643,Cooper's Ferry,10IH73,73-13581,Davis,USA,ID,Idaho,Processed,Unit B SW Level 17,45.83513,-115.46639
1644,Cooper's Ferry,10IH73,73-642,Davis,USA,ID,Idaho,Processed,Partially complete stemmed point. Unit A SW Level 13. Hole on blade face is a small crystal pocket.,45.83513,-115.46639
1645,Cooper's Ferry,10IH73,73-21214,Davis,USA,ID,Idaho,Processed,Unit K Level 4,45.83513,-115.46639
1646,Cooper's Ferry,10IH73,73-11797,Davis,USA,ID,Idaho,Processed,Unit C NE Lv 17. RN 5328,45.83513,-115.46639
1647,Cooper's Ferry,10IH73,73-819,Davis,USA,ID,Idaho,Processed,Unit A Level 9,45.83513,-115.46639
1648,Cooper's Ferry,10IH73,73-837,Davis,USA,ID,Idaho,Processed,Proximal end fragment. Unit A SW Level 10,45.83513,-115.46639
1649,Cooper's Ferry,10IH73,73-5713,Davis,USA,ID,Idaho,Processed,Proximal end fragment. Unit I NE Level 2,45.83513,-115.46639
1650,Cooper's Ferry,10IH73,73-5992,Davis,USA,ID,Idaho,Processed,Side-notched base fragment. Unit B SE Level 3,45.83513,-115.46639
1651,Cooper's Ferry,10IH73,73-47706,Davis,USA,ID,Idaho,Processed,Distal end fragment. Unit N NW Level 10. RN 52479,45.83513,-115.46639
1652,Cooper's Ferry,10IH73,73-26131,Davis,USA,ID,Idaho,Processed,Broken base. Unit K SW Level 7. RN 14910,45.83513,-115.46639
1653,Cooper's Ferry,10IH73,73-21119,Davis,USA,ID,Idaho,Processed,Base fragment. Unit C SW Level 16. RN 12746,45.83513,-115.46639
1654,Cooper's Ferry,10IH73,73-31574,Davis,USA,ID,Idaho,Processed,Base fragment. Unit G SE Lv 18. RN 30115,45.83513,-115.46639
1655,Cooper's Ferry,10IH73,73-29108,Davis,USA,ID,Idaho,Processed,Unit E NE Level 15. RN 17010,45.83513,-115.46639
1656,Cooper's Ferry,10IH73,73-59025,Davis,USA,ID,Idaho,Processed,Unit 18 Lv unknown. RN 40268,45.83513,-115.46639
1657,Cooper's Ferry,10IH73,73-28716,Davis,USA,ID,Idaho,Processed,Unit E NE Lv 15. RN 24662,45.83513,-115.46639
1658,Cooper's Ferry,10IH73,73-19141,Davis,USA,ID,Idaho,Processed,Unit H NE Lv 17. RN 21046,45.83513,-115.46639
12526,China Lake NAWS,CA-INY-1799,18_64_23,Nyers,USA,CA,Inyo,Processed,was 12147 China Lake ppt from CA grad student via Nyers.  ovate style  Has Nyers XRF.   LGD has data release,63.30920,-117.54960
12527,China Lake NAWS,CA-INY-1799,18_64_28,Nyers,USA,CA,Inyo,Processed,was 12148 China Lake ppt from CA grad student via Nyers.  ovate style  Has Nyers XRF.   LGD has data release,63.30920,-117.54960
12528,China Lake NAWS,CA-INY-1799,18_64_33,Nyers,USA,CA,Inyo,Processed,was 12149 China Lake ppt from CA grad student via Nyers.  'Lake Mohave' style  Has Nyers XRF.   LGD has data release,63.30920,-117.54960
12529,China Lake NAWS,CA-INY-1799,18_64_35,Nyers,USA,CA,Inyo,Processed,was 12150 China Lake ppt from CA grad student via Nyers.  'Silver Lake' style  Has Nyers XRF.   LGD has data release,63.30920,-117.54960
12530,China Lake NAWS,CA-INY-1799,18_64_37,Nyers,USA,CA,Inyo,Processed,was 12151 China Lake ppt from CA grad student via Nyers. ovate style  Has Nyers XRF.   LGD has data release,63.30920,-117.54960
12531,China Lake NAWS,CA-INY-1799,18_64_38,Nyers,USA,CA,Inyo,Processed,was 12152 China Lake ppt from CA grad student via Nyers.  'Parman preform' style  Has Nyers XRF.   LGD has data release,63.30920,-117.54960
12149,Ushki,Ru_Ushki,Ushki-V_2011_302_KV4_L7_IP,Davis,Russia,Ru,Kamchatka,Processed,"L: 37.17  W: 26.31  Thk: 4.17  Ushki-V, stemmed PPT, missing tip, unit 4, layer 7, 50 mm lens, IP   Imaged in May 2018",58.00000,162.00000
12150,Ushki,Ru_Ushki,Ushki-V_2006_1857_L7_IP,Davis,Russia,Ru,Kamchatka,Processed,"L: 47.72  W: 23.94  Thk: 5.42  Ushki-V, stemmed PPT, missing tip, layer 7, 50 mm lens, IP",58.00000,162.00000
12151,Ushki,Ru_Ushki,Ushki-V_2007_384_L7_IP,Davis,Russia,Ru,Kamchatka,Processed,"L: 31.31  W: 14.9  Thk: 3.64  Ushki-V, stemmed PPT, complete, layer 7, 50 mm lens, IP",58.00000,162.00000
12152,Ushki,Ru_Ushki,Ushki-V_2006_1567_L7_IP,Davis,Russia,Ru,Kamchatka,Processed,"L: 54.45  W: 29.19  Thk: 5.7  Ushki-V, stemmed PPT, complete, layer 7, 50 mm lens, IP",58.00000,162.00000
12153,Ushki,Ru_Ushki,Ushki-V_2006_765_L7_IP,Davis,Russia,Ru,Kamchatka,Processed,"L: 33.15  W: 29.46  Thk: 4.95  Ushki-V, stemmed PPT, missing tip, layer 7, 50 mm lens, IP",58.00000,162.00000
12154,Ushki,Ru_Ushki,Ushki-V_2006_186_L7_IP,Davis,Russia,Ru,Kamchatka,Processed,"(no Procrustes) L: 39.14  W: 18.04  Thk: 4.15  Ushki-V, stemmed PPT, blade fragment, layer 7, 50 mm lens, IP",58.00000,162.00000
12155,Ushki,Ru_Ushki,Ushki-V_2007_220_L7_IP,Davis,Russia,Ru,Kamchatka,Processed,"L: 39.95  W: 19.18  Thk: 3.64  Ushki-V, stemmed PPT, complete, layer 7, 50 mm lens, IP",58.00000,162.00000
12156,Ushki,Ru_Ushki,Ushki-V_2006_1562_L7_IP,Davis,Russia,Ru,Kamchatka,Processed,"L: 30.53  W: 13.79  Thk: 4.2  Ushki-V, stemmed PPT, complete, layer 7, 50 mm lens, IP",58.00000,162.00000
12157,Ushki,Ru_Ushki,Ushki-V_2006_1568_L7_IP,Davis,Russia,Ru,Kamchatka,Processed,"L: 47.68  W: 21.54  Thk: 5.79  Ushki-V, stemmed PPT, partial fracture on haft, layer 7, 50 mm lens, IP",58.00000,162.00000
12158,Ushki,Ru_Ushki,Ushki-V_2007_565_L7_IP,Davis,Russia,Ru,Kamchatka,Processed,"L: 40.23  W: 18.8  Thk: 4.3  Ushki-V, stemmed PPT, partial fracture on haft, layer 7, 50 mm lens, IP",58.00000,162.00000
12159,Ushki,Ru_Ushki,Ushki-V_2006_233_L7_IP,Davis,Russia,Ru,Kamchatka,Processed,"(no Procrustes) L: 46.13  W: 31.42  Thk: 7.44  Ushki-V, bifacial preform, distal fracture, layer 7, 50 mm lens, IP",58.00000,162.00000
12160,Ushki,Ru_Ushki,Ushki-V_2011_292_L7_IP,Davis,Russia,Ru,Kamchatka,Processed,"(no Procrustes) L: 55.6  W: 32.19  Thk: 7.83  Ushki-V, biface, complete, retains original striking platform, layer 7, 50 mm lens, IP",58.00000,162.00000
12161,Ushki,Ru_Ushki,Ushki-V_2006_778_L7_IP,Davis,Russia,Ru,Kamchatka,not yet scanned,"L: 40.96  W: 17.14  Thk: 6.51  Ushki-V_biface, complete, basal edge grinding, layer 7, 50 mm lens, IP",58.00000,162.00000
12163,Ushki,Ru_Ushki,Ushki-V_2006_779a_L7_IP,Davis,Russia,Ru,Kamchatka,not yet scanned,"L: 44.85  W: 20.72  Thk: 6.18  Ushki-V, biface, complete, layer 7, 50 mm lens, IP",58.00000,162.00000
12164,Ushki,Ru_Ushki,Ushki-V_2006_779b_L7_IP,Davis,Russia,Ru,Kamchatka,not yet scanned,"L: 34.95  W: 18.48  Thk: 6.57  Ushki-V, biface, complete, layer 7, 50 mm lens, IP",58.00000,162.00000
12165,Ushki,Ru_Ushki,Ushki-V_2007_243_L7_IP,Davis,Russia,Ru,Kamchatka,not yet scanned,"L: 23.14  W: 34.13  Thk: 8.03  Ushki-V, biface, proximal fragment, width is actually greater than length, layer 7, 50 mm lens, IP",58.00000,162.00000
12166,Ushki,Ru_Ushki,Ushki-V_2007_266_L7_IP,Davis,Russia,Ru,Kamchatka,not yet scanned,"L: 41.05  W: 25.2  Thk: 8.93  Ushki-V, biface, complete, layer 7, 50 mm lens, IP",58.00000,162.00000
12168,Ushki,Ru_Ushki,Ushki-V_2007_392_L7_IP,Davis,Russia,Ru,Kamchatka,not yet scanned,"L: 66.25  W: 29.55  Thk: 9  Ushki-V, macroblade, parallel dorsal scars, layer 7, 50 mm lens, IP",58.00000,162.00000
12175,Ushki,Ru_Ushki,Ushki-V_2006_468_L7_IP,Davis,Russia,Ru,Kamchatka,not yet scanned,"L: 38.54  W: 41.17  Thk: 10.26  Ushki-V, large biface fragment, layer 7, 50 mm lens, IP",58.00000,162.00000
12178,Ushki,Ru_Ushki,Ushki-V_2007_374_L7_IP,Davis,Russia,Ru,Kamchatka,not yet scanned,"L: 56.9  W: 21.54  Thk: 5.75  Ushki-V, blade, layer 7, 50 mm lens, IP",58.00000,162.00000
12179,Ushki,Ru_Ushki,Ushki-V_2007_384_L7_IP,Davis,Russia,Ru,Kamchatka,not yet scanned,"L: 31.31  W: 14.9  Thk: 3.64  Ushki-V, stemmed PPT, complete, layer 7, 100 mm lens, ISO 200, IP",58.00000,162.00000
12180,Ushki,Ru_Ushki,Ushki-V_2006_1857_L7_IP,Davis,Russia,Ru,Kamchatka,not yet scanned,"L: 47.72  W: 23.94  Thk: 5.42  Ushki-V, stemmed PPT, missing tip, layer 7, 100 mm lens, ISO 0.7, IP",58.00000,162.00000
12181,Ushki,Ru_Ushki,Ushki-V_2006_1568_L7_IP,Davis,Russia,Ru,Kamchatka,not yet scanned,"L: 47.68  W: 21.54  Thk: 5.79  Ushki-V, stemmed PPT, partial fracture on haft, layer 7, 100 mm lens, ISO 200, IP",58.00000,162.00000
12182,Ushki,Ru_Ushki,Ushki-V_2007_220_L7_IP,Davis,Russia,Ru,Kamchatka,not yet scanned,"L: 39.95  W: 19.18  Thk: 3.64  Ushki-V, stemmed PPT, complete, layer 7, 100 mm lens, ISO 200, IP",58.00000,162.00000
12183,Ushki,Ru_Ushki,Ushki-V_2011_302_KV4_L7_IP,Davis,Russia,Ru,Kamchatka,not yet scanned,"L: 37.17  W: 26.31  Thk: 4.17  Ushki-V stemmed PPT, missing tip, unit 4, layer 7, 100 mm lens, ISO 0.7, IP",58.00000,162.00000
12184,Ushki,Ru_Ushki,Ushki-V_2006_1567_L7_IP,Davis,Russia,Ru,Kamchatka,not yet scanned,"L: 54.45  W: 29.19  Thk: 5.7  Ushki-V, stemmed PPT, complete, layer 7, 100 mm lens, ISO 0.7, IP",58.00000,162.00000
12185,Ushki,Ru_Ushki,Ushki-V_2006_778_L7_IP,Davis,Russia,Ru,Kamchatka,not yet scanned,"L: 40.96  W: 17.14  Thk: 6.51  Ushki-V_biface, complete, basal edge grinding, layer 7, 100 mm lens, ISO 200, IP",58.00000,162.00000
12186,Ushki,Ru_Ushki,Ushki-V_2006_186_L7_IP,Davis,Russia,Ru,Kamchatka,not yet scanned,"L: 39.14  W: 18.04  Thk: 4.15  Ushki-V, stemmed PPT, blade fragment, layer 7, 100 mm lens, ISO 0.7, IP",58.00000,162.00000
12187,Ushki,Ru_Ushki,Ushki-V_2007_565_L7_IP,Davis,Russia,Ru,Kamchatka,not yet scanned,"L: 40.23  W: 18.8  Thk: 4.3  Ushki-V, stemmed PPT, partial fracture on haft, layer 7, 100 mm lens, ISO 200, IP",58.00000,162.00000
12188,Ushki,Ru_Ushki,Ushki-V_2006_779a_L7_IP,Davis,Russia,Ru,Kamchatka,not yet scanned,"L: 44.85  W: 20.72  Thk: 6.18  Ushki-V, biface, complete, layer 7, 100 mm lens, ISO 200, IP",58.00000,162.00000
12189,Ushki,Ru_Ushki,Ushki-V_2006_765_L7_IP,Davis,Russia,Ru,Kamchatka,not yet scanned,"L: 33.15  W: 29.46  Thk: 4.95  Ushki-V, stemmed PPT, missing tip, layer 7, 100 mm lens, ISO 0.7, IP",58.00000,162.00000
12190,Ushki,Ru_Ushki,Ushki-V_2007_266_L7_IP,Davis,Russia,Ru,Kamchatka,not yet scanned,"L: 41.05  W: 25.2  Thk: 8.93  Ushki-V, biface, complete, layer 7, 100 mm lens, ISO 0.3, IP",58.00000,162.00000
12191,Ushki,Ru_Ushki,Ushki-V_2006_779b_L7_IP,Davis,Russia,Ru,Kamchatka,not yet scanned,"L: 34.95  W: 18.48  Thk: 6.57  Ushki-V, biface, complete, layer 7, 100 mm lens, ISO 200, IP",58.00000,162.00000
12192,Ushki,Ru_Ushki,Ushki-V_2006_469_L7_IP,Davis,Russia,Ru,Kamchatka,not yet scanned,"L: 22.91  W: 15.99  Thk: 3.66  Ushki-V, PPT tip fragment, layer 7, 100 mm lens, ISO 0.3, IP",58.00000,162.00000
12193,Ushki,Ru_Ushki,Ushki-V_2006_1562_L7_IP,Davis,Russia,Ru,Kamchatka,not yet scanned,"L: 30.73  W: 13.73  Thk: 4.15  Ushki-V, complete PPT, layer 7, 100 mm lens, ISO 200, IP",58.00000,162.00000
12194,Ushki,Ru_Ushki,Ushki-V_2007_315_L7_IP,Davis,Russia,Ru,Kamchatka,not yet scanned,"L: 20.52  W: 15.6  Thk: 4.58  Ushki-V, PPT base, layer 7, 100 mm lens, ISO 0.3, IP",58.00000,162.00000
12195,Ushki,Ru_Ushki,Ushki-V_2006_961_L7_IP,Davis,Russia,Ru,Kamchatka,not yet scanned,"L: 24.52  W: 10.1  Thk: 3.79  Ushki-V, complete PPT, layer 7, 100 mm lens, ISO 200, IP",58.00000,162.00000
12196,Ushki,Ru_Ushki,Ushki-V_2007_453_L7_IP,Davis,Russia,Ru,Kamchatka,not yet scanned,"L: 22.22  W: 13.93  Thk: 3.52  Ushki-V, PPT tip, layer 7, 100 mm lens, ISO 100, IP",58.00000,162.00000
12200,Ushki,Ru_Ushki,Ushki-V_2006_782_L7_IP,Davis,Russia,Ru,Kamchatka,not yet scanned,"L: 22.03  W: 17.46  Thk: 5.85  Ushki-V, uniface, layer 7, 100 mm lens, ISO 100, IP",58.00000,162.00000
12201,Ushki,Ru_Ushki,Ushki-V_2007_365_L7_IP,Davis,Russia,Ru,Kamchatka,not yet scanned,"L: 49.69  W: 45.93  Thk: 13.43  Ushki-V, biface fragment, layer 7, 100 mm lens, ISO 100, IP",58.00000,162.00000
12210,Ushki,Ru_Ushki,Ushki-V_2005_667_L6_IP,Davis,Russia,Ru,Kamchatka,not yet scanned,"L: 49.21  W: 4.69  Thk: 5.69  Ushki-V microblade spall, layer 6, 100 mm lens, ISO 200, IP",58.00000,162.00000
12211,Ushki,Ru_Ushki,Ushki-V_2007_014_L6_IP,Davis,Russia,Ru,Kamchatka,not yet scanned,"L: 71.15  W: 17.14  Thk: 7.83  Ushki-V microblade spall, layer 6, 100 mm lens, ISO 200, IP",58.00000,162.00000
12212,Ushki,Ru_Ushki,Ushki-V_2005_462_L6_IP,Davis,Russia,Ru,Kamchatka,not yet scanned,"L: 49.03  W: 6.65  Thk: 3.22  Ushki-V microblade spall, layer 6, 100 mm lens, ISO 200, IP",58.00000,162.00000
12214,Ushki,Ru_Ushki,Ushki-V_2005_543_L6_IP,Davis,Russia,Ru,Kamchatka,not yet scanned,"L: 30.37  W: 5  Thk: 2.03  Ushki-V microblade spall, layer 6, 100 mm lens, ISO 100, IP",58.00000,162.00000
12215,Ushki,Ru_Ushki,Ushki-V_2005_645_L6_IP,Davis,Russia,Ru,Kamchatka,not yet scanned,"L: 27.84  W: 4.15  Thk: 3.1  Ushki-V microblade spall, layer 6, 100 mm lens, ISO 100, IP",58.00000,162.00000
12216,Ushki,Ru_Ushki,Ushki-V_2005_650_L6_IP,Davis,Russia,Ru,Kamchatka,not yet scanned,"L: 26.62  W: 16.83  Thk: 5.85  Ushki-V projectile point, layer 6, 100 mm lens, ISO 200, IP",58.00000,162.00000
12217,Ushki,Ru_Ushki,Ushki-V_2005_544_L6_IP,Davis,Russia,Ru,Kamchatka,not yet scanned,"L: 22.3  W: 4.56  Thk: 1.19  Ushki-V microblade, layer 6, 100 mm lens, ISO 100, IP",58.00000,162.00000
12218,Ushki,Ru_Ushki,Ushki-V_2005_51_L6_IP,Davis,Russia,Ru,Kamchatka,not yet scanned,"L: 23.97  W: 3.45  Thk: 1.5  Ushki-V microblade, layer 6, 100 mm lens, ISO 200, IP",58.00000,162.00000
12219,Ushki,Ru_Ushki,Ushki-V_2006_131_L6_IP,Davis,Russia,Ru,Kamchatka,not yet scanned,"L: 28.27  W: 4.8  Thk: 1.5  Ushki-V microblade, layer 6, 100 mm lens, ISO 200, IP",58.00000,162.00000
12220,Ushki,Ru_Ushki,Ushki-V_2006_103_L6_IP,Davis,Russia,Ru,Kamchatka,not yet scanned,"L: 28.48  W: 8.74  Thk: 3.28  Ushki-V microblade, layer 6, 100 mm lens, ISO 200, IP",58.00000,162.00000
12221,Ushki,Ru_Ushki,Ushki-V_2011_261/274_L6_IP,Davis,Russia,Ru,Kamchatka,not yet scanned,"L: 76.62  W: 25.34  Thk: 10.55  Ushki-V refit biface fragment, layer 6, 100 mm lens, ISO 200, IP",58.00000,162.00000
12222,Ushki,Ru_Ushki,Ushki-V_2005_695_L6_IP,Davis,Russia,Ru,Kamchatka,not yet scanned,"L: 32.93  W: 18.64  Thk: 2.64  Ushki-V debitage, layer 6, 100 mm lens, ISO 200, IP",58.00000,162.00000
12223,Ushki,Ru_Ushki,Ushki-V_2006_140_L6_IP,Davis,Russia,Ru,Kamchatka,not yet scanned,"L: 41.94  W: 31.54  Thk: 9.48  Ushki-V burinated blade fragment, layer 6, 100 mm lens, ISO 100, IP",58.00000,162.00000
12224,Ushki,Ru_Ushki,Ushki-V_2006_99_L6_IP,Davis,Russia,Ru,Kamchatka,not yet scanned,"L: 37.77  W: 28.58  Thk: 9.22  Ushki-V burinated blade fragment, layer 6, 100 mm lens, ISO 200, IP",58.00000,162.00000
12228,Ushki,Ru_Ushki,Ushki-V_2011_237a_L6_IP,Davis,Russia,Ru,Kamchatka,not yet scanned,"L: 38.4  W: 12.97  Thk: 9.19  Ushki-V microblade spall, layer 6, 100 mm lens, ISO 200, IP",58.00000,162.00000
12231,Ushki,Ru_Ushki,Ushki-V_2010_20_L7_IP,Davis,Russia,Ru,Kamchatka,not yet scanned,"L: 96.38  W: 27.71  Thk: 8.21  Ushki-V prismatic blade, layer 7, 100 mm lens, ISO 100, IP",58.00000,162.00000
12233,Ushki,Ru_Ushki,Ushki_SS_1_A_L6,Davis,Russia,Ru,Kamchatka,not yet scanned,"L: 54.95  W: 16.97  Thk: 4.8  Ushki foliate PPT, layer 6, 100 mm lens, ISO 200, SS",58.00000,162.00000
12234,Ushki,Ru_Ushki,Ushki_SS_1_1_L6,Davis,Russia,Ru,Kamchatka,not yet scanned,"L: 34.52  W: 10.2  Thk: 2.95  Ushki foliate PPT, layer 6, 100 mm lens, ISO 200, SS",58.00000,162.00000
12235,Ushki,Ru_Ushki,Ushki_SS_1_125_L6,Davis,Russia,Ru,Kamchatka,not yet scanned,"L: 42.37  W: 11.3  Thk: 3.68  Ushki foliate PPT, layer 6, 100 mm lens, ISO 200, SS",58.00000,162.00000
12236,Ushki,Ru_Ushki,Ushki_SS_1_6_L6,Davis,Russia,Ru,Kamchatka,not yet scanned,"L: 38.61  W: 10.55  Thk: 3.02  Ushki foliate PPT, layer 6, 100 mm lens, ISO 200, SS",58.00000,162.00000
12237,Ushki,Ru_Ushki,Ushki_SS_1_B_L6,Davis,Russia,Ru,Kamchatka,not yet scanned,"L: 27.83  W: 8.83  Thk: 2.59  Ushki foliate PPT, layer 6, 100 mm lens, ISO 200, SS",58.00000,162.00000
12238,Ushki,Ru_Ushki,Ushki_SS_1_10_L6,Davis,Russia,Ru,Kamchatka,not yet scanned,"L: 37.13  W: 11.23  Thk: 3.57  Ushki foliate PPT, layer 6, 100 mm lens, ISO 200, SS",58.00000,162.00000
12239,Ushki,Ru_Ushki,Ushki_SS_1_12_L6,Davis,Russia,Ru,Kamchatka,not yet scanned,"L: 29.21  W: 12.07  Thk: 3.64  Ushki foliate PPT, layer 6, 100 mm lens, ISO 200, SS",58.00000,162.00000
12240,Ushki,Ru_Ushki,Ushki_SS_16_L6,Davis,Russia,Ru,Kamchatka,not yet scanned,"L: 46.67  W: 18.74  Thk: 4.37  Ushki PPT fragment, layer 6, 100 mm lens, ISO 100, SS",58.00000,162.00000
12246,Ushki,Ru_Ushki,Ushki-1_SS_1990_25_L6,Davis,Russia,Ru,Kamchatka,not yet scanned,"L: 53.92  W: 54.58  Thk: 9.97  Ushki biface fragment, layer 6, 50 mm lens, ISO 640, SS",58.00000,162.00000
12247,Ushki,Ru_Ushki,Ushki_SS_15_L6,Davis,Russia,Ru,Kamchatka,not yet scanned,"L: 87.21  W: 13.92  Thk: 4.18  Ushki foliate PPT, layer 6, 50 mm lens, ISO 200, SS",58.00000,162.00000
12265,Kheta,,Kheta_SS_42_lower_layer,Davis,Russia,Krasnoyarsk,,not yet scanned,"L: 80.42  W: 14.25  Thk: 55.37  Kheta biface fragment, lower layer, 50 mm lens, ISO 250, SS",70.27000,95.86000
12266,Kheta,,Kheta_SS_37_lower_layer,Davis,Russia,Krasnoyarsk,,not yet scanned,"L: 39.31  W: 20.05  Thk: 7.15  Kheta burin, lower layer, 100 mm lens, ISO 250, SS",70.27000,95.86000
12267,Kheta,,Kheta_SS_39_lower_layer,Davis,Russia,Krasnoyarsk,,not yet scanned,"L: 29.04  W: 12.27  Thk: 3.93  Kheta foliate PPT, lower layer, 100 mm lens, ISO 250, SS",70.27000,95.86000
12268,Kheta,,Kheta_SS_40_lower_layer,Davis,Russia,Krasnoyarsk,,not yet scanned,"L: 31.16  W: 11.3  Thk: 3.27  Kheta foliate PPT, lower layer, 100 mm lens, ISO 250, SS",70.27000,95.86000
12273,Ushki,Ru_Ushki,Ushki-5_2005_514_L5_IP,Davis,Russia,Ru,Kamchatka,not yet scanned,"L: 39.12  W: 20.54  Thk: 5.33  Ushki-5 prismatic blade, layer 5, 100 mm lens, ISO 200, IP",58.00000,162.00000
12274,Ushki,Ru_Ushki,Ushki-5_2009_1587_L5_IP,Davis,Russia,Ru,Kamchatka,not yet scanned,"L: 54.81  W: 9.31  Thk: 2.85  Ushki-5 bladelet, layer 5, 100 mm lens, ISO 200, IP",58.00000,162.00000
12275,Ushki,Ru_Ushki,Ushki-5_2005_348_L5_IP,Davis,Russia,Ru,Kamchatka,not yet scanned,"L: 33.67  W: 11.54  Thk: 2.64  Ushki-5 bladelet, layer 5, 100 mm lens, ISO 100, IP",58.00000,162.00000
12276,Ushki,Ru_Ushki,Ushki-5_2005_107_L5_IP,Davis,Russia,Ru,Kamchatka,not yet scanned,"L: 29.93  W: 9.76  Thk: 1.82  Ushki-5 bladelet, layer 5, 100 mm lens, ISO 200, IP",58.00000,162.00000
12277,Ushki,Ru_Ushki,Ushki-5_2005_280_L5_IP,Davis,Russia,Ru,Kamchatka,not yet scanned,"L: 45.34  W: 11.4  Thk: 2.45  Ushki-5 bladelet, layer 5, 100 mm lens, ISO 200, IP",58.00000,162.00000
12278,Ushki,Ru_Ushki,Ushki-5_2005_130_L5_IP,Davis,Russia,Ru,Kamchatka,not yet scanned,"L: 48.37  W: 14.16  Thk: 2.89  Ushki-5 bladelet, layer 5, 100 mm lens, ISO 200, IP",58.00000,162.00000
12279,Ushki,Ru_Ushki,Ushki-5_2009_1529_L5_IP,Davis,Russia,Ru,Kamchatka,not yet scanned,"L: 49.92  W: 9.19  Thk: 3.09  Ushki-5 bladelet, layer 5, 50 mm lens, ISO 200, IP",58.00000,162.00000
12280,Ushki,Ru_Ushki,Ushki-5_2005_46_L5_IP,Davis,Russia,Ru,Kamchatka,not yet scanned,"L: 60.97  W: 13.12  Thk: 4  Ushki-5 bladelet, layer 5, 50 mm lens, ISO 200, IP",58.00000,162.00000
12281,Obihiro_Ochiai,,Ochiai_Paleolithic_Layer_Fig_14_#3,Davis,Japan,Hokkaido,Tokachi,Processed,"L: 185  W: 38.11  Thk: 9.37  Ochiai Paleolithic Layer biface, featured in Obihiro Ochiai Site (1992) Obihiro Board of Education, Hokkaido, Obihiro Archaeological Records No. 11         Imaged in May 2018",43.12900,142.66500
12282,Obihiro_Ochiai,,Ochiai_Paleolithic_Layer_11_222_Fig_18_#2,Davis,Japan,Hokkaido,Tokachi,Processed,"L: 80.97  W: 49  Thk: 8.56  Ochiai Paleolithic Layer biface fragment, featured in Obihiro Ochiai Site (1992) Obihiro Board of Education, Hokkaido, Obihiro Archaeological Records No. 11",43.12900,142.66500
12283,Obihiro_Ochiai,,Ochiai_Paleolithic_Layer_14_2_880_Fig_18_#4,Davis,Japan,Hokkaido,Tokachi,not yet scanned,"L: 100.73  W: 50.29  Thk: 16.35  Ochiai Paleolithic Layer uniface, featured in Obihiro Ochiai Site (1992) Obihiro Board of Education, Hokkaido, Obihiro Archaeological Records No. 11",43.12900,142.66500
12286,Obihiro_Ochiai,,Ochiai_Paleolithic_Layer_14_2_886_Fig_18_#8,Davis,Japan,Hokkaido,Tokachi,Processed,"L: 19.48  W: 14.16  Thk: 4.25  Ochiai Paleolithic Layer uniface, featured in Obihiro Ochiai Site (1992) Obihiro Board of Education, Hokkaido, Obihiro Archaeological Records No. 11",43.12900,142.66500
12289,Obihiro_Ochiai,,Ochiai_Paleolithic_Layer_14_2_374_Fig_14_#9,Davis,Japan,Hokkaido,Tokachi,Processed,"L: 76.1  W: 30.57  Thk: 9.58  Ochiai Paleolithic Layer blade, featured in Obihiro Ochiai Site (1992) Obihiro Board of Education, Hokkaido, Obihiro Archaeological Records No. 11",43.12900,142.66500
12291,Obihiro_Ochiai,,Ochiai_Paleolithic_Layer_14_2_648_Fig_15_#17,Davis,Japan,Hokkaido,Tokachi,Processed,"L: 75.29  W: 44.07  Thk: 9.03  Ochiai Paleolithic Layer biface fragment, featured in Obihiro Ochiai Site (1992) Obihiro Board of Education, Hokkaido, Obihiro Archaeological Records No. 11, refits with 14_2_480",43.12900,142.66500
12292,Obihiro_Ochiai,,Ochiai_Paleolithic_Layer_14_2_480_Fig_15_#18,Davis,Japan,Hokkaido,Tokachi,Processed,"L: 109.18  W: 46.77  Thk: 9.3  Ochiai Paleolithic Layer biface fragment, featured in Obihiro Ochiai Site (1992) Obihiro Board of Education, Hokkaido, Obihiro Archaeological Records No. 11, refits with 14_2_648",43.12900,142.66500
12293,Obihiro_Ochiai,,Ochiai_Paleolithic_Layer_14_2_382_Fig_15_#19,Davis,Japan,Hokkaido,Tokachi,Processed,"L: 42.93  W: 11.4  Thk: 6.24  Ochiai Paleolithic Layer biface fragment, featured in Obihiro Ochiai Site (1992) Obihiro Board of Education, Hokkaido, Obihiro Archaeological Records No. 11, refits with 14_2_480",43.12900,142.66500
12297,Obihiro_Ochiai,,Ochiai_Paleolithic_Layer_14_3-3_708_Fig_24_#69,Davis,Japan,Hokkaido,Tokachi,Processed,"L: 36.9  W: 11.5  Thk: 4.46  Ochiai Paleolithic Layer boat shaped tool, featured in Obihiro Ochiai Site #2 Obihiro Board of Education (1999) Obihiro Archaeological Report #17",43.12900,142.66500
12299,Obihiro_Minami_Machi,,Obihiro_Minami_Machi_1_Paleolithic_Layer_38.9-33.1,Davis,Japan,Hokkaido,Tokachi,Processed,"L: 31.89  W: 16.31  Thk: 5.31  Obihio Minami Machi 1 Paleolithic Layer graver, featured in Obihiro Minami Machi site, Obihiro Board of Education (1995), Obihiro Archaeological Report #14",42.92400,143.19700
12300,Obihiro_Minami_Machi,,Obihiro_Minami_Machi_1_Paleolithic_Layer_38.17-33.,Davis,Japan,Hokkaido,Tokachi,not yet scanned,"L: 24.89  W: 8.78  Thk: 4.77  Obihio Minami Machi 1 Paleolithic Layer boat shaped tool, featured in Obihiro Minami Machi site, Obihiro Board of Education (1995), Obihiro Archaeological Report #14",42.92400,143.19700
12301,Obihiro_Minami_Machi,,Obihiro_Minami_Machi_1_Paleolithic_Layer_38.9-33.1,Davis,Japan,Hokkaido,Tokachi,Processed,"L: 40.63  W: 17.22  Thk: 7.95  Obihio Minami Machi 1 Paleolithic Layer uniface, featured in Obihiro Minami Machi site, Obihiro Board of Education (1995), Obihiro Archaeological Report #14",42.92400,143.19700
12302,Obihiro_Ochiai,,Ochiai_Paleolithic_Layer_Fig_15_#10,Davis,Japan,Hokkaido,Tokachi,Processed,"L: 87.21  W: 25.91  Thk: 7.3  Ochiai Paleolithic Layer utilized blade, featured in Obihiro Ochiai Site (1992) Obihiro Board of Education, Hokkaido, Obihiro Archaeological Records No. 11",43.12900,142.66500
12303,Obihiro_Ozora,,Ozora_Site_Paleolithic_Layer_8.2.1889_Fig_13_#13,Davis,Japan,Hokkaido,Tokachi,Processed,"L: 57.18  W: 17.73  Thk: 7.61  Ozora Paleolithic Layer stemmed PPT, featured in Obihiro Ozora Site (1993) Obihiro Board of Education, Obihiro Archaeological Record 12",43.91400,144.17300
12304,Obihiro_Ozora,,Ozora_Site_Paleolithic_Layer_8.2.1773_Fig_13_#12,Davis,Japan,Hokkaido,Tokachi,Processed,"L: 42.85  W: 22.42  Thk: 5.34  Ozora Paleolithic Layer biface, featured in Obihiro Ozora Site (1993) Obihiro Board of Education, Obihiro Archaeological Record 12",43.91400,144.17300
12305,Obihiro_Minami_Machi,,Obihiro_Minami_Machi_1_Paleolithic_Layer_38.10-33.,Davis,Japan,Hokkaido,Tokachi,Processed,"L: 54.91  W: 15.54  Thk: 11.34  Obihio Minami Machi 1 Paleolithic Layer boat shaped tool, featured in Obihiro Minami Machi site, Obihiro Board of Education (1995), Obihiro Archaeological Report #14",42.92400,143.19700
12306,Obihiro_Ochiai,,Ochiai_Paleolithic_Layer_14.2.314_Fig_15_#11,Davis,Japan,Hokkaido,Tokachi,not yet scanned,"L: 88.98  W: 30.49  Thk: 8.45  Ochiai Paleolithic Layer utilized blade, featured in Obihiro Ochiai Site (1992) Obihiro Board of Education, Hokkaido, Obihiro Archaeological Records No. 11",43.12900,142.66500
12307,Obihiro_Minami_Machi,,Obihiro_Minami_Machi_1_Paleolithic_Layer_38.10-33.,Davis,Japan,Hokkaido,Tokachi,Processed,"L: 72.39  W: 44.56  Thk: 16.41  Obihio Minami Machi 1 Paleolithic Layer biface, featured in Obihiro Minami Machi site, Obihiro Board of Education (1995), Obihiro Archaeological Report #14",42.92400,143.19700
12308,Obihiro_Ozora,,Ozora_Site_Paleolithic_Layer_8.4.1832_Fig_20_#174,Davis,Japan,Hokkaido,Tokachi,Processed,"L: 83.48  W: 30.2  Thk: 16.53  Ozora Paleolithic Layer blade, featured in Obihiro Ozora Site (1993) Obihiro Board of Education, Obihiro Archaeological Record 12",43.91400,144.17300
12310,Obihiro_Ozora,,Ozora_Site_Paleolithic_Layer_39.9-32.79_Fig_25_#71,Davis,Japan,Hokkaido,Tokachi,not yet scanned,"L: 64.26  W: 15.01  Thk: 11.13  Ozora Paleolithic Layer boat shaped tool, featured in Obihiro Ozora Site (1993) Obihiro Board of Education, Obihiro Archaeological Record 12",43.91400,144.17300
12311,Obihiro_Minami_Machi,,Obihiro_Minami_Machi_1_Paleolithic_Layer_39.10.32.,Davis,Japan,Hokkaido,Tokachi,Processed,"Repaired:  L: 83.73  W: 18.5  Thk: 6.22  Obihio Minami Machi 1 Paleolithic Layer stemmed PPT, featured in Obihiro Minami Machi site, Obihiro Board of Education (1995), Obihiro Archaeological Report #14",42.92400,143.19700
12312,Obihiro_Minami_Machi,,Obihiro_Minami_Machi_1_Paleolithic_Layer_38.10-33.,Davis,Japan,Hokkaido,Tokachi,not yet scanned,"L: 40.91  W: 19.44  Thk: 12.65  Obihio Minami Machi 1 Paleolithic Layer uniface, featured in Obihiro Minami Machi site, Obihiro Board of Education (1995), Obihiro Archaeological Report #14",42.92400,143.19700
12313,Obihiro_Minami_Machi,,Obihiro_Minami_Machi_1_Paleolithic_Layer_38.9-32.4,Davis,Japan,Hokkaido,Tokachi,not yet scanned,"L: 68.9  W: 21.02  Thk: 18.94  Obihio Minami Machi 1 Paleolithic Layer boat shaped tool, featured in Obihiro Minami Machi site, Obihiro Board of Education (1995), Obihiro Archaeological Report #14",42.92400,143.19700
12314,Obihiro_Minami_Machi,,Obihiro_Minami_Machi_1_Paleolithic_Layer_38.9.32.5,Davis,Japan,Hokkaido,Tokachi,Failed,"L: 53.61  W: 19.34  Thk: 8.31  Obihio Minami Machi 1 Paleolithic Layer biface, featured in Obihiro Minami Machi site, Obihiro Board of Education (1995), Obihiro Archaeological Report #14  (new non-watertight)",42.92400,143.19700
12315,Obihiro_Minami_Machi,,Obihiro_Minami_Machi_1_Paleolithic_Layer_38.9-32.6,Davis,Japan,Hokkaido,Tokachi,not yet scanned,"L: 46.26  W: 25.51  Thk: 7.55  Obihio Minami Machi 1 Paleolithic Layer uniface, featured in Obihiro Minami Machi site, Obihiro Board of Education (1995), Obihiro Archaeological Report #14",42.92400,143.19700
12317,Obihiro_Minami_Machi,,Obihiro_Minami_Machi_1_Paleolithic_Layer_38.9-32.9,Davis,Japan,Hokkaido,Tokachi,not yet scanned,"L: 55.21  W: 18.16  Thk: 9.45  Obihio Minami Machi 1 Paleolithic Layer uniface, featured in Obihiro Minami Machi site, Obihiro Board of Education (1995), Obihiro Archaeological Report #14",42.92400,143.19700
12318,Obihiro_Minami_Machi,,Obihiro_Minami_Machi_1_Paleolithic_Layer_38.9-32.2,Davis,Japan,Hokkaido,Tokachi,not yet scanned,"L: 54.58  W: 21.65  Thk: 8.36  Obihio Minami Machi 1 Paleolithic Layer uniface, featured in Obihiro Minami Machi site, Obihiro Board of Education (1995), Obihiro Archaeological Report #14",42.92400,143.19700
12319,Obihiro_Minami_Machi,,Obihiro_Minami_Machi_1_Paleolithic_Layer_38.4-32.1,Davis,Japan,Hokkaido,Tokachi,Processed,"L: 43.88  W: 30.61  Thk: 6.44  Obihio Minami Machi 1 Paleolithic Layer biface fragment, featured in Obihiro Minami Machi site, Obihiro Board of Education (1995), Obihiro Archaeological Report #14   (inverted)",42.92400,143.19700
12320,Obihiro_Minami_Machi,,Obihiro_Minami_Machi_1_Paleolithic_Layer_38.9-32.6,Davis,Japan,Hokkaido,Tokachi,not yet scanned,"L: 54.04  W: 24.77  Thk: 8.77  Obihio Minami Machi 1 Paleolithic Layer uniface, featured in Obihiro Minami Machi site, Obihiro Board of Education (1995), Obihiro Archaeological Report #14",42.92400,143.19700
12321,Obihiro_Ozora,,Ozora_Site_Paleolithic_Layer_8.4.4_Fig_22_#224,Davis,Japan,Hokkaido,Tokachi,not yet scanned,"L: 51.08  W: 20.25  Thk: 9.95  Ozora Paleolithic Layer uniface, featured in Obihiro Ozora Site (1993) Obihiro Board of Education, Obihiro Archaeological Record 12",43.91400,144.17300
12322,Obihiro_Ozora,,Ozora_Site_Paleolithic_Layer_8.2.2375_Fig_13_#19,Davis,Japan,Hokkaido,Tokachi,not yet scanned,"L: 35.81  W: 33.18  Thk: 10.1  Ozora Paleolithic Layer biface fragment, featured in Obihiro Ozora Site (1993) Obihiro Board of Education, Obihiro Archaeological Record 12",43.91400,144.17300
12323,Obihiro_Ozora,,Ozora_Site_Paleolithic_Layer_8.4.89_Fig_21_#217,Davis,Japan,Hokkaido,Tokachi,not yet scanned,"L: 38.05  W: 24.58  Thk: 6.05  Ozora Paleolithic Layer blade, featured in Obihiro Ozora Site (1993) Obihiro Board of Education, Obihiro Archaeological Record 12",43.91400,144.17300
12324,Obihiro_Ozora,,Ozora_Site_Paleolithic_Layer_8.4.774_Fig_21_#218,Davis,Japan,Hokkaido,Tokachi,not yet scanned,"L: 34.64  W: 22.02  Thk: 7.48  Ozora Paleolithic Layer blade, featured in Obihiro Ozora Site (1993) Obihiro Board of Education, Obihiro Archaeological Record 12",43.91400,144.17300
12325,Obihiro_Ozora,,Ozora_Site_Paleolithic_Layer_8.4.978_Fig_21_#206,Davis,Japan,Hokkaido,Tokachi,not yet scanned,"L: 31.41  W: 30.22  Thk: 6.86  Ozora Paleolithic Layer uniface, featured in Obihiro Ozora Site (1993) Obihiro Board of Education, Obihiro Archaeological Record 12",43.91400,144.17300
12326,Obihiro_Ozora,,Ozora_Site_Paleolithic_Layer_8.2.762_Fig_13_#31,Davis,Japan,Hokkaido,Tokachi,not yet scanned,"L: 22.5  W: 12.02  Thk: 3.9  Ozora Paleolithic Layer burin, featured in Obihiro Ozora Site (1993) Obihiro Board of Education, Obihiro Archaeological Record 12",43.91400,144.17300
12330,Obihiro_Ozora,,Ozora_Site_Paleolithic_Layer_Fig_19_#4,Davis,Japan,Hokkaido,Tokachi,not yet scanned,"L: 32.03  W: 4.38  Thk: 1.9  Ozora Paleolithic microblade, featured in Obihiro Ozora Site (1993) Obihiro Board of Education, Obihiro Archaeological Record 12",43.91400,144.17300
12331,Obihiro_Ozora,,Ozora_Site_Paleolithic_Layer_Fig_19_#6,Davis,Japan,Hokkaido,Tokachi,not yet scanned,"L: 30.63  W: 4.57  Thk: 1.37  Ozora Paleolithic microblade, featured in Obihiro Ozora Site (1993) Obihiro Board of Education, Obihiro Archaeological Record 12",43.91400,144.17300
12332,Obihiro_Ozora,,Ozora_Site_Paleolithic_Layer_Fig_19_#56,Davis,Japan,Hokkaido,Tokachi,not yet scanned,"L: 21.45  W: 3.01  Thk: 0.95  Ozora Paleolithic microblade, featured in Obihiro Ozora Site (1993) Obihiro Board of Education, Obihiro Archaeological Record 12",43.91400,144.17300
12333,Obihiro_Ozora,,Ozora_Site_Paleolithic_Layer_Fig_19_#97,Davis,Japan,Hokkaido,Tokachi,not yet scanned,"L: 13.56  W: 3.24  Thk: 0.97  Ozora Paleolithic microblade, featured in Obihiro Ozora Site (1993) Obihiro Board of Education, Obihiro Archaeological Record 12",43.91400,144.17300
12334,Satsunai N,,Satsunai-N_Fig_49_#7,Davis,Japan,Hokkaido,Nakagawa,not yet scanned,,42.91270,143.25620
12335,Satsunai N,,Satsunai-N_Fig_53_#131_SP-4546/4544,Davis,Japan,Hokkaido,Nakagawa,not yet scanned,"L: 114.05  W: 52.43  Thk: 10.9  Satsunai-N biface, featured in Satsuni-N Site (2000) Makubetsu Town Board of Education",42.91270,143.25620
12336,Satsunai N,,Satsunai-N_Fig_49_#67A_SP-4.1002,Davis,Japan,Hokkaido,Nakagawa,not yet scanned,"L: 52.99  W: 50.55  Thk: 12.76  Satsunai-N biface, refits with Satsunai-N_Fig_49_#67B_SP-4.1002, featured in Satsuni-N Site (2000) Makubetsu Town Board of Education",42.91270,143.25620
12337,Satsunai N,,Satsunai-N_Fig_60_#272_SP-6.6,Davis,Japan,Hokkaido,Nakagawa,not yet scanned,"L: 35.61  W: 35.63  Thk: 7.14  Satsunai-N stemmed PPT, featured in Satsuni-N Site (2000) Makubetsu Town Board of Education",42.91270,143.25620
12338,Satsunai N,,Satsunai-N_Fig_49_#67B_SP-4.1002,Davis,Japan,Hokkaido,Nakagawa,not yet scanned,"L: 53.13  W: 49.55  Thk: 12.26  Satsunai-N biface, refits with Satsunai-N_Fig_49_#67A_SP-4.1002, featured in Satsuni-N Site (2000) Makubetsu Town Board of Education",42.91270,143.25620
12339,Satsunai N,,Satsunai-N_Fig_60_#271_SP-6.2017/7111,Davis,Japan,Hokkaido,Nakagawa,not yet scanned,"L: 93.95  W: 35.6  Thk: 8.88  Satsunai-N stemmed PPT, featured in Satsuni-N Site (2000) Makubetsu Town Board of Education",42.91270,143.25620
12340,Satsunai N,,Satsunai-N_Fig_60_#273_SP-6.1666,Davis,Japan,Hokkaido,Nakagawa,Processed,"L: 79.67  W: 21.34  Thk: 7.72  Satsunai-N stemmed PPT, featured in Satsuni-N Site (2000) Makubetsu Town Board of Education",42.91270,143.25620
12341,Satsunai N,,Satsunai-N_Fig_53_#147_SP-5.1983/548,Davis,Japan,Hokkaido,Nakagawa,not yet scanned,"L: 64.64  W: 23.16  Thk: 7.91  Satsunai-N stemmed PPT, featured in Satsuni-N Site (2000) Makubetsu Town Board of Education",42.91270,143.25620
12342,Satsunai N,,Satsunai-N_Fig_60_#270_SP-6.10,Davis,Japan,Hokkaido,Nakagawa,not yet scanned,"L: 69.3  W: 30.69  Thk: 7.85  Satsunai-N stemmed PPT, featured in Satsuni-N Site (2000) Makubetsu Town Board of Education",42.91270,143.25620
12343,Satsunai N,,Satsunai-N_Fig_53_#148_SP-5.3347/2809,Davis,Japan,Hokkaido,Nakagawa,not yet scanned,"L: 64.79  W: 27.04  Thk: 8.6  Satsunai-N stemmed PPT, featured in Satsuni-N Site (2000) Makubetsu Town Board of Education",42.91270,143.25620
12344,Satsunai N,,Satsunai-N_Fig_49_#66D_SP-10.83,Davis,Japan,Hokkaido,Nakagawa,not yet scanned,"L: 54.49  W: 45.65  Thk: 13.5  Satsunai-N biface fragment, featured in Satsuni-N Site (2000) Makubetsu Town Board of Education",42.91270,143.25620
12345,Satsunai N,,Satsunai-N_Fig_49_#57_SP-4.7399,Davis,Japan,Hokkaido,Nakagawa,not yet scanned,"L: 62.19  W: 16.55  Thk: 5.89  Satsunai-N stemmed PPT, featured in Satsuni-N Site (2000) Makubetsu Town Board of Education",42.91270,143.25620
12346,Satsunai N,,Satsunai-N_Fig_49_#66C,Davis,Japan,Hokkaido,Nakagawa,not yet scanned,"L: 37.97  W: 50.71  Thk: 11.34  Satsunai-N biface fragment, featured in Satsuni-N Site (2000) Makubetsu Town Board of Education",42.91270,143.25620
12347,Satsunai N,,Satsunai-N_Fig_49_#66A_SP-4.8341,Davis,Japan,Hokkaido,Nakagawa,not yet scanned,"L: 35.76  W: 29.37  Thk: 11  Satsunai-N biface fragment, featured in Satsuni-N Site (2000) Makubetsu Town Board of Education",42.91270,143.25620
12348,Satsunai N,,Satsunai-N_Fig_49_#66B_SP-7.3413/SP-4.134,Davis,Japan,Hokkaido,Nakagawa,not yet scanned,"L: 48.05  W: 42.38  Thk: 14.44  Satsunai-N biface fragment, featured in Satsuni-N Site (2000) Makubetsu Town Board of Education",42.91270,143.25620
12349,Satsunai N,,Satsunai-N_Fig_61_#302_SP-6.1001,Davis,Japan,Hokkaido,Nakagawa,not yet scanned,"L: 107.7  W: 58.43  Thk: 15.29  Satsunai-N uniface, featured in Satsuni-N Site (2000) Makubetsu Town Board of Education",42.91270,143.25620
12350,Satsunai N,,Satsunai-N_Fig_54_#165_SP-5.4517,Davis,Japan,Hokkaido,Nakagawa,not yet scanned,"L: 83.78  W: 24.72  Thk: 8.03  Satsunai-N blade, featured in Satsuni-N Site (2000) Makubetsu Town Board of Education",42.91270,143.25620
12351,Satsunai N,,Satsunai-N_Fig_52_#116_SP-4.4255,Davis,Japan,Hokkaido,Nakagawa,not yet scanned,"L: 35.37  W: 12.4  Thk: 5.34  Satsunai-N uniface on blade, featured in Satsuni-N Site (2000) Makubetsu Town Board of Education",42.91270,143.25620
12352,Satsunai N,,Satsunai-N_Fig_50_#82_SP-6.376,Davis,Japan,Hokkaido,Nakagawa,not yet scanned,"L: 91.74  W: 28.79  Thk: 10.31  Satsunai-N uniface on blade, featured in Satsuni-N Site (2000) Makubetsu Town Board of Education",42.91270,143.25620
12353,Satsunai N,,Satsunai-N_Fig_49_#56,Davis,Japan,Hokkaido,Nakagawa,not yet scanned,"L: 52.57  W: 18.14  Thk: 7.02  Satsunai-N stemmed PPT, featured in Satsuni-N Site (2000) Makubetsu Town Board of Education",42.91270,143.25620
12354,Satsunai N,,Satsunai-N_Fig_52_#125_SP-4.7994,Davis,Japan,Hokkaido,Nakagawa,not yet scanned,"L: 79.12  W: 43.84  Thk: 17.25  Satsunai-N adze, featured in Satsuni-N Site (2000) Makubetsu Town Board of Education---Satsunai-N adze",42.91270,143.25620
12355,Satsunai N,,Satsunai-N_Fig_52_#118_SP-4.380,Davis,Japan,Hokkaido,Nakagawa,not yet scanned,"L: 114.72  W: 35.46  Thk: 8.49  Satsunai-N uniface on blade, featured in Satsuni-N Site (2000) Makubetsu Town Board of Education",42.91270,143.25620
12356,Satsunai N,,Satsunai-N_Fig_54_#166A,Davis,Japan,Hokkaido,Nakagawa,not yet scanned,"L: 88.17  W: 29.7  Thk: 9.9  Satsunai-N uniface on blade, featured in Satsuni-N Site (2000) Makubetsu Town Board of Education",42.91270,143.25620
12357,Satsunai N,,Satsunai-N_Fig_54_#166B,Davis,Japan,Hokkaido,Nakagawa,not yet scanned,"L: 40.92  W: 27.43  Thk: 9.63  Satsunai-N uniface on blade, featured in Satsuni-N Site (2000) Makubetsu Town Board of Education",42.91270,143.25620
12358,Satsunai N,,Satsunai-N_Fig_54_#168_SP-5.3580,Davis,Japan,Hokkaido,Nakagawa,not yet scanned,"L: 103.66  W: 43.56  Thk: 13.8  Satsunai-N uniface on blade, featured in Satsuni-N Site (2000) Makubetsu Town Board of Education",42.91270,143.25620
12359,Satsunai N,,Satsunai-N_Fig_64_#344_SP-6.417,Davis,Japan,Hokkaido,Nakagawa,not yet scanned,"L: 68.78  W: 23.37  Thk: 5.76  Satsunai-N uniface on blade, featured in Satsuni-N Site (2000) Makubetsu Town Board of Education",42.91270,143.25620
12360,Satsunai N,,Satsunai-N_Fig_52_#115_SP-4.3409,Davis,Japan,Hokkaido,Nakagawa,not yet scanned,"L: 47.36  W: 29.48  Thk: 8.37  Satsunai-N graver, featured in Satsuni-N Site (2000) Makubetsu Town Board of Education",42.91270,143.25620
12361,Satsunai N,,Satsunai-N_Fig_51_#105_SP-4.1414/344/345,Davis,Japan,Hokkaido,Nakagawa,not yet scanned,"L: 85.49  W: 43.68  Thk: 11.17  Satsunai-N utilized blade, featured in Satsuni-N Site (2000) Makubetsu Town Board of Education",42.91270,143.25620
12362,Satsunai N,,Satsunai-N_Fig_51_#107_SP-4.5383,Davis,Japan,Hokkaido,Nakagawa,not yet scanned,"L: 72.4  W: 37.45  Thk: 10.64  Satsunai-N uniface on blade, featured in Satsuni-N Site (2000) Makubetsu Town Board of Education",42.91270,143.25620
12363,Satsunai N,,Satsunai-N_Fig_50_#93_SP-4.3408,Davis,Japan,Hokkaido,Nakagawa,not yet scanned,"L: 64.63  W: 33.15  Thk: 11.15  Satsunai-N uniface on blade, featured in Satsuni-N Site (2000) Makubetsu Town Board of Education",42.91270,143.25620
12364,Satsunai N,,Satsunai-N_Fig_51_#108,Davis,Japan,Hokkaido,Nakagawa,not yet scanned,"L: 59.59  W: 28.9  Thk: 8.56  Satsunai-N uniface on blade, featured in Satsuni-N Site (2000) Makubetsu Town Board of Education",42.91270,143.25620
12365,Satsunai N,,Satsunai-N_Fig_57_#220_SP-5.3777,Davis,Japan,Hokkaido,Nakagawa,not yet scanned,"L: 43.88  W: 38.46  Thk: 12.17  Satsunai-N uniface, featured in Satsuni-N Site (2000) Makubetsu Town Board of Education",42.91270,143.25620
12366,Satsunai N,,Satsunai-N_Fig_51_#102_SP-4.5290,Davis,Japan,Hokkaido,Nakagawa,not yet scanned,"L: 33.76  W: 31.39  Thk: 9.43  Satsunai-N uniface, featured in Satsuni-N Site (2000) Makubetsu Town Board of Education",42.91270,143.25620
12367,Satsunai N,,Satsunai-N_Fig_50_#83_SP-4.8342,Davis,Japan,Hokkaido,Nakagawa,not yet scanned,"L: 106.68  W: 28.04  Thk: 13.12  Satsunai-N uniface, featured in Satsuni-N Site (2000) Makubetsu Town Board of Education",42.91270,143.25620
12368,Satsunai N,,Satsunai-N_Fig_53_#128_SP-5.2956,Davis,Japan,Hokkaido,Nakagawa,not yet scanned,"L: 42.97  W: 18.79  Thk: 5.12  Satsunai-N stemmed PPT, featured in Satsuni-N Site (2000) Makubetsu Town Board of Education",42.91270,143.25620
12369,Satsunai N,,Satsunai-N_Fig_49_#55_SP-4.6644/1354,Davis,Japan,Hokkaido,Nakagawa,not yet scanned,"L: 39.63  W: 18.01  Thk: 3.14  Satsunai-N stemmed PPT, featured in Satsuni-N Site (2000) Makubetsu Town Board of Education",42.91270,143.25620
12370,Satsunai N,,Satsunai-N_Fig_60_#268,Davis,Japan,Hokkaido,Nakagawa,not yet scanned,"L: 33.51  W: 18.98  Thk: 7.34  Satsunai-N stemmed PPT, featured in Satsuni-N Site (2000) Makubetsu Town Board of Education",42.91270,143.25620
12371,Satsunai N,,Satsunai-N_Fig_60_#267_SP-6.7795,Davis,Japan,Hokkaido,Nakagawa,not yet scanned,"L: 34.81  W: 17.92  Thk: 3.68  Satsunai-N stemmed PPT, featured in Satsuni-N Site (2000) Makubetsu Town Board of Education",42.91270,143.25620
12372,Satsunai N,,Satsunai-N_Fig_49_#78_SP-4.383/3504,Davis,Japan,Hokkaido,Nakagawa,not yet scanned,"L: 78.09  W: 34.66  Thk: 8.87  Satsunai-N biface, featured in Satsuni-N Site (2000) Makubetsu Town Board of Education",42.91270,143.25620
12373,Satsunai N,,Satsunai-N_Fig_52_#114_SP-4.3397,Davis,Japan,Hokkaido,Nakagawa,not yet scanned,"L: 55.8  W: 26.43  Thk: 8.29  Satsunai-N burin, featured in Satsuni-N Site (2000) Makubetsu Town Board of Education",42.91270,143.25620
12374,Satsunai N,,Satsunai-N_Fig_51_#106_SP-4.991,Davis,Japan,Hokkaido,Nakagawa,not yet scanned,"L: 89.6  W: 60.12  Thk: 8.37  Satsunai-N uniface, featured in Satsuni-N Site (2000) Makubetsu Town Board of Education",42.91270,143.25620
12375,Satsunai N,,Satsunai-N_Fig_54_#169_SP-5.4543,Davis,Japan,Hokkaido,Nakagawa,not yet scanned,"L: 78.7  W: 37.83  Thk: 10.85  Satsunai-N biface, featured in Satsuni-N Site (2000) Makubetsu Town Board of Education",42.91270,143.25620
12376,Satsunai N,,Satsunai-N_Fig_63_#331_SP-6.7680,Davis,Japan,Hokkaido,Nakagawa,not yet scanned,"L: 34.47  W: 19.33  Thk: 6.22  Satsunai-N uniface, featured in Satsuni-N Site (2000) Makubetsu Town Board of Education",42.91270,143.25620
12377,Satsunai N,,Satsunai-N_Fig_58_#247_SP-5.6016,Davis,Japan,Hokkaido,Nakagawa,not yet scanned,"L: 71.53  W: 56.58  Thk: 20.53  Satsunai-N biface, featured in Satsuni-N Site (2000) Makubetsu Town Board of Education",42.91270,143.25620
12378,Satsunai N,,Satsunai-N_Fig_58_#242_SP-5.330,Davis,Japan,Hokkaido,Nakagawa,not yet scanned,"L: 52.66  W: 27.16  Thk: 11.15  Satsunai-N uniface, featured in Satsuni-N Site (2000) Makubetsu Town Board of Education, NOT MODELED (NM)",42.91270,143.25620
12379,Satsunai N,,Satsunai-N_Fig_58_#233_SP-5.1696,Davis,Japan,Hokkaido,Nakagawa,not yet scanned,"L: 42.24  W: 13.58  Thk: 7.56  Satsunai-N burin, featured in Satsuni-N Site (2000) Makubetsu Town Board of Education",42.91270,143.25620
12380,Satsunai N,,Satsunai-N_Fig_58_#241,Davis,Japan,Hokkaido,Nakagawa,not yet scanned,"L: 37.09  W: 17.76  Thk: 9.06  Satsunai-N uniface, featured in Satsuni-N Site (2000) Makubetsu Town Board of Education,---NM",42.91270,143.25620
12381,Satsunai N,,Satsunai-N_Fig_58_#234_SP-5.4302,Davis,Japan,Hokkaido,Nakagawa,not yet scanned,"L: 27.29  W: 14.08  Thk: 5.57  Satsunai-N uniface, featured in Satsuni-N Site (2000) Makubetsu Town Board of Education",42.91270,143.25620
12382,Satsunai N,,Satsunai-N_Fig_58_#24,Davis,Japan,Hokkaido,Nakagawa,not yet scanned,"L: 38.48  W: 20.67  Thk: 7.13  Satsunai-N uniface, featured in Satsuni-N Site (2000) Makubetsu Town Board of Education, NM",42.91270,143.25620
12383,Satsunai N,,Satsunai-N_Fig_61_#299_SP-6.868/7239/144/6422/6856,Davis,Japan,Hokkaido,Nakagawa,not yet scanned,"L: 100.12  W: 42.56  Thk: 7.84  Satsunai-N uniface on blade, featured in Satsuni-N Site (2000) Makubetsu Town Board of Education",42.91270,143.25620
12384,Satsunai N,,Satsunai-N_Fig_63_#335_SP-6.5712,Davis,Japan,Hokkaido,Nakagawa,not yet scanned,"L: 76.02  W: 23.32  Thk: 8.63  Satsunai-N blade, featured in Satsuni-N Site (2000) Makubetsu Town Board of Education",42.91270,143.25620
12385,Satsunai N,,Satsunai-N_Fig_60_#287,Davis,Japan,Hokkaido,Nakagawa,not yet scanned,"L: 73.86  W: 35.79  Thk: 8.04  Satsunai-N biface, featured in Satsuni-N Site (2000) Makubetsu Town Board of Education",42.91270,143.25620
12386,Satsunai N,,Satsunai-N_Fig_61_#304_SP-6.3419,Davis,Japan,Hokkaido,Nakagawa,not yet scanned,"L: 106.22  W: 34.38  Thk: 9.34  Satsunai-N blade, featured in Satsuni-N Site (2000) Makubetsu Town Board of Education",42.91270,143.25620
12387,Satsunai N,,Satsunai-N_Fig_65_#356_SP-8.157/273/178/70/152/279,Davis,Japan,Hokkaido,Nakagawa,not yet scanned,"L: 63.2  W: 79.78  Thk: 15.07  Satsunai-N centripidal piece, featured in Satsuni-N Site (2000) Makubetsu Town Board of Education",42.91270,143.25620
12388,Satsunai N,,Satsunai-N_Fig_61_#297,Davis,Japan,Hokkaido,Nakagawa,not yet scanned,"L: 112.92  W: 70.05  Thk: 8.65  Satsunai-N centripidal piece, featured in Satsuni-N Site (2000) Makubetsu Town Board of Education",42.91270,143.25620
12389,Tomadaichi,,Tomadaichi_#1_RT_#7,Davis,Japan,Hokkaido,Tokachi,not yet scanned,"L: 56.2  W: 30.1  Thk: 12.9  Tomadaichi blade, featured in Yamahara, Toshiro (1996) Artifacts from the Tomamudaichi Site, Rikubetsu Town. Hokkhaido Paleolithic Research 1:13-24 (in Japanese), metric data from nkzw2015@gmail.com ---Japanese) metric data fr",43.47000,143.75000
12390,Tomadaichi,,Tomadaichi_#2_RT_#21,Davis,Japan,Hokkaido,Tokachi,not yet scanned,"L: 35.5  W: 28.9  Thk: 12.1  Tomadaichi blade, featured in Yamahara, Toshiro (1996) Artifacts from the Tomamudaichi Site, Rikubetsu Town. Hokkhaido Paleolithic Research 1:13-24 (in Japanese),  metric data from nkzw2015@gmail.com",43.47000,143.75000
12391,Tomadaichi,,Tomadaichi_#3_RT_#20,Davis,Japan,Hokkaido,Tokachi,not yet scanned,"L: 61.4  W: 41  Thk: 8.9  Tomadaichi blade , featured in Yamahara, Toshiro (1996) Artifacts from the Tomamudaichi Site, Rikubetsu Town. Hokkhaido Paleolithic Research 1:13-24 (in Japanese)metric data from nkzw2015@gmail.com",43.47000,143.75000
12392,Tomadaichi,,Tomadaichi_#4_RT_#5,Davis,Japan,Hokkaido,Tokachi,not yet scanned,"L: 94.3  W: 40.7  Thk: 11.3  Tomadaichi blade , featured in Yamahara, Toshiro (1996) Artifacts from the Tomamudaichi Site, Rikubetsu Town. Hokkhaido Paleolithic Research 1:13-24 (in Japanese), metric data from nkzw2015@gmail.com",43.47000,143.75000
12393,Tomadaichi,,Tomadaichi_#5_RT_#4,Davis,Japan,Hokkaido,Tokachi,not yet scanned,"L: 107.9  W: 33.3  Thk: 13.6  Tomadaichi blade, featured in Yamahara, Toshiro (1996) Artifacts from the Tomamudaichi Site, Rikubetsu Town. Hokkhaido Paleolithic Research 1:13-24 (in Japanese),",43.47000,143.75000
12394,Tomadaichi,,Tomadaichi_#6_RT_#6,Davis,Japan,Hokkaido,Tokachi,not yet scanned,"L: 77.3  W: 65.7  Thk: 13.7  Tomadaichi blade, featured in Yamahara, Toshiro (1996) Artifacts from the Tomamudaichi Site, Rikubetsu Town. Hokkhaido Paleolithic Research 1:13-24 (in Japanese)",43.47000,143.75000
12395,Tomadaichi,,Tomadaichi_#7_RT_#8,Davis,Japan,Hokkaido,Tokachi,not yet scanned,"L: 120.5  W: 50.1  Thk: 16.1  Tomadaichi blade, featured in Yamahara, Toshiro (1996) Artifacts from the Tomamudaichi Site, Rikubetsu Town. Hokkhaido Paleolithic Research 1:13-24 (in Japanese), metric data from nkzw2015@gmail.com",43.47000,143.75000
12396,Tomadaichi,,Tomadaichi_#8_RT_#16,Davis,Japan,Hokkaido,Tokachi,not yet scanned,"L: 170  W: 45.5  Thk: 17.5  Tomadaichi blade, featured in Yamahara, Toshiro (1996) Artifacts from the Tomamudaichi Site, Rikubetsu Town. Hokkhaido Paleolithic Research 1:13-24 (in Japanese), metric data from nkzw2015@gmail.com",43.47000,143.75000
12397,Tomadaichi,,Tomadaichi_#9_RT_#13,Davis,Japan,Hokkaido,Tokachi,not yet scanned,"L: 131.4  W: 88.9  Thk: 116.81  Tomadaichi biface, featured in Yamahara, Toshiro (1996) Artifacts from the Tomamudaichi Site, Rikubetsu Town. Hokkhaido Paleolithic Research 1:13-24 (in Japanese), metric data from nkzw2015@gmail.com",43.47000,143.75000
12398,Tomadaichi,,Tomadaichi_#10_RT_#19,Davis,Japan,Hokkaido,Tokachi,not yet scanned,"L: 97.4  W: 59.5  Thk: 20  Tomadaichi biface, featured in Yamahara, Toshiro (1996) Artifacts from the Tomamudaichi Site, Rikubetsu Town. Hokkhaido Paleolithic Research 1:13-24 (in Japanese), metric data from nkzw2015@gmail.com",43.47000,143.75000
12399,Tomadaichi,,Tomadaichi_#11_RT_#18,Davis,Japan,Hokkaido,Tokachi,not yet scanned,"L: 104.9  W: 82  Thk: 26.5  Tomadaichi biface, featured in Yamahara, Toshiro (1996) Artifacts from the Tomamudaichi Site, Rikubetsu Town. Hokkhaido Paleolithic Research 1:13-24 (in Japanese), metric data from nkzw2015@gmail.com",43.47000,143.75000
12400,Tomadaichi,,Tomadaichi_#12_RT_#10,Davis,Japan,Hokkaido,Tokachi,not yet scanned,"L: 154  W: 44.4  Thk: 11.2  Tomadaichi  biface, featured in Yamahara, Toshiro (1996) Artifacts from the Tomamudaichi Site, Rikubetsu Town. Hokkhaido Paleolithic Research 1:13-24 (in Japanese), metric data from nkzw2015@gmail.com",43.47000,143.75000
12401,Tomadaichi,,Tomadaichi_#13_RT_#17,Davis,Japan,Hokkaido,Tokachi,not yet scanned,"L: 111  W: 39.2  Thk: 9.3  Tomadaichi  biface, featured in Yamahara, Toshiro (1996) Artifacts from the Tomamudaichi Site, Rikubetsu Town. Hokkhaido Paleolithic Research 1:13-24 (in Japanese), metric data from nkzw2015@gmail.com",43.47000,143.75000
12402,Tomadaichi,,Tomadaichi_#14_RT_#9,Davis,Japan,Hokkaido,Tokachi,not yet scanned,"L: 98.9  W: 46.5  Thk: 10.5  Tomadaichi  biface, featured in Yamahara, Toshiro (1996) Artifacts from the Tomamudaichi Site, Rikubetsu Town. Hokkhaido Paleolithic Research 1:13-24 (in Japanese), metric data from nkzw2015@gmail.com",43.47000,143.75000
12403,Tomadaichi,,Tomadaichi_#15_RT_#14,Davis,Japan,Hokkaido,Tokachi,not yet scanned,"L: 144.1  W: 84.2  Thk: 26.4  Tomadaichi  biface, featured in Yamahara, Toshiro (1996) Artifacts from the Tomamudaichi Site, Rikubetsu Town. Hokkhaido Paleolithic Research 1:13-24 (in Japanese), metric data from nkzw2015@gmail.com",43.47000,143.75000
12404,Tomadaichi,,Tomadaichi_#16_RT_#15,Davis,Japan,Hokkaido,Tokachi,not yet scanned,"L: 134.7  W: 101.1  Thk: 27.5  Tomadaichi  biface, featured in Yamahara, Toshiro (1996) Artifacts from the Tomamudaichi Site, Rikubetsu Town. Hokkhaido Paleolithic Research 1:13-24 (in Japanese), metric data from nkzw2015@gmail.com",43.47000,143.75000
12405,Tomadaichi,,Tomadaichi_#17_RT_#3,Davis,Japan,Hokkaido,Tokachi,not yet scanned,"L: 143.6  W: 118.7  Thk: 27.8  Tomadaichi  biface, featured in Yamahara, Toshiro (1996) Artifacts from the Tomamudaichi Site, Rikubetsu Town. Hokkhaido Paleolithic Research 1:13-24 (in Japanese), metric data from nkzw2015@gmail.com",43.47000,143.75000
12406,Tomadaichi,,Tomadaichi_#18_RT_#2,Davis,Japan,Hokkaido,Tokachi,not yet scanned,"L: 276  W: 91.9  Thk: 22  Tomadaichi  biface, featured in Yamahara, Toshiro (1996) Artifacts from the Tomamudaichi Site, Rikubetsu Town. Hokkhaido Paleolithic Research 1:13-24 (in Japanese), metric data from nkzw2015@gmail.com",43.47000,143.75000
12407,Tomadaichi,,Tomadaichi_#19_RT_#12,Davis,Japan,Hokkaido,Tokachi,not yet scanned,"L: 249  W: 130.1  Thk: 30.5  Tomadaichi  biface, featured in Yamahara, Toshiro (1996) Artifacts from the Tomamudaichi Site, Rikubetsu Town. Hokkhaido Paleolithic Research 1:13-24 (in Japanese), metric data from nkzw2015@gmail.com",43.47000,143.75000
12408,Tomadaichi,,Tomadaichi_#20_RT_#1,Davis,Japan,Hokkaido,Tokachi,not yet scanned,"L: 342  W: 157  Thk: 32.3  Tomadaichi  biface, featured in Yamahara, Toshiro (1996) Artifacts from the Tomamudaichi Site, Rikubetsu Town. Hokkhaido Paleolithic Research 1:13-24 (in Japanese), metric data from nkzw2015@gmail.com",43.47000,143.75000
12409,Tomadaichi,,Tomadaichi_#21a_RT_#2,Davis,Japan,Hokkaido,Tokachi,not yet scanned,"L: 94.5  W: 78  Thk: 18.5  Tomadaichi  biface, featured in Yamahara, Toshiro (1996) Artifacts from the Tomamudaichi Site, Rikubetsu Town. Hokkhaido Paleolithic Research 1:13-24 (in Japanese), metric data from nkzw2015@gmail.com",43.47000,143.75000
12410,Tomadaichi,,Tomadaichi_#21b_RT_#2,Davis,Japan,Hokkaido,Tokachi,not yet scanned,"L: 219  W: 125  Thk: 25  Tomadaichi  biface, featured in Yamahara, Toshiro (1996) Artifacts from the Tomamudaichi Site, Rikubetsu Town. Hokkhaido Paleolithic Research 1:13-24 (in Japanese), metric data from nkzw2015@gmail.com",43.47000,143.75000
12411,Kitabara,,Kitabara_Fig_221_#9,Davis,Japan,Kanagawa,,not yet scanned,"L: 6.7  W: 2.3  Thk: 0.96  Kitibara biface, on tuff, featured in Kanagawa Archaeological Foundation (1998) Miyagase Site Group 15: Kitabara Site Locations #10 & 11. Kanagawa Prefecture, Tokyo, Japan.",35.00300,134.18000
12412,Kitabara,,Kitabara_Fig_221_#10,Davis,Japan,Kanagawa,,not yet scanned,"L: 8.3  W: 2.6  Thk: 0.73  Kitibara biface,  on tuff,featured in Kanagawa Archaeological Foundation (1998) Miyagase Site Group 15: Kitabara Site Locations #10 & 11. Kanagawa Prefecture, Tokyo, Japan.",35.00300,134.18000
12413,Kitabara,,Kitabara_Fig_221_#11,Davis,Japan,Kanagawa,,not yet scanned,"L: 6.1  W: 1.9  Thk: 0.74  Kitibara biface, on tuff, featured in Kanagawa Archaeological Foundation (1998) Miyagase Site Group 15: Kitabara Site Locations #10 & 11. Kanagawa Prefecture, Tokyo, Japan.",35.00300,134.18000
12414,Kitabara,,Kitabara_Fig_221_#12,Davis,Japan,Kanagawa,,not yet scanned,"L: 3.5  W: 1.3  Thk: 0.63  Kitibara biface, on tuff, featured in Kanagawa Archaeological Foundation (1998) Miyagase Site Group 15: Kitabara Site Locations #10 & 11. Kanagawa Prefecture, Tokyo, Japan.",35.00300,134.18000
12415,Kitabara,,Kitabara_Fig_221_#13,Davis,Japan,Kanagawa,,not yet scanned,"L: 3.1  W: 1.8  Thk: 0.6  Kitibara biface, on tuff, featured in Kanagawa Archaeological Foundation (1998) Miyagase Site Group 15: Kitabara Site Locations #10 & 11. Kanagawa Prefecture, Tokyo, Japan.",35.00300,134.18000
12416,Kitabara,,Kitabara_Fig_221_#14,Davis,Japan,Kanagawa,,not yet scanned,"L: 5.7  W: 2.2  Thk: 0.57  Kitibara biface, on tuff, featured in Kanagawa Archaeological Foundation (1998) Miyagase Site Group 15: Kitabara Site Locations #10 & 11. Kanagawa Prefecture, Tokyo, Japan.",35.00300,134.18000
12417,Kitabara,,Kitabara_Fig_221_#15,Davis,Japan,Kanagawa,,not yet scanned,"L: 3.8  W: 1.5  Thk: 0.64  Kitibara biface, featured in Kanagawa Archaeological Foundation (1998) Miyagase Site Group 15: Kitabara Site Locations #10 & 11. Kanagawa Prefecture, Tokyo, Japan.",35.00300,134.18000
12418,Kitabara,,Kitabara_Fig_221_#16,Davis,Japan,Kanagawa,,not yet scanned,"L: 4.4  W: 1.9  Thk: 0.76  Kitibara biface, featured in Kanagawa Archaeological Foundation (1998) Miyagase Site Group 15: Kitabara Site Locations #10 & 11. Kanagawa Prefecture, Tokyo, Japan.",35.00300,134.18000
12419,Kitabara,,Kitabara_Fig_222_#17,Davis,Japan,Kanagawa,,not yet scanned,"L: 9.5  W: 4.1  Thk: 2.11  Kitibara biface, featured in Kanagawa Archaeological Foundation (1998) Miyagase Site Group 15: Kitabara Site Locations #10 & 11. Kanagawa Prefecture, Tokyo, Japan.",35.00300,134.18000
12420,Kitabara,,Kitabara_Fig_222_#18,Davis,Japan,Kanagawa,,not yet scanned,"L: 4.1  W: 1.8  Thk: 0.85  Kitibara biface, featured in Kanagawa Archaeological Foundation (1998) Miyagase Site Group 15: Kitabara Site Locations #10 & 11. Kanagawa Prefecture, Tokyo, Japan.",35.00300,134.18000
12421,Kitabara,,Kitabara_Fig_222_#19,Davis,Japan,Kanagawa,,not yet scanned,"L: 4  W: 2.1  Thk: 1.27  Kitibara biface, featured in Kanagawa Archaeological Foundation (1998) Miyagase Site Group 15: Kitabara Site Locations #10 & 11. Kanagawa Prefecture, Tokyo, Japan.",35.00300,134.18000
12422,Kitabara,,Kitabara_Fig_222_#20,Davis,Japan,Kanagawa,,not yet scanned,"L: 6.7  W: 2.6  Thk: 1.23  Kitibara biface, featured in Kanagawa Archaeological Foundation (1998) Miyagase Site Group 15: Kitabara Site Locations #10 & 11. Kanagawa Prefecture, Tokyo, Japan.",35.00300,134.18000
12423,Kitabara,,Kitabara_Fig_222_#22,Davis,Japan,Kanagawa,,not yet scanned,"L: 4.8  W: 2.7  Thk: 0.58  Kitibara biface, featured in Kanagawa Archaeological Foundation (1998) Miyagase Site Group 15: Kitabara Site Locations #10 & 11. Kanagawa Prefecture, Tokyo, Japan.",35.00300,134.18000
12424,Kitabara,,Kitabara_Fig_224_#32,Davis,Japan,Kanagawa,,not yet scanned,"L: 6  W: 3.5  Thk: 2.47  Kitibara biface, featured in Kanagawa Archaeological Foundation (1998) Miyagase Site Group 15: Kitabara Site Locations #10 & 11. Kanagawa Prefecture, Tokyo, Japan.",35.00300,134.18000
12425,Kitabara,,Kitabara_Fig_224_#33,Davis,Japan,Kanagawa,,not yet scanned,"L: 3.7  W: 2.3  Thk: 1.2  Kitibara biface, featured in Kanagawa Archaeological Foundation (1998) Miyagase Site Group 15: Kitabara Site Locations #10 & 11. Kanagawa Prefecture, Tokyo, Japan.",35.00300,134.18000
12426,Kitabara,,Kitabara_Fig_225_#43,Davis,Japan,Kanagawa,,not yet scanned,"L: 5.8  W: 3.4  Thk: 1.81  Kitibara biface, featured in Kanagawa Archaeological Foundation (1998) Miyagase Site Group 15: Kitabara Site Locations #10 & 11. Kanagawa Prefecture, Tokyo, Japan.",35.00300,134.18000
12427,Kitabara,,Kitabara_Fig_224_#35,Davis,Japan,Kanagawa,,not yet scanned,"L: 2.9  W: 1.9  Thk: 1.68  Kitibara biface, featured in Kanagawa Archaeological Foundation (1998) Miyagase Site Group 15: Kitabara Site Locations #10 & 11. Kanagawa Prefecture, Tokyo, Japan.",35.00300,134.18000
12428,Kitabara,,Kitabara_Fig_224_#36,Davis,Japan,Kanagawa,,not yet scanned,"L: 2.5  W: 1.7  Thk: 0.69  Kitibara biface, featured in Kanagawa Archaeological Foundation (1998) Miyagase Site Group 15: Kitabara Site Locations #10 & 11. Kanagawa Prefecture, Tokyo, Japan.",35.00300,134.18000
12429,Kitabara,,Kitabara_Fig_224_#37,Davis,Japan,Kanagawa,,not yet scanned,"L: 3.1  W: 2.2  Thk: 1.26  Kitibara biface, featured in Kanagawa Archaeological Foundation (1998) Miyagase Site Group 15: Kitabara Site Locations #10 & 11. Kanagawa Prefecture, Tokyo, Japan.",35.00300,134.18000
12430,Kitabara,,Kitabara_Fig_224_#38,Davis,Japan,Kanagawa,,not yet scanned,"L: 2.3  W: 1.5  Thk: 0.67  Kitibara biface, featured in Kanagawa Archaeological Foundation (1998) Miyagase Site Group 15: Kitabara Site Locations #10 & 11. Kanagawa Prefecture, Tokyo, Japan.",35.00300,134.18000
12431,Kitabara,,Kitabara_Fig_225_#39,Davis,Japan,Kanagawa,,not yet scanned,"L: 2.3  W: 1.7  Thk: 0.25  Kitibara biface, featured in Kanagawa Archaeological Foundation (1998) Miyagase Site Group 15: Kitabara Site Locations #10 & 11. Kanagawa Prefecture, Tokyo, Japan.",35.00300,134.18000
12432,Kitabara,,Kitabara_Fig_225_#40,Davis,Japan,Kanagawa,,not yet scanned,"L: 3.7  W: 4.9  Thk: 1.36  Kitibara biface, featured in Kanagawa Archaeological Foundation (1998) Miyagase Site Group 15: Kitabara Site Locations #10 & 11. Kanagawa Prefecture, Tokyo, Japan.",35.00300,134.18000
12433,Kitabara,,Kitabara_Fig_225_#41,Davis,Japan,Kanagawa,,not yet scanned,"L: 5  W: 7.2  Thk: 1.2  Kitibara biface, featured in Kanagawa Archaeological Foundation (1998) Miyagase Site Group 15: Kitabara Site Locations #10 & 11. Kanagawa Prefecture, Tokyo, Japan.",35.00300,134.18000
12434,Kitabara,,Kitabara_Fig_225_#42,Davis,Japan,Kanagawa,,not yet scanned,"L: 3  W: 2  Thk: 0.97  Kitibara biface, featured in Kanagawa Archaeological Foundation (1998) Miyagase Site Group 15: Kitabara Site Locations #10 & 11. Kanagawa Prefecture, Tokyo, Japan.",35.00300,134.18000
12435,Kitabara,,Kitabara_Fig_220_#7,Davis,Japan,Kanagawa,,not yet scanned,"L: 5.8  W: 3.4  Thk: 1.81  Kitibara biface, featured in Kanagawa Archaeological Foundation (1998) Miyagase Site Group 15: Kitabara Site Locations #10 & 11. Kanagawa Prefecture, Tokyo, Japan.",35.00300,134.18000
12436,Kitabara,,Kitabara_Fig_220_#1,Davis,Japan,Kanagawa,,not yet scanned,"L: 8.7  W: 1.8  Thk: 0.73  Kitibara biface, featured in Kanagawa Archaeological Foundation (1998) Miyagase Site Group 15: Kitabara Site Locations #10 & 11. Kanagawa Prefecture, Tokyo, Japan.",35.00300,134.18000
12437,Kitabara,,Kitabara_Fig_220_#2,Davis,Japan,Kanagawa,,not yet scanned,"L: 4  W: 1.6  Thk: 0.68  Kitibara biface, featured in Kanagawa Archaeological Foundation (1998) Miyagase Site Group 15: Kitabara Site Locations #10 & 11. Kanagawa Prefecture, Tokyo, Japan.",35.00300,134.18000
12438,Kitabara,,Kitabara_Fig_220_#3,Davis,Japan,Kanagawa,,not yet scanned,"L: 3.9  W: 1.6  Thk: 0.6  Kitibara biface, featured in Kanagawa Archaeological Foundation (1998) Miyagase Site Group 15: Kitabara Site Locations #10 & 11. Kanagawa Prefecture, Tokyo, Japan.",35.00300,134.18000
12439,Kitabara,,Kitabara_Fig_220_#4,Davis,Japan,Kanagawa,,not yet scanned,"L: 5.2  W: 1.7  Thk: 0.82  Kitibara biface, featured in Kanagawa Archaeological Foundation (1998) Miyagase Site Group 15: Kitabara Site Locations #10 & 11. Kanagawa Prefecture, Tokyo, Japan.",35.00300,134.18000
12440,Kitabara,,Kitabara_Fig_220_#5,Davis,Japan,Kanagawa,,not yet scanned,"L: 6.8  W: 1.8  Thk: 0.96  Kitibara biface, featured in Kanagawa Archaeological Foundation (1998) Miyagase Site Group 15: Kitabara Site Locations #10 & 11. Kanagawa Prefecture, Tokyo, Japan.",35.00300,134.18000
12441,Kitabara,,Kitabara_Fig_220_#6a,Davis,Japan,Kanagawa,,not yet scanned,"L: 2.8  W: 1.3  Thk: 0.55  Kitibara biface, featured in Kanagawa Archaeological Foundation (1998) Miyagase Site Group 15: Kitabara Site Locations #10 & 11. Kanagawa Prefecture, Tokyo, Japan.",35.00300,134.18000
12442,Kitabara,,Kitabara_Fig_220_#6b,Davis,Japan,Kanagawa,,not yet scanned,"L: 4.5  W: 1.8  Thk: 0.56  Kitibara biface, featured in Kanagawa Archaeological Foundation (1998) Miyagase Site Group 15: Kitabara Site Locations #10 & 11. Kanagawa Prefecture, Tokyo, Japan.",35.00300,134.18000
12443,Kitabara,,Kitabara_Fig_220_#8,Davis,Japan,Kanagawa,,not yet scanned,"L: 5.2  W: 1.4  Thk: 0.69  Kitibara biface, featured in Kanagawa Archaeological Foundation (1998) Miyagase Site Group 15: Kitabara Site Locations #10 & 11. Kanagawa Prefecture, Tokyo, Japan.",35.00300,134.18000
12444,Cedros temp,,PAIC-44_Locus_A_clamshell_uniface,,Mexico,Baja CA,Cedros Island,not yet scanned,L: 59.07  W: 35.6  Thk: 9.6  PAIC-44 Pismo clamshell uniface--DAVID SYSTEM scanned  August 2018,28.03300,-115.22500
12445,Cedros temp,,PAIC-44_pozo_002_capa_A_18cmbd,,Mexico,Baja CA,Cedros Island,not yet scanned,L: 33.26  W: 19.94  Thk: 9.49  PAIC-44 Pozo 002 Capa A 18 cmbd biface tip,28.03300,-115.22500
12451,Cedros temp,,PAIC-44_unit_3_layer_A3_plot_15,,Mexico,Baja CA,Cedros Island,not yet scanned,L: 69.59  W: 44.87  Thk: 45.78  PAIC-44 unit 3 layer A3 plot 15-NOT SCANNED,28.03300,-115.22500
12453,Cedros temp,,PAIC-44_Locus_A_clamshell_uniface,,Mexico,Baja CA,Cedros Island,not yet scanned,L: 52.26  W: 38.38  Thk: 9.21  PAIC-44_Locus_A_clamshell_uniface--DAVID SYSTEM,28.03300,-115.22500
12454,Cedros temp,,PAIC-44_unit_3_Level_B1_plot_12,,Mexico,Baja CA,Cedros Island,not yet scanned,L: 46.57  W: 61.03  Thk: 18.07  PAIC-44 unit 3 level B1 plot 12 biface fragment,28.03300,-115.22500
12455,Cedros temp,,PAIC-44_unit_3_level_B3_plot_12,,Mexico,Baja CA,Cedros Island,not yet scanned,L: 14.35  W: 29.19  Thk: 6.4  PAIC-44 unit 3 level B3 plot 12 finished biface fragment,28.03300,-115.22500
12456,Cedros temp,,PAIC-44_unit_3_surface,,Mexico,Baja CA,Cedros Island,not yet scanned,L: 57.52  W: 36.07  Thk: 14.68  PAIC-44_unit_3_surface uniface fragment,28.03300,-115.22500
12457,Cedros temp,,PAIC-44_unit_3_layer_3_clamshell_uniface,,Mexico,Baja CA,Cedros Island,not yet scanned,L: 49.64  W: 38.12  Thk: 11.94  PAIC-44_unit_3_layer_3 Pismo clamshell uniface fragment--DAVID SYSTEM,28.03300,-115.22500
12458,Cedros temp,,PAIC-44_unit_3_level_B1_clamshell_uniface,,Mexico,Baja CA,Cedros Island,not yet scanned,L: 26.9  W: 29.86  Thk: 7.08  PAIC-44_unit_3_level_B1_clamshell_uniface fragment,28.03300,-115.22500
12460,Cedros temp,,PAIC-44_unit_3_layer_A2_biface_fragment,,Mexico,Baja CA,Cedros Island,not yet scanned,L: 55.19  W: 46.98  Thk: 13.91  PAIC-44_unit_3_layer_A2_biface_fragment,28.03300,-115.22500
12461,Cedros temp,,PAIC-44_unit_3_layer_A2_plot_6,,Mexico,Baja CA,Cedros Island,not yet scanned,L: 64.78  W: 39.96  Thk: 30.6  PAIC-44_unit_3_layer_A2_plot_6-NOT SCANNED,28.03300,-115.22500
12463,Cedros temp,,PAIC-44_unit_3_layer_A2_plot_7,,Mexico,Baja CA,Cedros Island,not yet scanned,L: 53.12  W: 49.2  Thk: 21.8  PAIC-44_unit_3_layer_A2_plot_7 STEURT,28.03300,-115.22500
12464,Cedros temp,,PAIC-44_Hilltop_Locus_surface_collection,,Mexico,Baja CA,Cedros Island,not yet scanned,L: 27.35  W: 34.41  Thk: 8.08  PAIC-44_Hilltop_Locus_surface_collection biface fragment with striking platform,28.03300,-115.22500
12465,Cedros temp,,PAIC-44_Hilltop_Locus_surface_collection,,Mexico,Baja CA,Cedros Island,not yet scanned,L: 70.76  W: 46.31  Thk: 21.6  PAIC-44_Hilltop_Locus_surface_collection STEURT,28.03300,-115.22500
12466,Cedros temp,,PAIC-36_Art#-147,,Mexico,Baja CA,Cedros Island,not yet scanned,L: 28.48  W: 20.06  Thk: 5.04  PAIC-36 Artifact 147 surface collection stemmed projectile point,28.03300,-115.22500
12467,Cedros temp,,PAIC-20_Art#-72,,Mexico,Baja CA,Cedros Island,not yet scanned,L: 38.49  W: 8.29  Thk: 2.6  PAIC-20 Art#-72 serrated projectile point tip surface collection--DAVID SYSTEM,28.03300,-115.22500
12468,Cedros temp,,PAIC-44_unit_4_perfil_sur_lasca_con_retoques,,Mexico,Baja CA,Cedros Island,not yet scanned,L: 68.8  W: 47.38  Thk: 15.99  PAIC-44_unit_4_perfil_sur_lasca_con_retoques,28.03300,-115.22500
12469,Cedros temp,,PAIC-49_unit_3_layer_A2,,Mexico,Baja CA,Cedros Island,not yet scanned,L: 90.05  W: 41.26  Thk: 41.95  PAIC-49_unit_3_layer_A2_33cmbd mano/hammerstone,28.03300,-115.22500
12470,Cedros temp,,PAIC-44_Locus_C_Pozo_001_Capa_C,,Mexico,Baja CA,Cedros Island,not yet scanned,L: 39.34  W: 41.13  Thk: 17.2  PAIC-44_Locus_C_Pozo_001_Capa_C biface fragment-NOT SCANNED?,28.03300,-115.22500
12471,Cedros temp,,PAIC-44_Locus_C_Pozo_001_Capa_C,,Mexico,Baja CA,Cedros Island,not yet scanned,L: 60.51  W: 33.6  Thk: 22.29  PAIC-44_Locus_C_Pozo_001_Capa_C steurt,28.03300,-115.22500
12472,Cedros temp,,PAIC-44_Locus_C_Pozo_001_Capa_C,,Mexico,Baja CA,Cedros Island,not yet scanned,L: 56.19  W: 72.6  Thk: 32.38  PAIC-44_Locus_C_Pozo_001_Capa_C cobble biface,28.03300,-115.22500
12475,Cedros temp,,PAIC-44_Unit_4_wall_collapse,,Mexico,Baja CA,Cedros Island,not yet scanned,L: 38.17  W: 45.23  Thk: 10.79  PAIC-44_Unit_4_wall_collapse pismo clam steurt--DAVID SYSTEM,28.03300,-115.22500
12476,Cedros temp,,PAIC-49_Pozo_1_Capa_A,,Mexico,Baja CA,Cedros Island,not yet scanned,L: 27.99  W: 24.17  Thk: 7.34  PAIC-49_Pozo_1_Capa_A stemmed point base with haft saddle and collar,28.03300,-115.22500
12477,Cedros temp,,PAIC-49_Pozo_3_Capa_A2,,Mexico,Baja CA,Cedros Island,not yet scanned,L: 91.34  W: 44.18  Thk: 42.2  PAIC-49_Pozo_3_Capa_A2 hammerstone 33 cm bd,28.03300,-115.22500
12478,Cedros temp,,PAIC-44_Unit_A4_Level_A1,,Mexico,Baja CA,Cedros Island,not yet scanned,L: 38.54  W: 54.72  Thk: 20.69  PAIC-44_Unit_A4_Level_A1 biface fragment,28.03300,-115.22500
12480,Cedros temp,,PAIC-44_Unit_4_Layer_A2,,Mexico,Baja CA,Cedros Island,not yet scanned,L: 29.75  W: 19.9  Thk: 4.41  PAIC-44_Unit_4_Layer_A2 PPT blade tip fragment,28.03300,-115.22500
12481,Cedros temp,,PAIC-44_Unit_5_Layer_A3,,Mexico,Baja CA,Cedros Island,not yet scanned,L: 70.85  W: 43  Thk: 10.96  PAIC-44_Unit_5_Layer_A3 pismo clam uniface,28.03300,-115.22500
12482,Cedros temp,,PAIC-44_Unit_5_Layer_A3,,Mexico,Baja CA,Cedros Island,not yet scanned,L: 54.94  W: 41.46  Thk: 9.16  PAIC-44_Unit_5_Layer_A3 pismo clam uniface,28.03300,-115.22500
12483,Cedros temp,,PAIC-44_locus_C_surface,,Mexico,Baja CA,Cedros Island,not yet scanned,L: 162.8  W: 59.17  Thk: 22.57  PAIC-44_locus_C_surface cat # 487-1201 biface,28.03300,-115.22500
12484,Cedros temp,,PAIC-44_locus_C_surface,,Mexico,Baja CA,Cedros Island,not yet scanned,L: 89.13  W: 40.12  Thk: 12.36  PAIC-44_locus_C_surface cat # 487-1203 biface-NOT SCANNED,28.03300,-115.22500
12485,Cedros temp,,PAIC-44_locus_C_surface,,Mexico,Baja CA,Cedros Island,not yet scanned,L: 75.17  W: 55.56  Thk: 15.23  PAIC-44_locus_C_surface cat # 487-1205 biface-NOT SCANNED,28.03300,-115.22500
12486,Cedros temp,,PAIC-44_locus_C_surface,,Mexico,Baja CA,Cedros Island,not yet scanned,L: 96.85  W: 48.16  Thk: 48.49  PAIC-44_locus_C_surface cat # 487-1202 biface--DAVID SYSTEM,28.03300,-115.22500
12487,Cedros temp,,PAIC-44_locus_C_surface,,Mexico,Baja CA,Cedros Island,not yet scanned,L: 86.73  W: 39.78  Thk: 14.69  PAIC-44_locus_C_surface cat # 487-1204 biface--DAVID SYSTEM,28.03300,-115.22500
12488,Cedros temp,,PAIC-49_west-gully_slope_surface,,Mexico,Baja CA,Cedros Island,not yet scanned,L: 62.66  W: 40.13  Thk: 19.05  PAIC-49_west-gully_slope StEURT,28.03300,-115.22500
12490,Cedros temp,,PAIC-49_SE_locus_surface,,Mexico,Baja CA,Cedros Island,not yet scanned,L: 35.04  W: 34.13  Thk: 29.62  PAIC-49_SE_locus_surface StEURT,28.03300,-115.22500
12491,Cedros temp,,PAIC-44_Unit_5_Layer_A2,,Mexico,Baja CA,Cedros Island,not yet scanned,L: 48.43  W: 46.82  Thk: 25.39  PAIC-44_Unit_5_Layer_A2 24 cmbd StEURT,28.03300,-115.22500
12492,Cedros temp,,PAIC-44_Unit_5_Layer_A2,,Mexico,Baja CA,Cedros Island,not yet scanned,L: 61.42  W: 39.78  Thk: 20.7  PAIC-44_Unit_5_Layer_A2 21 cmbd StEURT,28.03300,-115.22500
12493,Cedros temp,,PAIC-44_Locus_A_surface,,Mexico,Baja CA,Cedros Island,not yet scanned,L: 42.86  W: 26.37  Thk: 6.83  PAIC-44_Locus_A_surface FLUTED POINT fragment--DAVID SYSTEM,28.03300,-115.22500
12494,Cedros temp,,PAIC-44_Arroyo_South_of_Unit_4_Surface,,Mexico,Baja CA,Cedros Island,not yet scanned,L: 53.07  W: 25.39  Thk: 7.19  PAIC-44_Arroyo_South_of_Unit_4_Surface complete stemmed point with haft saddle and collar,28.03300,-115.22500
12495,Cedros temp,,PAIC-49_surface_#004,,Mexico,Baja CA,Cedros Island,not yet scanned,L: 41.2  W: 21.39  Thk: 7.45  PAIC-49_surface_#004 quartzite complete stemmed point,28.03300,-115.22500
12496,Cedros temp,,PAIC-49_SE_Locus_surface,,Mexico,Baja CA,Cedros Island,not yet scanned,L: 53.48  W: 33.9  Thk: 11.69  PAIC-49_SE_Locus_surface quartzite foliate projectile point,28.03300,-115.22500
12497,Cedros temp,,PAIC-44A_surface,,Mexico,Baja CA,Cedros Island,not yet scanned,PAIC-44A_surface red CCS serrated PPT--DAVID SYSTEM,28.03300,-115.22500
12498,Cedros temp,,PAIC-44_Locus_A_surface,,Mexico,Baja CA,Cedros Island,not yet scanned,L: 83.71  W: 28.46  Thk: 11.98  PAIC-44_Locus_A_surface larger quartzite foliate point with haft saddle,28.03300,-115.22500
12499,Cedros temp,,PAIC-44-7_bag_1_surface,,Mexico,Baja CA,Cedros Island,not yet scanned,L: 41.69  W: 16.02  Thk: 9.46  PAIC-44-7_bag_1_surface quartzite foliate projectile point,28.03300,-115.22500
12500,Cedros temp,,PAIC-49-002_surface,,Mexico,Baja CA,Cedros Island,not yet scanned,L: 29.74  W: 22.3  Thk: 5.81  PAIC-49-002_surface quartzite foliate projectile point,28.03300,-115.22500
12501,Cedros temp,,PAIC-44_Locus_A_surface,,Mexico,Baja CA,Cedros Island,not yet scanned,L: 39.72  W: 29.87  Thk: 8.68  PAIC-44_Locus_A_surface quartzite stemmed point base,28.03300,-115.22500
12502,Cedros temp,,PAIC-44_Locus_A_surface,,Mexico,Baja CA,Cedros Island,not yet scanned,L: 43.13  W: 25.89  Thk: 8.32  PAIC-44_Locus_A_surface quartzite stemmed point tip missing,28.03300,-115.22500
12503,Cedros temp,,PAIC-44_Locus_A_surface,,Mexico,Baja CA,Cedros Island,not yet scanned,L: 46.38  W: 27.3  Thk: 8.81  PAIC-44_Locus_A_surface quartzite foliate point complete,28.03300,-115.22500
12504,Cedros temp,,PAIC-44_Locus_A_next-to-datum_surface,,Mexico,Baja CA,Cedros Island,not yet scanned,L: 54.38  W: 39.66  Thk: 13.18  PAIC-44_Locus_A_next-to-datum_surface ccs stemmed point base,28.03300,-115.22500
12505,Cedros temp,,PAIC-44-17_surface,,Mexico,Baja CA,Cedros Island,not yet scanned,L: 52.2  W: 24.79  Thk: 8.19  PAIC-44-17_surface foliate point with broken base,28.03300,-115.22500
12506,Cedros temp,,PAIC-49_SE_Locus_surface,,Mexico,Baja CA,Cedros Island,not yet scanned,L: 38.27  W: 32.23  Thk: 8.66  PAIC-49_SE_Locus_surface quartzite foliate point base,28.03300,-115.22500
12507,Cedros temp,,PAIC-44-30_surface,,Mexico,Baja CA,Cedros Island,not yet scanned,L: 78.35  W: 36.19  Thk: 25  PAIC-44-30_surface pecked groundstone ring fragment--DAVID SYSTEM,28.03300,-115.22500
12508,Cedros temp,,PAIC-49_surface_PPT_03,,Mexico,Baja CA,Cedros Island,not yet scanned,L: 63.33  W: 31.93  Thk: 11.47  PAIC-49_surface_PPT_03 stemmed quartzite point,28.03300,-115.22500
12509,Cedros temp,,PAIC-49_north_finger_north_slope_downwash_surface,,Mexico,Baja CA,Cedros Island,not yet scanned,L: 33.21  W: 22.71  Thk: 8.06  PAIC-49_north_finger_north_slope_downwash_surface bifacial crescent fragment?,28.03300,-115.22500
12510,Cedros temp,,PAIC-44-4_surface,,Mexico,Baja CA,Cedros Island,not yet scanned,L: 48.53  W: 55.02  Thk: 12.23  PAIC-44-4_surface quartzite biface fragment,28.03300,-115.22500
12511,Cedros temp,,PAIC-44-34_surface,,Mexico,Baja CA,Cedros Island,not yet scanned,L: 44.39  W: 24.04  Thk: 7.95  PAIC-44-34_surface stemmed point basal fragment,28.03300,-115.22500
12512,Cedros temp,,PAIC-49_west_ridge_near_unit_3_surface,,Mexico,Baja CA,Cedros Island,not yet scanned,L: 86.19  W: 81.15  Thk: 23.72  PAIC-49_west_ridge_near_unit_3_surface StEURT--DAVID SYSTEM,28.03300,-115.22500
12513,Cedros temp,,PAIC-44_Locus_B_surface,,Mexico,Baja CA,Cedros Island,not yet scanned,L: 44.83  W: 34.75  Thk: 8.02  PAIC-44_Locus_B_surface resharpened serrated foliate point,28.03300,-115.22500
12514,Cedros temp,,PAIC-44_Locus_F_surface,,Mexico,Baja CA,Cedros Island,not yet scanned,L: 87.77  W: 37.54  Thk: 10  PAIC-44_Locus_F_surface complete serrated foliate point,28.03300,-115.22500
12515,Cedros temp,,PAIC-49_surface_005,,Mexico,Baja CA,Cedros Island,not yet scanned,L: 57  W: 25.42  Thk: 11.99  PAIC-49_surface_005 StEURT with beaked tip,28.03300,-115.22500
12516,Cedros temp,,PAIC-44_bag_6_surface,,Mexico,Baja CA,Cedros Island,not yet scanned,L: 49.6  W: 21.88  Thk: 8.81  PAIC-44_bag_6_surface single shouldered stemmed point,28.03300,-115.22500
12517,Cedros temp,,PAIC-44_locus_B_surface,,Mexico,Baja CA,Cedros Island,not yet scanned,L: 58.98  W: 30.89  Thk: 22.46  PAIC-44_locus_B_surface StEURT,28.03300,-115.22500
12518,Cedros temp,,PAIC-44_Locus_B_surface,,Mexico,Baja CA,Cedros Island,not yet scanned,L: 29.34  W: 34.77  Thk: 9.26  PAIC-44_Locus_B_surface quartzite serrated foliate biface base fragment,28.03300,-115.22500
12147,Unknown,Unknown,Unknown,Davis,,,,not yet scanned,null,47.00000,-127.00000
12148,Gaadu Din 1,1693T,1693T7X7897,Davis,Canada,BC,Haida Gwaii,not yet scanned,"biface  (repaired, but problem model) similar to Chindadn",52.44350,-131.36030
12535,Canton site,15TR1,294-1,Hanvey,USA,KY,Trigg,Processed,Ft Payne Chert,36.84740,-87.77630
20300,Unknown,Unknown,1351b,Dennis,,,,Processed,Trial ppt for Kayden Dennis U of Arkansas,47.00000,-127.00000
1663,Harris,SDI-149,1960-1-970,Davis,USA,CA,San Diego,Processed,Crescent,33.05275,-117.15943
1664,Harris,SDI-149,1960-1-1022,Davis,USA,CA,San Diego,Processed,Biface,33.05275,-117.15943
1665,Harris,SDI-149,1960-1-1117,Davis,USA,CA,San Diego,Processed,Biface,33.05275,-117.15943
1666,Harris,SDI-149,1960-1-1128,Davis,USA,CA,San Diego,Processed,Uniface,33.05275,-117.15943
1667,Harris,SDI-149,1960-1-1172,Davis,USA,CA,San Diego,Processed,Biface,33.05275,-117.15943
1668,Harris,SDI-149,1969-27,Davis,USA,CA,San Diego,Processed,PPT,33.05275,-117.15943
1669,Harris,SDI-149,1960-1-968,Davis,USA,CA,San Diego,Processed,PPT,33.05275,-117.15943
1670,Harris,SDI-149,1960-1-969,Davis,USA,CA,San Diego,Processed,PPT,33.05275,-117.15943
1671,Harris,SDI-149,1969-21,Davis,USA,CA,San Diego,Processed,PPT,33.05275,-117.15943
1672,Old River Bed,42TO5564,2,Davis,USA,UT,Tooele,Processed,Haskett point cast-plastic resin,40.45026,-113.12504
1673,Old River Bed,42TO5564,4,Davis,USA,UT,Tooele,Processed,Haskett point cast-plastic resin,40.45026,-113.12504
1674,Old River Bed,42TO5564,1,Davis,USA,UT,Tooele,Processed,Haskett point cast-plastic resin,40.45026,-113.12504
1675,Old River Bed,42TO5564,3,Davis,USA,UT,Tooele,Processed,Haskett point cast-plastic resin,40.45026,-113.12504
1676,Old River Bed,42TO5564,67,Davis,USA,UT,Tooele,Processed,"Haskett U-13-LY-0667 ORB Site; ""UTM 4455652 N	298406 E""",40.45026,-113.12504
1677,Old River Bed,42TO5564,ISO-AT035.1,Davis,USA,UT,Tooele,Processed,"Haskett Hill AFB UTTR 15 UM Playas.  Isolate. Orig wt 20.9, cast 9.97",40.45026,-113.12504
1678,Old River Bed,42TO5564,80,Davis,USA,UT,Tooele,Processed,"UTM 293283 E 4470129 N Zone 12 NAD 27; 293217 E 4470334 N NAD 83; original weight 309.3 g; fine grained volcanic material; collected by David B. Madsen, David N. Schmitt, Boe Hadley, June 1 2004; surface find",40.45026,-113.12504
1679,Harris,SDI-149,1960-1-1173,Davis,USA,CA,San Diego,Processed,,33.05275,-117.15943
1680,Harris,SDI-149,1960-1-773,Davis,USA,CA,San Diego,Processed,,33.05275,-117.15943
1681,Harris,SDI-149,1960-1-951,Davis,USA,CA,San Diego,Processed,,33.05275,-117.15943
1682,Harris,SDI-149,Unknown,Davis,USA,CA,San Diego,Processed,water weathered with no number,33.05275,-117.15943
1683,Harris,SDI-149,1960-1-347,Davis,USA,CA,San Diego,Processed,,33.05275,-117.15943
1684,Harris,SDI-149,1960-1-675,Davis,USA,CA,San Diego,Processed,,33.05275,-117.15943
1685,Harris,SDI-149,1960-1-958,Davis,USA,CA,San Diego,Processed,,33.05275,-117.15943
1686,Harris,SDI-149,1960-1-1174,Davis,USA,CA,San Diego,Processed,,33.05275,-117.15943
1688,Harris,SDI-149,1960-1-800,Davis,USA,CA,San Diego,Processed,"broken, part 2 of 2; refits with 1687",33.05275,-117.15943
1689,Harris,SDI-149,1960-1-1125,Davis,USA,CA,San Diego,Processed,,33.05275,-117.15943
1690,Harris,SDI-149,1960-1-798 & 800,Davis,USA,CA,San Diego,Processed,reassembled in MeshLab by AJN;  refits  1687 and 1688,33.05275,-117.15943
21000,8LE148,8LE148,74.189.149.1,Hall,USA,FL,Leon,not yet scanned,via Kristen Hall UDenver,30.46365,-84.27838
21001,8LE73,8LE73,74.192.01.52,Hall,USA,FL,Leon,not yet scanned,via Kristen Hall UDenver,30.46365,-84.27838
21002,8LE73,8LE73,74.192.01.64,Hall,USA,FL,Leon,not yet scanned,via Kristen Hall UDenver,30.46365,-84.27838
21003,8LE73,8LE73,74.192.01.70,Hall,USA,FL,Leon,not yet scanned,via Kristen Hall UDenver,30.46365,-84.27838
21004,8LE73,8LE73,74.192.01.74,Hall,USA,FL,Leon,not yet scanned,via Kristen Hall UDenver,30.46365,-84.27838
21005,8LE73,8LE73,74.192.01.75,Hall,USA,FL,Leon,not yet scanned,via Kristen Hall UDenver,30.46365,-84.27838
21006,8LE73,8LE73,74.192.01.92,Hall,USA,FL,Leon,not yet scanned,via Kristen Hall UDenver,30.46365,-84.27838
21007,8LE73,8LE73,74.192.01.98,Hall,USA,FL,Leon,not yet scanned,via Kristen Hall UDenver,30.46365,-84.27838
21008,8LE484,8LE484,75.608.01.09,Hall,USA,FL,Leon,not yet scanned,via Kristen Hall UDenver,30.46365,-84.27838
21009,8TA143,8TA143,96.83.5.1,Hall,USA,FL,Taylor,not yet scanned,via Kristen Hall UDenver,30.05011,-83.59747
1691,35DS3036 Biface cache,35DS3036,FS#06010302337 #19,Davis,USA,OR,Deschutes,Processed,,43.90803,-121.22629
1692,35DS3036 Biface cache,35DS3036,FS#06010302337 #2,Davis,USA,OR,Deschutes,Processed,,43.90803,-121.22629
1693,35DS3036 Biface cache,35DS3036,FS#06010302337 #3,Davis,USA,OR,Deschutes,Processed,,43.90803,-121.22629
1694,35DS3036 Biface cache,35DS3036,FS#06010302337 #6,Davis,USA,OR,Deschutes,Processed,,43.90803,-121.22629
1695,35DS3036 Biface cache,35DS3036,FS#06010302337 #7,Davis,USA,OR,Deschutes,Processed,,43.90803,-121.22629
1696,35DS3036 Biface cache,35DS3036,FS#06010302337 #8,Davis,USA,OR,Deschutes,Processed,,43.90803,-121.22629
1698,35DS3036 Biface cache,35DS3036,FS#06010302337 #16,Davis,USA,OR,Deschutes,Processed,,43.90803,-121.22629
1699,35DS3036 Biface cache,35DS3036,FS#06010302337 #22,Davis,USA,OR,Deschutes,Processed,,43.90803,-121.22629
1700,35DS3036 Biface cache,35DS3036,FS#06010302337 #23,Davis,USA,OR,Deschutes,Processed,,43.90803,-121.22629
1701,35DS3036 Biface cache,35DS3036,FS#06010302337 #26,Davis,USA,OR,Deschutes,Processed,,43.90803,-121.22629
1702,35DS3036 Biface cache,35DS3036,FS#06010302337 #27,Davis,USA,OR,Deschutes,Processed,,43.90803,-121.22629
1703,35DS3036 Biface cache,35DS3036,FS#06010302337 #28,Davis,USA,OR,Deschutes,Processed,,43.90803,-121.22629
1704,35DS3036 Biface cache,35DS3036,FS#06010302337 #31,Davis,USA,OR,Deschutes,Processed,,43.90803,-121.22629
1705,35DS3036 Biface cache,35DS3036,FS#06010302337 #54,Davis,USA,OR,Deschutes,Processed,,43.90803,-121.22629
1706,35DS3036 Biface cache,35DS3036,FS#06010302337 #62,Davis,USA,OR,Deschutes,Processed,,43.90803,-121.22629
1707,35DS3036 Biface cache,35DS3036,FS#06010302337 #24,Davis,USA,OR,Deschutes,Processed,,43.90803,-121.22629
1708,35DS3036 Biface cache,35DS3036,FS#06010302337 #18,Davis,USA,OR,Deschutes,Processed,,43.90803,-121.22629
1709,35DS3036 Biface cache,35DS3036,FS#06010302337 #20,Davis,USA,OR,Deschutes,Processed,,43.90803,-121.22629
1710,35DS3036 Biface cache,35DS3036,FS#06010302337 #32a,Davis,USA,OR,Deschutes,Processed,,43.90803,-121.22629
1711,35DS3036 Biface cache,35DS3036,FS#06010302337 #35,Davis,USA,OR,Deschutes,Processed,,43.90803,-121.22629
1712,35DS3036 Biface cache,35DS3036,FS#06010302337 #52,Davis,USA,OR,Deschutes,Processed,,43.90803,-121.22629
1713,35DS3036 Biface cache,35DS3036,FS#06010302337 #36,Davis,USA,OR,Deschutes,Processed,inverted along length from ply,43.90803,-121.22629
1714,35DS3036 Biface cache,35DS3036,FS#06010302337 #39,Davis,USA,OR,Deschutes,Processed,,43.90803,-121.22629
1715,35DS3036 Biface cache,35DS3036,FS#06010302337 #40,Davis,USA,OR,Deschutes,Processed,,43.90803,-121.22629
1716,35DS3036 Biface cache,35DS3036,FS#06010302337 #12,Davis,USA,OR,Deschutes,Processed,,43.90803,-121.22629
1717,35DS3036 Biface cache,35DS3036,FS#06010302337 #30,Davis,USA,OR,Deschutes,Processed,,43.90803,-121.22629
1718,35DS3036 Biface cache,35DS3036,FS#06010302337 #10,Davis,USA,OR,Deschutes,Processed,,43.90803,-121.22629
1719,35DS3036 Biface cache,35DS3036,FS#06010302337 #29,Davis,USA,OR,Deschutes,Processed,Right side damage ignored for Procrustes,43.90803,-121.22629
1720,35DS3036 Biface cache,35DS3036,FS#06010302337 #59,Davis,USA,OR,Deschutes,Processed,,43.90803,-121.22629
1721,35DS3036 Biface cache,35DS3036,FS#06010302337 #33,Davis,USA,OR,Deschutes,Processed,,43.90803,-121.22629
1722,35DS3036 Biface cache,35DS3036,FS#06010302337 #55,Davis,USA,OR,Deschutes,Processed,Procrustes internal landmarks suspect (haft collar),43.90803,-121.22629
1723,35DS3036 Biface cache,35DS3036,FS#06010302337 #5,Davis,USA,OR,Deschutes,Processed,,43.90803,-121.22629
1724,35DS3036 Biface cache,35DS3036,FS#06010302337 #43,Davis,USA,OR,Deschutes,Processed,,43.90803,-121.22629
1725,35DS3036 Biface cache,35DS3036,FS#06010302337 #50,Davis,USA,OR,Deschutes,Processed,,43.90803,-121.22629
1726,35DS3036 Biface cache,35DS3036,FS#06010302337 #53,Davis,USA,OR,Deschutes,Processed,,43.90803,-121.22629
1727,35DS3036 Biface cache,35DS3036,FS#06010302337 #4,Davis,USA,OR,Deschutes,Processed,,43.90803,-121.22629
1728,35DS3036 Biface cache,35DS3036,FS#06010302337 #51,Davis,USA,OR,Deschutes,Processed,,43.90803,-121.22629
1729,35DS3036 Biface cache,35DS3036,FS#06010302337 #60,Davis,USA,OR,Deschutes,Processed,,43.90803,-121.22629
1730,35DS3036 Biface cache,35DS3036,FS#06010302337 #56,Davis,USA,OR,Deschutes,Processed,,43.90803,-121.22629
1731,35DS3036 Biface cache,35DS3036,FS#06010302337 #57,Davis,USA,OR,Deschutes,Processed,,43.90803,-121.22629
1732,35DS3036 Biface cache,35DS3036,FS#06010302337 #44,Davis,USA,OR,Deschutes,Processed,,43.90803,-121.22629
1733,35DS3036 Biface cache,35DS3036,FS#06010302337 #1,Davis,USA,OR,Deschutes,Processed,,43.90803,-121.22629
1734,35DS3036 Biface cache,35DS3036,FS#06010302337 #32b,Davis,USA,OR,Deschutes,Processed,,43.90803,-121.22629
1735,35DS3036 Biface cache,35DS3036,FS#06010302337 #34,Davis,USA,OR,Deschutes,Processed,,43.90803,-121.22629
1736,35DS3036 Biface cache,35DS3036,FS#06010302337 #41,Davis,USA,OR,Deschutes,Processed,,43.90803,-121.22629
1737,35DS3036 Biface cache,35DS3036,FS#06010302337 #38,Davis,USA,OR,Deschutes,Processed,,43.90803,-121.22629
1738,35DS3036 Biface cache,35DS3036,FS#06010302337 #13,Davis,USA,OR,Deschutes,Processed,,43.90803,-121.22629
1739,35DS3036 Biface cache,35DS3036,FS#06010302337 #21,Davis,USA,OR,Deschutes,Processed,,43.90803,-121.22629
1740,35DS3036 Biface cache,35DS3036,FS#06010302337 #14,Davis,USA,OR,Deschutes,Processed,,43.90803,-121.22629
1741,35DS3036 Biface cache,35DS3036,FS#06010302337 #42,Davis,USA,OR,Deschutes,Processed,,43.90803,-121.22629
1742,35DS3036 Biface cache,35DS3036,FS#06010302337 #37,Davis,USA,OR,Deschutes,Processed,,43.90803,-121.22629
1743,35DS3036 Biface cache,35DS3036,FS#06010302337 #15,Davis,USA,OR,Deschutes,Processed,Procrustes internal landmarks suspect (haft collar),43.90803,-121.22629
1744,35DS3036 Biface cache,35DS3036,FS#06010302337 #17,Davis,USA,OR,Deschutes,Processed,,43.90803,-121.22629
1745,35DS3036 Biface cache,35DS3036,FS#06010302337 #25,Davis,USA,OR,Deschutes,Processed,,43.90803,-121.22629
1746,35DS3036 Biface cache,35DS3036,FS#06010302337 #11,Davis,USA,OR,Deschutes,Processed,,43.90803,-121.22629
1747,35DS3036 Biface cache,35DS3036,FS#06010302337 #58,Davis,USA,OR,Deschutes,Processed,,43.90803,-121.22629
12536,El Jaro,,NWROSL 2020-26,Nyers,USA,CA,Santa Barbara,Processed,"Via Alex 'El Jaro"" Santa Barbara, CA",34.67197,-120.01283
12537,Douglas Co OR BLM,,2020-63,Nyers,USA,OR,Douglas,Processed,"via Nyer (2020-63 NWROSL): Kelsey Knox, Roseburg District BLM, 777 NW Garden Valley Rd, Roseburg, OR 97471",43.25000,-123.02000
1823,Haskett Site,10PR37,Unknown,Davis,USA,ID,Power,Processed,Haskett   (3D version 0f 2D G484),42.68935,-112.83228
1824,Old River Bed,42TO5564,,Davis,USA,UT,Tooele,Processed,Tooele Co UT Haskett 1.ply,40.45026,-113.12504
1825,Cooper's Ferry,10IH73,73-60685,Davis,USA,ID,Idaho,Processed,Broken ontracting base ppt LGD,45.83513,-115.46639
1687,Harris,SDI-149,1960-1-798,Davis,USA,CA,San Diego,Processed,"broken, part 1 of 2; refits with 1688",33.05275,-117.15943
2129,Cooper's Ferry,10IH73,73-47209,Davis,USA,ID,Idaho,Processed,Placeholder for CF based on CF PPT Chronology diagram Jan 2022,45.83513,-115.46639
2130,Cooper's Ferry,10IH73,73-47761,Davis,USA,ID,Idaho,Processed,Calculus compensation,45.83513,-115.46639
2131,Cooper's Ferry,10IH73,73-47612,Davis,USA,ID,Idaho,Processed,,45.83513,-115.46639
2132,Cooper's Ferry,10IH73,73-44058,Davis,USA,ID,Idaho,Processed,LP-1 level  Some calculus,45.83513,-115.46639
2133,Cooper's Ferry,10IH73,RN 49435,Davis,USA,ID,Idaho,not yet scanned,Placeholder for CF,45.83513,-115.46639
2134,Cooper's Ferry,10IH73,73-60685,Davis,USA,ID,Idaho,not yet scanned,Placeholder for CF,45.83513,-115.46639
2135,Cooper's Ferry,10IH73,73-60685,Davis,USA,ID,Idaho,not yet scanned,Placeholder for CF,45.83513,-115.46639
2136,Cooper's Ferry,10IH73,73-49277,Davis,USA,ID,Idaho,Processed,LP-1 level.  Calculus on one side.  May have been discarded part-way through due to stem flake problem,45.83513,-115.46639
2137,Cooper's Ferry,10IH73,73-48103,Davis,USA,ID,Idaho,Processed,,45.83513,-115.46639
2138,Cooper's Ferry,10IH73,73-54185,Davis,USA,ID,Idaho,Processed,,45.83513,-115.46639
2139,Cooper's Ferry,10IH73,73-54546,Davis,USA,ID,Idaho,Processed,,45.83513,-115.46639
2140,Cooper's Ferry,10IH73,73-54633,Davis,USA,ID,Idaho,Processed,,45.83513,-115.46639
2141,Cooper's Ferry,10IH73,73-54634,Davis,USA,ID,Idaho,Processed,,45.83513,-115.46639
2142,Cooper's Ferry,10IH73,73-53630,Davis,USA,ID,Idaho,not yet scanned,Placeholder for CF,45.83513,-115.46639
2143,Cooper's Ferry,10IH73,73-38248,Davis,USA,ID,Idaho,not yet scanned,Placeholder for CF,45.83513,-115.46639
2144,Cooper's Ferry,10IH73,73-53963,Davis,USA,ID,Idaho,not yet scanned,Placeholder for CF,45.83513,-115.46639
2145,Cooper's Ferry,10IH73,73-54648,Davis,USA,ID,Idaho,not yet scanned,Placeholder for CF,45.83513,-115.46639
2146,Cooper's Ferry,10IH73,73-54649,Davis,USA,ID,Idaho,not yet scanned,Placeholder for CF,45.83513,-115.46639
2147,Cooper's Ferry,10IH73,73-54676,Davis,USA,ID,Idaho,not yet scanned,Placeholder for CF,45.83513,-115.46639
2148,Cooper's Ferry,10IH73,73-51890,Davis,USA,ID,Idaho,Processed,,45.83513,-115.46639
2149,Cooper's Ferry,10IH73,73-55759,Davis,USA,ID,Idaho,not yet scanned,Placeholder for CF,45.83513,-115.46639
2150,Cooper's Ferry,10IH73,73-52475,Davis,USA,ID,Idaho,not yet scanned,Placeholder for CF,45.83513,-115.46639
2151,Cooper's Ferry,10IH73,73-55754,Davis,USA,ID,Idaho,not yet scanned,Placeholder for CF,45.83513,-115.46639
2152,,,,Davis,,,,Free to use,,,
2153,Cooper's Ferry,10IH73,73-38246,Davis,USA,ID,Idaho,not yet scanned,Placeholder for CF,45.83513,-115.46639
2154,Cooper's Ferry,10IH73,73-30854,Davis,USA,ID,Idaho,Processed,,45.83513,-115.46639
2155,Cooper's Ferry,10IH73,73-51889,Davis,USA,ID,Idaho,not yet scanned,Placeholder for CF,45.83513,-115.46639
2156,Cooper's Ferry,10IH73,"73-32450, 73-32950,  73-27183, 73-26463",Davis,USA,ID,Idaho,not yet scanned,4 fragments: 73-32450 RN 30721; 73-32950 RN 31023; 73-27183 RN 23911; 73-26463 RN 15072,45.83513,-115.46639
2157,Cooper's Ferry,10IH73,J-SE-L18,Davis,USA,ID,Idaho,not yet scanned,Placeholder for CF,45.83513,-115.46639
2158,Cooper's Ferry,10IH73,RN 5596,Davis,USA,ID,Idaho,not yet scanned,Placeholder for CF,45.83513,-115.46639
2159,Cooper's Ferry,10IH73,73-19324,Davis,USA,ID,Idaho,not yet scanned,Placeholder for CF,45.83513,-115.46639
2160,Cooper's Ferry,10IH73,73-59027,Davis,USA,ID,Idaho,not yet scanned,Placeholder for CF,45.83513,-115.46639
2161,Cooper's Ferry,10IH73,73-27777,Davis,USA,ID,Idaho,not yet scanned,Placeholder for CF,45.83513,-115.46639
2162,Cooper's Ferry,10IH73,73-56843,Davis,USA,ID,Idaho,not yet scanned,Placeholder for CF,45.83513,-115.46639
2163,Cooper's Ferry,10IH73,73-59029,Davis,USA,ID,Idaho,not yet scanned,Placeholder for CF based on CF PPT Chronology diagram Jan 2022,45.83513,-115.46639
2164,Cooper's Ferry,10IH73,73-39766,Davis,USA,ID,Idaho,not yet scanned,Placeholder for CF,45.83513,-115.46639
2165,Cooper's Ferry,10IH73,73-49212,Davis,USA,ID,Idaho,not yet scanned,Placeholder for CF,45.83513,-115.46639
2166,Cooper's Ferry,10IH73,73-53797,Davis,USA,ID,Idaho,not yet scanned,Placeholder for CF,45.83513,-115.46639
2167,Cooper's Ferry,10IH73,73-53780,Davis,USA,ID,Idaho,not yet scanned,Placeholder for CF,45.83513,-115.46639
2168,Cooper's Ferry,10IH73,73-53840,Davis,USA,ID,Idaho,not yet scanned,Placeholder for CF,45.83513,-115.46639
2169,Cooper's Ferry,10IH73,73-54516,Davis,USA,ID,Idaho,not yet scanned,Placeholder for CF,45.83513,-115.46639
2170,Cooper's Ferry,10IH73,73-54590,Davis,USA,ID,Idaho,not yet scanned,Placeholder for CF,45.83513,-115.46639
2171,Cooper's Ferry,10IH73,73-54519,Davis,USA,ID,Idaho,not yet scanned,Placeholder for CF,45.83513,-115.46639
2172,Cooper's Ferry,10IH73,73-53756,Davis,USA,ID,Idaho,not yet scanned,Placeholder for CF,45.83513,-115.46639
2173,Cooper's Ferry,10IH73,73-55536,Davis,USA,ID,Idaho,not yet scanned,Placeholder for CF,45.83513,-115.46639
2174,Cooper's Ferry,10IH73,73-56604,Davis,USA,ID,Idaho,not yet scanned,Placeholder for CF,45.83513,-115.46639
2175,Cooper's Ferry,10IH73,73-53739,Davis,USA,ID,Idaho,not yet scanned,Placeholder for CF,45.83513,-115.46639
2176,Cooper's Ferry,10IH73,73-39407,Davis,USA,ID,Idaho,not yet scanned,Placeholder for CF,45.83513,-115.46639
2177,Cooper's Ferry,10IH73,73-39004,Davis,USA,ID,Idaho,not yet scanned,Placeholder for CF,45.83513,-115.46639
2178,Cooper's Ferry,10IH73,73-38242,Davis,USA,ID,Idaho,not yet scanned,Placeholder for CF,45.83513,-115.46639
2179,Cooper's Ferry,10IH73,73-59028,Davis,USA,ID,Idaho,Processed,EH3 at 412.65   'fluted',45.83513,-115.46639
60001,Unknown,Unknown,169.t.2.ply,Nyers,,,,Processed,Test of new scanner,47.00000,-127.00000
60002,Unknown,Unknown,spec94_3721.ply,Nyers,,,,Processed,Test of new scanner,47.00000,-127.00000
60003,Unknown,Unknown,spec102_1983.1.ply,Nyers,,,,Processed,Test of new scanner,47.00000,-127.00000
60004,Unknown,Unknown,spec103_1998.4.29.ply,Nyers,,,,Processed,Test of new scanner,47.00000,-127.00000
60005,Unknown,Unknown,spec107_2500.ply,Nyers,,,,Processed,Test of new scanner,47.00000,-127.00000
41536,Buhl Burial,10TF1019,einscan smoothed,Nyers,USA,ID,Twin Falls,Processed,Test of new scanner reduced to 300K faces upstream,42.35128,-114.65458
51536,Buhl Burial,10TF1019,einscan medium,Nyers,USA,ID,Twin Falls,Processed,Test of new scanner reduced to 300K faces upstream,42.35128,-114.65458
61536,Buhl Burial,10TF1019,einscan high-res,Nyers,USA,ID,Twin Falls,Processed,Test of new scanner reduced to 300K faces upstream,42.35128,-114.65458
71536,Buhl Burial,10TF1019,einscan2 high-res,Nyers,USA,ID,Twin Falls,Processed,Test of new scanner reduced to 600 faces upstream 11/17/2022,42.35128,-114.65458
30000,Chiquihuite Cave,,Artifact #540 (inventory: 1055-13261),Ardelean,Mexico,Zacatecas,,Processed,CHQ-B_540.ply,24.60946,-101.18799
30001,Chiquihuite Cave,,Artifact #543 (inventory: 1202-13012),Ardelean,Mexico,Zacatecas,,Processed,CHQ-B_543.ply,24.60946,-101.18799
30002,Chiquihuite Cave,,Artifact #547 (inventory: 370-9734),Ardelean,Mexico,Zacatecas,,Processed,CHQ-B_547.ply,24.60946,-101.18799
30003,Chiquihuite Cave,,Artifact #567 (inventory:1554-13487),Ardelean,Mexico,Zacatecas,,Processed,CHQ-B_567.ply,24.60946,-101.18799
30004,Chiquihuite Cave,,Artifact #568 (inventory:1838-13567),Ardelean,Mexico,Zacatecas,,Processed,CHQ-B_568.ply,24.60946,-101.18799
30005,Chiquihuite Cave,,Artifact #570 (inventory:336-10662),Ardelean,Mexico,Zacatecas,,Processed,CHQ-B_570.ply,24.60946,-101.18799
30006,Chiquihuite Cave,,Artifact #572 (inventory:1783-13558),Ardelean,Mexico,Zacatecas,,Processed,CHQ-B_572.ply,24.60946,-101.18799
30007,Chiquihuite Cave,,Artifact #580 (inventory:1422-13448),Ardelean,Mexico,Zacatecas,,Processed,CHQ-B_580.ply,24.60946,-101.18799
30008,Chiquihuite Cave,,Artifact #586 (inventory:327-10660),Ardelean,Mexico,Zacatecas,,Processed,CHQ-B_586.ply,24.60946,-101.18799
30009,Chiquihuite Cave,,Artifact #598 (inventory:279-9539),Ardelean,Mexico,Zacatecas,,Processed,CHQ-B_598.ply---CHQ-B_598.ply,24.60946,-101.18799
30010,Chiquihuite Cave,,Artifact #603 (inventory:1925-13709),Ardelean,Mexico,Zacatecas,,Processed,CHQ-B_603.ply,24.60946,-101.18799
30011,Chiquihuite Cave,,Artifact #608 (inventory:1437-13746),Ardelean,Mexico,Zacatecas,,Processed,CHQ-B_608.ply---Access,24.60946,-101.18799
30012,Chiquihuite Cave,,Artifact #609 (inventory:406-9792),Ardelean,Mexico,Zacatecas,,Processed,CHQ-B_609.ply,24.60946,-101.18799
30013,Chiquihuite Cave,,Artifact #610 (inventory:1596-13750),Ardelean,Mexico,Zacatecas,,Processed,CHQ-B_610.ply,24.60946,-101.18799
30014,Chiquihuite Cave,,Artifact #929 (inventory:2255-17228),Ardelean,Mexico,Zacatecas,,Processed,CHQ-B_929.ply---Access,24.60946,-101.18799
2262,Paulina Creek Cache,,BO-21-66_1,Nyers,USA,OR,Deschutes,not scanned yet,Early - Mid Holocene   Cascade,43.80000,-121.30000
2263,Paulina Creek Cache,,BO-21-66_2,Nyers,USA,OR,Deschutes,not scanned yet,Early - Mid Holocene   Cascade,43.80000,-121.30000
2264,Paulina Creek Cache,,BO-21-66_3,Nyers,USA,OR,Deschutes,not scanned yet,Early - Mid Holocene   Cascade,43.80000,-121.30000
2265,Paulina Creek Cache,,BO-21-66_4,Nyers,USA,OR,Deschutes,Processed,Early - Mid Holocene   Cascade,43.80000,-121.30000
2266,Paulina Creek Cache,,BO-21-66_5,Nyers,USA,OR,Deschutes,not scanned yet,Early - Mid Holocene   Cascade,43.80000,-121.30000
2267,Paulina Creek Cache,,BO-21-66_6,Nyers,USA,OR,Deschutes,not scanned yet,Early - Mid Holocene   Cascade,43.80000,-121.30000
2268,Paulina Creek Cache,,BO-21-66_7,Nyers,USA,OR,Deschutes,Processed,Early - Mid Holocene   Cascade,43.80000,-121.30000
2269,Paulina Creek Cache,,BO-21-66_8,Nyers,USA,OR,Deschutes,Processed,Early - Mid Holocene   Cascade,43.80000,-121.30000
2270,Paulina Creek Cache,,BO-21-66_9,Nyers,USA,OR,Deschutes,Processed,Early - Mid Holocene   Cascade,43.80000,-121.30000
2271,Paulina Creek Cache,,BO-21-66_10,Nyers,USA,OR,Deschutes,Processed,Early - Mid Holocene   Cascade,43.80000,-121.30000
2272,Paulina Creek Cache,,BO-21-66_11,Nyers,USA,OR,Deschutes,Processed,Early - Mid Holocene   Cascade,43.80000,-121.30000
2273,Paulina Creek Cache,,BO-21-66_12,Nyers,USA,OR,Deschutes,Processed,Early - Mid Holocene   Cascade,43.80000,-121.30000
2274,Paulina Creek Cache,,BO-21-66_13,Nyers,USA,OR,Deschutes,Processed,Early - Mid Holocene   Cascade,43.80000,-121.30000
2275,Paulina Creek Cache,,BO-21-66_14,Nyers,USA,OR,Deschutes,Processed,Early - Mid Holocene   Cascade,43.80000,-121.30000
2276,Paulina Creek Cache,,BO-21-66_15,Nyers,USA,OR,Deschutes,Processed,Early - Mid Holocene   Cascade,43.80000,-121.30000
2277,Paulina Creek Cache,,BO-21-66_16,Nyers,USA,OR,Deschutes,not scanned yet,Early - Mid Holocene   Cascade,43.80000,-121.30000
2278,Paulina Creek Cache,,BO-21-66_17,Nyers,USA,OR,Deschutes,Processed,Early - Mid Holocene   Cascade,43.80000,-121.30000
2279,Paulina Creek Cache,,BO-21-66_18,Nyers,USA,OR,Deschutes,Processed,Early - Mid Holocene   Cascade,43.80000,-121.30000
2280,Paulina Creek Cache,,BO-21-66_19,Nyers,USA,OR,Deschutes,Processed,Early - Mid Holocene   Cascade,43.80000,-121.30000
2281,Paulina Creek Cache,,BO-21-66_20,Nyers,USA,OR,Deschutes,Processed,Early - Mid Holocene   Cascade,43.80000,-121.30000
2282,Paulina Creek Cache,,BO-21-66_21,Nyers,USA,OR,Deschutes,Processed,Early - Mid Holocene   Cascade,43.80000,-121.30000
2283,Paulina Creek Cache,,BO-21-66_22,Nyers,USA,OR,Deschutes,Processed,Early - Mid Holocene   Cascade,43.80000,-121.30000
2284,Paulina Creek Cache,,BO-21-66_23,Nyers,USA,OR,Deschutes,Processed,Early - Mid Holocene   Cascade,43.80000,-121.30000
2285,Paulina Creek Cache,,BO-21-66_24,Nyers,USA,OR,Deschutes,not scanned yet,Early - Mid Holocene   Cascade,43.80000,-121.30000
2286,Paulina Creek Cache,,BO-21-66_25,Nyers,USA,OR,Deschutes,Processed,"Early Holocene   Agate Basin   (Distant source, may be from elsewhere)",43.80000,-121.30000
2287,Paulina Creek Cache,,BO-21-66_26,Nyers,USA,OR,Deschutes,Processed,Early - Mid Holocene   Cascade,43.80000,-121.30000
2288,Paulina Creek Cache,,BO-21-66_27,Nyers,USA,OR,Deschutes,Processed,"Contact   Desert Delta Side Notch   (Distant source, may be from elsewhere)",43.80000,-121.30000
2289,Paulina Creek Cache,,BO-21-66_28,Nyers,USA,OR,Deschutes,Processed,"Late Holocene   Elko Corner Notch   (Distant source, may be from elsewhere)",43.80000,-121.30000
2290,Paulina Creek Cache,,BO-21-66_29,Nyers,USA,OR,Deschutes,Processed,"(Distant source, may be from elsewhere)",43.80000,-121.30000
2291,Paulina Creek Cache,,BO-21-66_30,Nyers,USA,OR,Deschutes,Processed,"Contact   Desert Side Notch   (Distant source, may be from elsewhere)",43.80000,-121.30000
2292,Paulina Creek Cache,,BO-21-66_31,Nyers,USA,OR,Deschutes,Processed,"Early - Mid Holocene   Cascade   (Distant source, may be from elsewhere)",43.80000,-121.30000
2294,Paulina Creek Cache,,BO-21-66_33,Nyers,USA,OR,Deschutes,Processed,Contact   Desert Delta Side Notch,43.80000,-121.30000
2295,Paulina Creek Cache,,BO-21-66_34,Nyers,USA,OR,Deschutes,Processed,"Early - Mid Holocene   Cascade   (Distant source, may be from elsewhere)",43.80000,-121.30000
2296,Paulina Creek Cache,,BO-21-66_35,Nyers,USA,OR,Deschutes,Processed,"Late Holocene   Elko Corner Notch   (Distant source, may be from elsewhere)",43.80000,-121.30000
2297,Paulina Creek Cache,,BO-21-66_36,Nyers,USA,OR,Deschutes,Processed,,43.80000,-121.30000
2299,Paulina Creek Cache,,BO-21-66_38,Nyers,USA,OR,Deschutes,not scanned yet,"Broken Blade   (Distant source, may be from elsewhere)",43.80000,-121.30000
2300,Paulina Creek Cache,,BO-21-66_39,Nyers,USA,OR,Deschutes,Processed,,43.80000,-121.30000
2301,Paulina Creek Cache,,BO-21-66_40,Nyers,USA,OR,Deschutes,Processed,Appears to have broken blade that has been resharpened,43.80000,-121.30000
2302,Paulina Creek Cache,,BO-21-66_41,Nyers,USA,OR,Deschutes,Processed,"Contact. Hells Canyon Basal Notch   (Distant source, may be from elsewhere)",43.80000,-121.30000
2303,Paulina Creek Cache,,BO-21-66_42,Nyers,USA,OR,Deschutes,Processed,Early - Mid Holocene   Cascade,43.80000,-121.30000
2304,Paulina Creek Cache,,BO-21-66_43,Nyers,USA,OR,Deschutes,Processed,Early - Mid Holocene   Cascade,43.80000,-121.30000
2305,Paulina Creek Cache,,BO-21-66_44,Nyers,USA,OR,Deschutes,Processed,Early - Mid Holocene   Cascade,43.80000,-121.30000
2306,Paulina Creek Cache,,BO-21-66_45,Nyers,USA,OR,Deschutes,Processed,Early - Mid Holocene   Cascade,43.80000,-121.30000
2307,Paulina Creek Cache,,BO-21-66_46,Nyers,USA,OR,Deschutes,Processed,"Early - Mid Holocene,   Cascade",43.80000,-121.30000
2308,Paulina Creek Cache,,BO-21-66_47,Nyers,USA,OR,Deschutes,Processed,"Early - Mid Holocene,   Cascade",43.80000,-121.30000
2309,Paulina Creek Cache,,BO-21-66_48,Nyers,USA,OR,Deschutes,Processed,"Early - Mid Holocene,   Cascade",43.80000,-121.30000
2310,Paulina Creek Cache,,BO-21-66_49,Nyers,USA,OR,Deschutes,Processed,"Early - Mid Holocene,   Cascade",43.80000,-121.30000
2311,Paulina Creek Cache,,BO-21-66_50,Nyers,USA,OR,Deschutes,Processed,"Early - Mid Holocene,   Cascade",43.80000,-121.30000
2312,Paulina Creek Cache,,BO-21-66_51,Nyers,USA,OR,Deschutes,Processed,"Early - Mid Holocene,   Cascade",43.80000,-121.30000
2313,Paulina Creek Cache,,BO-21-66_52,Nyers,USA,OR,Deschutes,Processed,"Early - Mid Holocene,   Cascade",43.80000,-121.30000
2314,Paulina Creek Cache,,BO-21-66_53,Nyers,USA,OR,Deschutes,Processed,"Early - Mid Holocene,   Cascade",43.80000,-121.30000
2315,Paulina Creek Cache,,BO-21-66_54,Nyers,USA,OR,Deschutes,Processed,"Early - Mid Holocene,   Cascade",43.80000,-121.30000
2316,Paulina Creek Cache,,BO-21-66_55,Nyers,USA,OR,Deschutes,Processed,"Early - Mid Holocene,   Cascade",43.80000,-121.30000
2317,Paulina Creek Cache,,BO-21-66_56,Nyers,USA,OR,Deschutes,Processed,"Early - Mid Holocene,   Cascade",43.80000,-121.30000
2318,Paulina Creek Cache,,BO-21-66_57,Nyers,USA,OR,Deschutes,Processed,"Early - Mid Holocene,   Cascade",43.80000,-121.30000
2319,Paulina Creek Cache,,BO-21-66_58,Nyers,USA,OR,Deschutes,Processed,"Early - Mid Holocene,   Cascade",43.80000,-121.30000
2320,Paulina Creek Cache,,BO-21-66_59,Nyers,USA,OR,Deschutes,Processed,"Early - Mid Holocene,   Cascade",43.80000,-121.30000
2321,Paulina Creek Cache,,BO-21-66_60,Nyers,USA,OR,Deschutes,Processed,"Early - Mid Holocene,   Cascade",43.80000,-121.30000
2322,Paulina Creek Cache,,BO-21-66_61,Nyers,USA,OR,Deschutes,Processed,"Early - Mid Holocene,   Cascade",43.80000,-121.30000
2323,Paulina Creek Cache,,BO-21-66_62,Nyers,USA,OR,Deschutes,Processed,"Early - Mid Holocene,   Cascade",43.80000,-121.30000
2324,Paulina Creek Cache,,BO-21-66_63,Nyers,USA,OR,Deschutes,Processed,"Mid Holocene,   Northern Side Notch   (Distant source, may be from elsewhere)",43.80000,-121.30000
2325,Paulina Creek Cache,,BO-21-66_64,Nyers,USA,OR,Deschutes,Processed,"Early - Mid Holocene,   Cascade",43.80000,-121.30000
2326,Paulina Creek Cache,,BO-21-66_65,Nyers,USA,OR,Deschutes,Processed,"Early - Mid Holocene,   Cascade",43.80000,-121.30000
2327,Lava Cast Cache,35DS751,BO-21-27c_ 31,Nyers,USA,OR,Deschutes,zz,Spec31.ply    Much more metadata in separate table,43.80000,-121.30000
2328,Lava Cast Cache,35DS751,BO-21-27c_ 32,Nyers,USA,OR,Deschutes,zz,Spec32.ply    Much more metadata in separate table,43.80000,-121.30000
2329,Lava Cast Cache,35DS751,BO-21-27c_ 33,Nyers,USA,OR,Deschutes,zz,Spec33.ply    Much more metadata in separate table,43.80000,-121.30000
2330,Lava Cast Cache,35DS751,BO-21-27c_ 34,Nyers,USA,OR,Deschutes,zz,Spec34.ply    Much more metadata in separate table,43.80000,-121.30000
2331,Lava Cast Cache,35DS751,BO-21-27c_ 35,Nyers,USA,OR,Deschutes,zz,Spec35.ply    Much more metadata in separate table,43.80000,-121.30000
2332,Lava Cast Cache,35DS751,BO-21-27c_ 36,Nyers,USA,OR,Deschutes,zz,Spec36.ply    Much more metadata in separate table,43.80000,-121.30000
2333,Lava Cast Cache,35DS751,BO-21-27c_ 37,Nyers,USA,OR,Deschutes,zz,Spec37.ply    Much more metadata in separate table,43.80000,-121.30000
2334,Lava Cast Cache,35DS751,BO-21-27c_ 38,Nyers,USA,OR,Deschutes,zz,Spec38.ply    Much more metadata in separate table,43.80000,-121.30000
2335,Lava Cast Cache,35DS751,BO-21-27c_ 39,Nyers,USA,OR,Deschutes,zz,Spec39.ply    Much more metadata in separate table,43.80000,-121.30000
2336,Lava Cast Cache,35DS751,BO-21-27c_ 40,Nyers,USA,OR,Deschutes,zz,Spec40.ply    Much more metadata in separate table,43.80000,-121.30000
2337,Lava Cast Cache,35DS751,BO-21-27c_ 41,Nyers,USA,OR,Deschutes,zz,Spec41.ply    Much more metadata in separate table,43.80000,-121.30000
2338,Lava Cast Cache,35DS751,BO-21-27c_ 42,Nyers,USA,OR,Deschutes,zz,Spec42.ply    Much more metadata in separate table,43.80000,-121.30000
2339,Lava Cast Cache,35DS751,BO-21-27c_ 43,Nyers,USA,OR,Deschutes,zz,Spec43.ply    Much more metadata in separate table,43.80000,-121.30000
2340,Lava Cast Cache,35DS751,BO-21-27c_ 44,Nyers,USA,OR,Deschutes,zz,Spec44.ply    Much more metadata in separate table,43.80000,-121.30000
2341,Lava Cast Cache,35DS751,BO-21-27c_ 45,Nyers,USA,OR,Deschutes,zz,Spec45.ply    Much more metadata in separate table,43.80000,-121.30000
2342,Lava Cast Cache,35DS751,BO-21-27c_ 46,Nyers,USA,OR,Deschutes,zz,Spec46.ply    Much more metadata in separate table,43.80000,-121.30000
2343,Lava Cast Cache,35DS751,BO-21-27c_ 47,Nyers,USA,OR,Deschutes,zz,Spec47.ply    Much more metadata in separate table,43.80000,-121.30000
2344,Lava Cast Cache,35DS751,BO-21-27c_ 48,Nyers,USA,OR,Deschutes,zz,Spec48.ply    Much more metadata in separate table,43.80000,-121.30000
2345,Lava Cast Cache,35DS751,BO-21-27c_ 49,Nyers,USA,OR,Deschutes,zz,Spec49.ply    Much more metadata in separate table,43.80000,-121.30000
2346,Lava Cast Cache,35DS751,BO-21-27c_ 50,Nyers,USA,OR,Deschutes,zz,Spec50.ply    Much more metadata in separate table,43.80000,-121.30000
2347,Lava Cast Cache,35DS751,BO-21-27c_ 51,Nyers,USA,OR,Deschutes,zz,Spec51.ply    Much more metadata in separate table,43.80000,-121.30000
2348,Lava Cast Cache,35DS751,BO-21-27c_ 52,Nyers,USA,OR,Deschutes,zz,Spec52.ply    Much more metadata in separate table,43.80000,-121.30000
2349,Lava Cast Cache,35DS751,BO-21-27c_ 53,Nyers,USA,OR,Deschutes,zz,Spec53.ply    Much more metadata in separate table,43.80000,-121.30000
2350,Lava Cast Cache,35DS751,BO-21-27c_ 54,Nyers,USA,OR,Deschutes,zz,Spec54.ply    Much more metadata in separate table,43.80000,-121.30000
2351,Lava Cast Cache,35DS751,BO-21-27c_ 55,Nyers,USA,OR,Deschutes,zz,Spec55.ply    Much more metadata in separate table,43.80000,-121.30000
2352,Lava Cast Cache,35DS751,BO-21-27c_ 56,Nyers,USA,OR,Deschutes,zz,Spec56.ply    Much more metadata in separate table,43.80000,-121.30000
2353,Lava Cast Cache,35DS751,BO-21-27c_ 57,Nyers,USA,OR,Deschutes,zz,Spec57.ply    Much more metadata in separate table,43.80000,-121.30000
2354,Lava Cast Cache,35DS751,BO-21-27c_ 58,Nyers,USA,OR,Deschutes,zz,Spec58.ply    Much more metadata in separate table,43.80000,-121.30000
2355,Lava Cast Cache,35DS751,BO-21-27c_ 59,Nyers,USA,OR,Deschutes,zz,Spec59.ply    Much more metadata in separate table,43.80000,-121.30000
2356,Lava Cast Cache,35DS751,BO-21-27c_ 60,Nyers,USA,OR,Deschutes,zz,Spec60.ply    Much more metadata in separate table,43.80000,-121.30000
2357,Lava Cast Cache,35DS751,BO-21-27c_ 61,Nyers,USA,OR,Deschutes,zz,Spec61.ply    Much more metadata in separate table,43.80000,-121.30000
2358,Lava Cast Cache,35DS751,BO-21-27c_ 62,Nyers,USA,OR,Deschutes,zz,Spec62.ply    Much more metadata in separate table,43.80000,-121.30000
2359,Lava Cast Cache,35DS751,BO-21-27c_ 63,Nyers,USA,OR,Deschutes,zz,Spec63.ply    Much more metadata in separate table,43.80000,-121.30000
2360,Lava Cast Cache,35DS751,BO-21-27c_ 64,Nyers,USA,OR,Deschutes,zz,Spec64.ply    Much more metadata in separate table,43.80000,-121.30000
2361,Lava Cast Cache,35DS751,BO-21-27c_ 65,Nyers,USA,OR,Deschutes,zz,Spec65.ply    Much more metadata in separate table,43.80000,-121.30000
2362,Lava Cast Cache,35DS751,BO-21-27c_ 66,Nyers,USA,OR,Deschutes,zz,Spec66.ply    Much more metadata in separate table,43.80000,-121.30000
2363,Lava Cast Cache,35DS751,BO-21-27c_ 67,Nyers,USA,OR,Deschutes,zz,Spec67.ply    Much more metadata in separate table,43.80000,-121.30000
2364,Lava Cast Cache,35DS751,BO-21-27c_ 68,Nyers,USA,OR,Deschutes,zz,Spec68.ply    Much more metadata in separate table,43.80000,-121.30000
2365,Lava Cast Cache,35DS751,BO-21-27c_ 69,Nyers,USA,OR,Deschutes,zz,Spec69.ply    Much more metadata in separate table,43.80000,-121.30000
2366,Lava Cast Cache,35DS751,BO-21-27c_ 70,Nyers,USA,OR,Deschutes,zz,Spec70.ply    Much more metadata in separate table,43.80000,-121.30000
2367,Lava Cast Cache,35DS751,BO-21-27c_ 71,Nyers,USA,OR,Deschutes,zz,Spec71.ply    Much more metadata in separate table,43.80000,-121.30000
2368,Lava Cast Cache,35DS751,BO-21-27c_ 72,Nyers,USA,OR,Deschutes,zz,Spec72.ply    Much more metadata in separate table,43.80000,-121.30000
2369,Lava Cast Cache,35DS751,BO-21-27c_ 73,Nyers,USA,OR,Deschutes,zz,Spec73.ply    Much more metadata in separate table,43.80000,-121.30000
2370,Lava Cast Cache,35DS751,BO-21-27c_ 74,Nyers,USA,OR,Deschutes,zz,Spec74.ply    Much more metadata in separate table,43.80000,-121.30000
2371,Lava Cast Cache,35DS751,BO-21-27c_ 75,Nyers,USA,OR,Deschutes,zz,Spec75.ply    Much more metadata in separate table,43.80000,-121.30000
2372,Lava Cast Cache,35DS751,BO-21-27c_ 76,Nyers,USA,OR,Deschutes,zz,Spec76.ply    Much more metadata in separate table,43.80000,-121.30000
2373,Lava Cast Cache,35DS751,BO-21-27c_ 77,Nyers,USA,OR,Deschutes,zz,Spec77.ply    Much more metadata in separate table,43.80000,-121.30000
2374,Lava Cast Cache,35DS751,BO-21-27c_ 78,Nyers,USA,OR,Deschutes,zz,Spec78.ply    Much more metadata in separate table,43.80000,-121.30000
2375,Lava Cast Cache,35DS751,BO-21-27c_ 79,Nyers,USA,OR,Deschutes,zz,Spec79.ply    Much more metadata in separate table,43.80000,-121.30000
2376,Lava Cast Cache,35DS751,BO-21-27c_ 80,Nyers,USA,OR,Deschutes,zz,Spec80.ply    Much more metadata in separate table,43.80000,-121.30000
2377,Lava Cast Cache,35DS751,BO-21-27c_ 81,Nyers,USA,OR,Deschutes,zz,Spec81.ply    Much more metadata in separate table,43.80000,-121.30000
2378,Lava Cast Cache,35DS751,BO-21-27c_ 82,Nyers,USA,OR,Deschutes,zz,Spec82.ply    Much more metadata in separate table,43.80000,-121.30000
2379,Lava Cast Cache,35DS751,BO-21-27c_ 83,Nyers,USA,OR,Deschutes,zz,Spec83.ply    Much more metadata in separate table,43.80000,-121.30000
2380,Lava Cast Cache,35DS751,BO-21-27c_ 84,Nyers,USA,OR,Deschutes,zz,Spec84.ply    Much more metadata in separate table,43.80000,-121.30000
2381,Lava Cast Cache,35DS751,BO-21-27c_ 85,Nyers,USA,OR,Deschutes,zz,Spec85.ply    Much more metadata in separate table,43.80000,-121.30000
2382,Lava Cast Cache,35DS751,BO-21-27c_ 86,Nyers,USA,OR,Deschutes,zz,Spec86.ply    Much more metadata in separate table,43.80000,-121.30000
2383,Lava Cast Cache,35DS751,BO-21-27c_ 87,Nyers,USA,OR,Deschutes,zz,Spec87.ply    Much more metadata in separate table,43.80000,-121.30000
2384,Lava Cast Cache,35DS751,BO-21-27c_ 88,Nyers,USA,OR,Deschutes,zz,Spec88.ply    Much more metadata in separate table,43.80000,-121.30000
2385,Lava Cast Cache,35DS751,BO-21-27c_ 89,Nyers,USA,OR,Deschutes,zz,Spec89.ply    Much more metadata in separate table,43.80000,-121.30000
2386,Lava Cast Cache,35DS751,BO-21-27c_ 90,Nyers,USA,OR,Deschutes,zz,Spec90.ply    Much more metadata in separate table,43.80000,-121.30000
2387,Lava Cast Cache,35DS751,BO-21-27c_ 91,Nyers,USA,OR,Deschutes,zz,Spec91.ply    Much more metadata in separate table,43.80000,-121.30000
2388,Lava Cast Cache,35DS751,BO-21-27c_ 92,Nyers,USA,OR,Deschutes,zz,Spec92.ply    Much more metadata in separate table,43.80000,-121.30000
2389,Lava Cast Cache,35DS751,BO-21-27c_ 93,Nyers,USA,OR,Deschutes,zz,Spec93.ply    Much more metadata in separate table,43.80000,-121.30000
2390,Lava Cast Cache,35DS751,BO-21-27c_ 94,Nyers,USA,OR,Deschutes,zz,Spec94.ply    Much more metadata in separate table,43.80000,-121.30000
2391,Lava Cast Cache,35DS751,BO-21-27c_ 95,Nyers,USA,OR,Deschutes,zz,Spec95.ply    Much more metadata in separate table,43.80000,-121.30000
2392,Lava Cast Cache,35DS751,BO-21-27c_ 96,Nyers,USA,OR,Deschutes,zz,Spec96.ply    Much more metadata in separate table,43.80000,-121.30000
2393,Lava Cast Cache,35DS751,BO-21-27c_ 97,Nyers,USA,OR,Deschutes,zz,Spec97.ply    Much more metadata in separate table,43.80000,-121.30000
2394,Lava Cast Cache,35DS751,BO-21-27c_ 98,Nyers,USA,OR,Deschutes,zz,Spec98.ply    Much more metadata in separate table,43.80000,-121.30000
2395,Lava Cast Cache,35DS751,BO-21-27c_ 99,Nyers,USA,OR,Deschutes,zz,Spec99.ply    Much more metadata in separate table,43.80000,-121.30000
2396,Lava Cast Cache,35DS751,BO-21-27c_ 100,Nyers,USA,OR,Deschutes,zz,Spec100.ply    Much more metadata in separate table,43.80000,-121.30000
2397,Lava Cast Cache,35DS751,BO-21-27c_ 101,Nyers,USA,OR,Deschutes,zz,Spec101.ply    Much more metadata in separate table,43.80000,-121.30000
2398,Lava Cast Cache,35DS751,BO-21-27c_ 102,Nyers,USA,OR,Deschutes,zz,Spec102.ply    Much more metadata in separate table,43.80000,-121.30000
2399,Lava Cast Cache,35DS751,BO-21-27c_ 103,Nyers,USA,OR,Deschutes,zz,Spec103.ply    Much more metadata in separate table,43.80000,-121.30000
2400,Lava Cast Cache,35DS751,BO-21-27c_ 104,Nyers,USA,OR,Deschutes,zz,Spec104.ply    Much more metadata in separate table,43.80000,-121.30000
2401,Lava Cast Cache,35DS751,BO-21-27c_ 105,Nyers,USA,OR,Deschutes,zz,Spec105.ply    Much more metadata in separate table,43.80000,-121.30000
2402,Lava Cast Cache,35DS751,BO-21-27c_ 106,Nyers,USA,OR,Deschutes,zz,Spec106.ply    Much more metadata in separate table,43.80000,-121.30000
2403,Lava Cast Cache,35DS751,BO-21-27c_ 107,Nyers,USA,OR,Deschutes,zz,Spec107.ply    Much more metadata in separate table,43.80000,-121.30000
2404,Lava Cast Cache,35DS751,BO-21-27c_ 108,Nyers,USA,OR,Deschutes,zz,Spec108.ply    Much more metadata in separate table,43.80000,-121.30000
2405,Lava Cast Cache,35DS751,BO-21-27c_ 109,Nyers,USA,OR,Deschutes,zz,Spec109.ply    Much more metadata in separate table,43.80000,-121.30000
2406,Lava Cast Cache,35DS751,BO-21-27c_ 110,Nyers,USA,OR,Deschutes,zz,Spec110.ply    Much more metadata in separate table,43.80000,-121.30000
2407,Lava Cast Cache,35DS751,BO-21-27c_ 1,Nyers,USA,OR,Deschutes,zz,Spec1.ply    Much more metadata in separate table,43.80000,-121.30000
2408,Lava Cast Cache,35DS751,BO-21-27c_ 2,Nyers,USA,OR,Deschutes,zz,Spec2.ply    Much more metadata in separate table,43.80000,-121.30000
2409,Lava Cast Cache,35DS751,BO-21-27c_ 3,Nyers,USA,OR,Deschutes,zz,Spec3.ply    Much more metadata in separate table,43.80000,-121.30000
2410,Lava Cast Cache,35DS751,BO-21-27c_ 4,Nyers,USA,OR,Deschutes,zz,Spec4.ply    Much more metadata in separate table,43.80000,-121.30000
2411,Lava Cast Cache,35DS751,BO-21-27c_ 5,Nyers,USA,OR,Deschutes,zz,Spec5.ply    Much more metadata in separate table,43.80000,-121.30000
2412,Lava Cast Cache,35DS751,BO-21-27c_ 6,Nyers,USA,OR,Deschutes,zz,Spec6.ply    Much more metadata in separate table,43.80000,-121.30000
2413,Lava Cast Cache,35DS751,BO-21-27c_ 7,Nyers,USA,OR,Deschutes,zz,Spec7.ply    Much more metadata in separate table,43.80000,-121.30000
2414,Lava Cast Cache,35DS751,BO-21-27c_ 8,Nyers,USA,OR,Deschutes,zz,Spec8.ply    Much more metadata in separate table,43.80000,-121.30000
2415,Lava Cast Cache,35DS751,BO-21-27c_ 9,Nyers,USA,OR,Deschutes,zz,Spec9.ply    Much more metadata in separate table,43.80000,-121.30000
2416,Lava Cast Cache,35DS751,BO-21-27c_ 10,Nyers,USA,OR,Deschutes,zz,Spec10.ply    Much more metadata in separate table,43.80000,-121.30000
2417,Lava Cast Cache,35DS751,BO-21-27c_ 11,Nyers,USA,OR,Deschutes,zz,Spec11.ply    Much more metadata in separate table,43.80000,-121.30000
2418,Lava Cast Cache,35DS751,BO-21-27c_ 12,Nyers,USA,OR,Deschutes,zz,Spec12.ply    Much more metadata in separate table,43.80000,-121.30000
2419,Lava Cast Cache,35DS751,BO-21-27c_ 13,Nyers,USA,OR,Deschutes,zz,Spec13.ply    Much more metadata in separate table,43.80000,-121.30000
2420,Lava Cast Cache,35DS751,BO-21-27c_ 14,Nyers,USA,OR,Deschutes,zz,Spec14.ply    Much more metadata in separate table,43.80000,-121.30000
2421,Lava Cast Cache,35DS751,BO-21-27c_ 15,Nyers,USA,OR,Deschutes,zz,Spec15.ply    Much more metadata in separate table,43.80000,-121.30000
2422,Lava Cast Cache,35DS751,BO-21-27c_ 16,Nyers,USA,OR,Deschutes,zz,Spec16.ply    Much more metadata in separate table,43.80000,-121.30000
2423,Lava Cast Cache,35DS751,BO-21-27c_ 17,Nyers,USA,OR,Deschutes,zz,Spec17.ply    Much more metadata in separate table,43.80000,-121.30000
2424,Lava Cast Cache,35DS751,BO-21-27c_ 18,Nyers,USA,OR,Deschutes,zz,Spec18.ply    Much more metadata in separate table,43.80000,-121.30000
2425,Lava Cast Cache,35DS751,BO-21-27c_ 19,Nyers,USA,OR,Deschutes,zz,Spec19.ply    Much more metadata in separate table,43.80000,-121.30000
2426,Lava Cast Cache,35DS751,BO-21-27c_ 20,Nyers,USA,OR,Deschutes,zz,Spec20.ply    Much more metadata in separate table,43.80000,-121.30000
2427,Lava Cast Cache,35DS751,BO-21-27c_ 21,Nyers,USA,OR,Deschutes,zz,Spec21.ply    Much more metadata in separate table,43.80000,-121.30000
2428,Lava Cast Cache,35DS751,BO-21-27c_ 22,Nyers,USA,OR,Deschutes,zz,Spec22.ply    Much more metadata in separate table,43.80000,-121.30000
2429,Lava Cast Cache,35DS751,BO-21-27c_ 23,Nyers,USA,OR,Deschutes,zz,Spec23.ply    Much more metadata in separate table,43.80000,-121.30000
2430,Lava Cast Cache,35DS751,BO-21-27c_ 24,Nyers,USA,OR,Deschutes,zz,Spec24.ply    Much more metadata in separate table,43.80000,-121.30000
2431,Lava Cast Cache,35DS751,BO-21-27c_ 25,Nyers,USA,OR,Deschutes,zz,Spec25.ply    Much more metadata in separate table,43.80000,-121.30000
2432,Lava Cast Cache,35DS751,BO-21-27c_ 26,Nyers,USA,OR,Deschutes,zz,Spec26.ply    Much more metadata in separate table,43.80000,-121.30000
2433,Lava Cast Cache,35DS751,BO-21-27c_ 27,Nyers,USA,OR,Deschutes,zz,Spec27.ply    Much more metadata in separate table,43.80000,-121.30000
2434,Lava Cast Cache,35DS751,BO-21-27c_ 28,Nyers,USA,OR,Deschutes,zz,Spec28.ply    Much more metadata in separate table,43.80000,-121.30000
2435,Lava Cast Cache,35DS751,BO-21-27c_ 29,Nyers,USA,OR,Deschutes,zz,Spec29.ply    Much more metadata in separate table,43.80000,-121.30000
2436,Lava Cast Cache,35DS751,BO-21-27c_ 30,Nyers,USA,OR,Deschutes,zz,Spec30.ply    Much more metadata in separate table,43.80000,-121.30000
2437,Lava Cast Cache,35DS751,BO-21-27c_ 111,Nyers,USA,OR,Deschutes,zz,Spec111.ply    Much more metadata in separate table,43.80000,-121.30000
2438,Lava Cast Cache,35DS751,BO-21-27c_ 112,Nyers,USA,OR,Deschutes,zz,Spec112.ply    Much more metadata in separate table,43.80000,-121.30000
2439,Lava Cast Cache,35DS751,BO-21-27c_ 113,Nyers,USA,OR,Deschutes,zz,Spec113.ply    Much more metadata in separate table,43.80000,-121.30000
2440,Lava Cast Cache,35DS751,BO-21-27c_ 114,Nyers,USA,OR,Deschutes,zz,Spec114.ply    Much more metadata in separate table,43.80000,-121.30000
2441,Lava Cast Cache,35DS751,BO-21-27c_ 115,Nyers,USA,OR,Deschutes,zz,Spec115.ply    Much more metadata in separate table,43.80000,-121.30000
2442,Lava Cast Cache,35DS751,BO-21-27c_ 116,Nyers,USA,OR,Deschutes,zz,Spec116.ply    Much more metadata in separate table,43.80000,-121.30000
2443,Lava Cast Cache,35DS751,BO-21-27c_ 117,Nyers,USA,OR,Deschutes,zz,Spec117.ply    Much more metadata in separate table,43.80000,-121.30000
2444,Lava Cast Cache,35DS751,BO-21-27c_ 118,Nyers,USA,OR,Deschutes,zz,Spec118.ply    Much more metadata in separate table,43.80000,-121.30000
2445,Lava Cast Cache,35DS751,BO-21-27c_ 119,Nyers,USA,OR,Deschutes,zz,Spec119.ply    Much more metadata in separate table,43.80000,-121.30000
2446,Lava Cast Cache,35DS751,BO-21-27c_ 120,Nyers,USA,OR,Deschutes,zz,Spec120.ply    Much more metadata in separate table,43.80000,-121.30000
2447,Lava Cast Cache,35DS751,BO-21-27c_ 121,Nyers,USA,OR,Deschutes,zz,Spec121.ply    Much more metadata in separate table,43.80000,-121.30000
2448,Lava Cast Cache,35DS751,BO-21-27c_ 122,Nyers,USA,OR,Deschutes,zz,Spec122.ply    Much more metadata in separate table,43.80000,-121.30000
2449,Lava Cast Cache,35DS751,BO-21-27c_ 123,Nyers,USA,OR,Deschutes,zz,Spec123.ply    Much more metadata in separate table,43.80000,-121.30000
2450,Lava Cast Cache,35DS751,BO-21-27c_ 124,Nyers,USA,OR,Deschutes,zz,Spec124.ply    Much more metadata in separate table,43.80000,-121.30000
2451,Lava Cast Cache,35DS751,BO-21-27c_ 125,Nyers,USA,OR,Deschutes,zz,Spec125.ply    Much more metadata in separate table,43.80000,-121.30000
2452,Lava Cast Cache,35DS751,BO-21-27c_ 126,Nyers,USA,OR,Deschutes,zz,Spec126.ply    Much more metadata in separate table,43.80000,-121.30000
2453,Lava Cast Cache,35DS751,BO-21-27c_ 127,Nyers,USA,OR,Deschutes,zz,Spec127.ply    Much more metadata in separate table,43.80000,-121.30000
2454,Lava Cast Cache,35DS751,BO-21-27c_ 128,Nyers,USA,OR,Deschutes,zz,Spec128.ply    Much more metadata in separate table,43.80000,-121.30000
2455,Lava Cast Cache,35DS751,BO-21-27c_ 129,Nyers,USA,OR,Deschutes,zz,Spec129.ply    Much more metadata in separate table,43.80000,-121.30000
2456,Lava Cast Cache,35DS751,BO-21-27c_ 130,Nyers,USA,OR,Deschutes,zz,Spec130.ply    Much more metadata in separate table,43.80000,-121.30000
2457,Lava Cast Cache,35DS751,BO-21-27c_ 131,Nyers,USA,OR,Deschutes,zz,Spec131.ply    Much more metadata in separate table,43.80000,-121.30000
2458,Lava Cast Cache,35DS751,BO-21-27c_ 132,Nyers,USA,OR,Deschutes,zz,Spec132.ply    Much more metadata in separate table,43.80000,-121.30000
2459,Lava Cast Cache,35DS751,BO-21-27c_ 133,Nyers,USA,OR,Deschutes,zz,Spec133.ply    Much more metadata in separate table,43.80000,-121.30000
2460,Lava Cast Cache,35DS751,BO-21-27c_ 134,Nyers,USA,OR,Deschutes,zz,Spec134.ply    Much more metadata in separate table,43.80000,-121.30000
2461,Lava Cast Cache,35DS751,BO-21-27c_ 135,Nyers,USA,OR,Deschutes,zz,Spec135.ply    Much more metadata in separate table,43.80000,-121.30000
2462,Lava Cast Cache,35DS751,BO-21-27c_ 136,Nyers,USA,OR,Deschutes,zz,Spec136.ply    Much more metadata in separate table,43.80000,-121.30000
2463,Lava Cast Cache,35DS751,BO-21-27c_ 137,Nyers,USA,OR,Deschutes,zz,Spec137.ply    Much more metadata in separate table,43.80000,-121.30000
2464,Lava Cast Cache,35DS751,BO-21-27c_ 138,Nyers,USA,OR,Deschutes,zz,Spec138.ply    Much more metadata in separate table,43.80000,-121.30000
2465,Lava Cast Cache,35DS751,BO-21-27c_ 139,Nyers,USA,OR,Deschutes,zz,Spec139.ply    Much more metadata in separate table,43.80000,-121.30000
2466,Lava Cast Cache,35DS751,BO-21-27c_ 140,Nyers,USA,OR,Deschutes,zz,Spec140.ply    Much more metadata in separate table,43.80000,-121.30000
2467,Lava Cast Cache,35DS751,BO-21-27c_ 141,Nyers,USA,OR,Deschutes,zz,Spec141.ply    Much more metadata in separate table,43.80000,-121.30000
2468,Lava Cast Cache,35DS751,BO-21-27c_ 142,Nyers,USA,OR,Deschutes,zz,Spec142.ply    Much more metadata in separate table,43.80000,-121.30000
2469,Lava Cast Cache,35DS751,BO-21-27c_ 143,Nyers,USA,OR,Deschutes,zz,Spec143.ply    Much more metadata in separate table,43.80000,-121.30000
2470,Lava Cast Cache,35DS751,BO-21-27c_ 144,Nyers,USA,OR,Deschutes,zz,Spec144.ply    Much more metadata in separate table,43.80000,-121.30000
2471,Lava Cast Cache,35DS751,BO-21-27c_ 145,Nyers,USA,OR,Deschutes,zz,Spec145.ply    Much more metadata in separate table,43.80000,-121.30000
2472,Lava Cast Cache,35DS751,BO-21-27c_ 146,Nyers,USA,OR,Deschutes,zz,Spec146.ply    Much more metadata in separate table,43.80000,-121.30000
2473,Lava Cast Cache,35DS751,BO-21-27c_ 147,Nyers,USA,OR,Deschutes,zz,Spec147.ply    Much more metadata in separate table,43.80000,-121.30000
2474,Lava Cast Cache,35DS751,BO-21-27c_ 148,Nyers,USA,OR,Deschutes,zz,Spec148.ply    Much more metadata in separate table,43.80000,-121.30000
2475,Lava Cast Cache,35DS751,BO-21-27c_ 149,Nyers,USA,OR,Deschutes,zz,Spec149.ply    Much more metadata in separate table,43.80000,-121.30000
2476,Lava Cast Cache,35DS751,BO-21-27c_ 150,Nyers,USA,OR,Deschutes,zz,Spec150.ply    Much more metadata in separate table,43.80000,-121.30000
2477,Lava Cast Cache,35DS751,BO-21-27c_ 151,Nyers,USA,OR,Deschutes,zz,Spec151.ply    Much more metadata in separate table,43.80000,-121.30000
2478,Lava Cast Cache,35DS751,BO-21-27c_ 152,Nyers,USA,OR,Deschutes,zz,Spec152.ply    Much more metadata in separate table,43.80000,-121.30000
2479,Lava Cast Cache,35DS751,BO-21-27c_ 153,Nyers,USA,OR,Deschutes,zz,Spec153.ply    Much more metadata in separate table,43.80000,-121.30000
2480,Lava Cast Cache,35DS751,BO-21-27c_ 154,Nyers,USA,OR,Deschutes,zz,Spec154.ply    Much more metadata in separate table,43.80000,-121.30000
2481,Lava Cast Cache,35DS751,BO-21-27c_ 155,Nyers,USA,OR,Deschutes,zz,Spec155.ply    Much more metadata in separate table,43.80000,-121.30000
2482,Lava Cast Cache,35DS751,BO-21-27c_ 156,Nyers,USA,OR,Deschutes,zz,Spec156.ply    Much more metadata in separate table,43.80000,-121.30000
2483,Lava Cast Cache,35DS751,BO-21-27c_ 157,Nyers,USA,OR,Deschutes,zz,Spec157.ply    Much more metadata in separate table,43.80000,-121.30000
2484,Lava Cast Cache,35DS751,BO-21-27c_ 158,Nyers,USA,OR,Deschutes,zz,Spec158.ply    Much more metadata in separate table,43.80000,-121.30000
2485,Lava Cast Cache,35DS751,BO-21-27c_ 159,Nyers,USA,OR,Deschutes,zz,Spec159.ply    Much more metadata in separate table,43.80000,-121.30000
2486,Lava Cast Cache,35DS751,BO-21-27c_ 160,Nyers,USA,OR,Deschutes,zz,Spec160.ply    Much more metadata in separate table,43.80000,-121.30000
2487,Lava Cast Cache,35DS751,BO-21-27c_ 161,Nyers,USA,OR,Deschutes,zz,Spec161.ply    Much more metadata in separate table,43.80000,-121.30000
2488,Lava Cast Cache,35DS751,BO-21-27c_ 162,Nyers,USA,OR,Deschutes,zz,Spec162.ply    Much more metadata in separate table,43.80000,-121.30000
2489,Lava Cast Cache,35DS751,BO-21-27c_ 163,Nyers,USA,OR,Deschutes,zz,Spec163.ply    Much more metadata in separate table,43.80000,-121.30000
